business_name,email,phone,website,city,address,owner_name,category
Flour + Time Bakery,flourandtimebakery@gmail.com,(470) 368-6588,http://www.flourandtimebakery.com/,"Atlanta, USA",,,vegan restaurant
Flaky Not Flaky - Bake Shoppe and Chocolatarium,info@flakynotflaky.com,(770) 847-0427,http://www.flakynotflaky.com/,"Atlanta, USA",,,restaurant
Do√±a Bakehouse Kuala Lumpur,connect@donabakehouse.com,018-782 8782,https://donabakehouse.com/,"Kuala Lumpur, Malaysia",,,restaurant
La Boulangerie,info@laboulangerie.pt,21 395 1208,https://laboulangerie.pt/,"Lisbon, Portugal",,,restaurant
Brunetti Oro Flinders Lane,yuri@brunettioro.com,(03) 9069 3169,https://brunettioro.com.au/?utm_source=local&utm_medium=organic&utm_campaign=gmb-listing_flinderslane,"Melbourne, Australia",,,italian restaurant
Cakes And Muffin House,info@cakesandmuffins.co.ke,0724 693103,http://www.cakesandmuffins.co.ke/,"Nairobi, Kenya",,,restaurant
Boudin Bakery,info@bistroboudin.com,(415) 351-5561,https://www.bistroboudin.com/,"San Francisco, USA",,,restaurant
o bistro,info@obistro.nl,,http://www.obistro.nl/,"Amsterdam, Netherlands",,,french restaurant
Bistrot Neuf,reserveringen@neuf.amsterdam,020 400 3210,https://neuf.amsterdam/,"Amsterdam, Netherlands",,,french restaurant
Atrium - American Bistro & Martini Bar,info@atriumatl.com,(404) 600-3939,https://www.atriumatl.com/,"Atlanta, USA",,,restaurant
THE CHASTAIN - Restaurant,info@thechastainatl.com,(404) 257-6416,http://www.thechastainatl.com/,"Atlanta, USA",,,restaurant
Utopia Restaurant at the Underground Atlanta,info@utopialoungeatl.com,(470) 886-1803,https://utopialoungeatl.com/,"Atlanta, USA",,,restaurant
Ziba's Bistro and Wine Bar,zibasbistro@gmail.com,(404) 622-4440,https://www.zibasbistroandwinebar.com/,"Atlanta, USA",,,restaurant
Pacific Rim Bistro,pacificrimbistro@gmail.com,(404) 893-0018,http://www.pacificrimbistro.com/,"Atlanta, USA",,,sushi restaurant
Fin & Feathers Restaurants,info@finandfeathersrestaurants.com,(404) 855-5524,http://www.finandfeathersrestaurants.com/,"Atlanta, USA",,,restaurant
The Southern Gentleman,southerngentleman@sphospitality.com,(404) 939-9845,http://www.thesoutherngentlemanatl.com/,"Atlanta, USA",,,american restaurant
Bistro Saine,bonjour@bistrosaine.co.nz,09 610 8404,https://bistrosaine.co.nz/,"Auckland, New Zealand",,,restaurant
Hugo's Bistro,hello@hugosbistro.co.nz,09 320 4387,http://hugosbistro.co.nz/,"Auckland, New Zealand",,,restaurant
Amano,events@savorgroup.co.nz,09 394 1416,https://savor.co.nz/amano,"Auckland, New Zealand",,,restaurant
Le Garde-Manger,bookings@www.legardemanger.co.nz,09 362 0655,http://www.legardemanger.co.nz/,"Auckland, New Zealand",,,french restaurant
Bar Magda,hi@barmagda.co.nz,021 127 9377,http://www.barmagda.co.nz/,"Auckland, New Zealand",,,restaurant
Le Chef,booking@le-chef.co.nz,09 373 4723,https://le-chef.co.nz/,"Auckland, New Zealand",,,french restaurant
Olivia Bistro,oliviabar.bcn@gmail.com,658 08 68 69,https://olivia-bistro.makro.rest/,"Barcelona, Spain",,,restaurant
Algrano Bistro | Tamarit,info@algranobistro.com,640 39 99 88,http://www.algranobistro.com/,"Barcelona, Spain",,,restaurant
Gourmet Sensi,gourmet@sensi.es,936 73 62 65,https://sensi.es/gourmet,"Barcelona, Spain",,,tapas restaurant
Bistro Medina,bistro.medina@t-online.de,030 36419148,http://www.bistromedina.de/,"Berlin, Germany",,,restaurant
PeterPaul,mail@peterpaul.berlin,030 43773043,http://peterpaul.berlin/,"Berlin, Germany",,,german restaurant
Marie Antoinette | Restaurante Frances,servicioalcliente@restauranteseratta.com,322 7256479,https://www.restmarieantoinette.com/,"Bogot√°, Colombia",,,french restaurant
Cosette Andino,cosette.salitre@dlksa.net,321 2093722,http://www.cosettecafebistro.com/,"Bogot√°, Colombia",,,french restaurant
L' Orangerie Alvear Palace Hotel,restaurantes.aph@alvear.com.ar,011 4808-2100,http://alvearpalace.com/restaurantes-bares/restaurant-lorangerie/,"Buenos Aires, Argentina",,,restaurant
The Wes Bistro & Bar,info@thewes.co.za,082 770 3573,https://www.thewes.co.za/,"Cape Town, South Africa",,,restaurant
Bistro Sixteen82,reservations@bistro1682.co.za,021 205 3866,https://steenbergfarm.com/bistro1682-cape-town-contemporary-restaurant/?utm_source=google&utm_medium=organic&utm_id=gbp-bistro-1682,"Cape Town, South Africa",,,restaurant
The Bistro @ Klein Constantia,info@kleinconstantia.com,021 794 5188,https://www.kleinconstantia.com/the-bistro/,"Cape Town, South Africa",,,restaurant
Zest Restaurant,reservations@zestcapetown.co.za,021 010 7010,http://www.zestcapetown.co.za/,"Cape Town, South Africa",,,restaurant
Bistro Monadnock,reso@bistromonadnock.com,(312) 945-7040,http://www.bistromonadnock.com/,"Chicago, USA",,,french restaurant
River North Bistro,info@rivernorthbistrochicago.com,(312) 202-6055,http://www.rivernorthbistrochicago.com/,"Chicago, USA",,,american restaurant
Village Bistro,info@thefirstcollection.ae,04 275 6621,https://www.thefirstcollection.ae/jvc/restaurants/village-bistro-rest/?utm_source=listings&utm_medium=organic&utm_campaign=villagebistro,"Dubai, UAE",,,restaurant
Bistro Des Arts,info@bistrodesarts.ae,04 551 1576,http://www.bistrodesarts.ae/,"Dubai, UAE",,,restaurant
Bistro Arabia by FashionTV,bistroarabiabyftv@gmail.com,058 900 0897,https://bistroarabiaftv.com/,"Dubai, UAE",,,restaurant
Bistrot Novanta Dubai,reservations@bistrotnovanta.com,050 125 5849,https://www.bistrotnovanta.com/,"Dubai, UAE",,,restaurant
L'AUBERGE RESTAURANT,restoaubergedubai@gmail.com,04 451 6347,https://laubergerestaurant.com/,"Dubai, UAE",,,restaurant
La Serre Dubai,reservations@alpauae.com,052 377 3100,https://laserrecitywalk.com/,"Dubai, UAE",,,french restaurant
Chez Max,chezmaxpalace@gmail.com,(01) 633 7215,https://chezmax.com/,"Dublin, Ireland",,,french restaurant
Bloom Brasserie,info@bloombrasserie.ie,(01) 668 7170,http://www.bloombrasserie.ie/,"Dublin, Ireland",,,restaurant
The Bank on College Green,info@bankoncollegegreen.com,(01) 677 0677,http://www.bankoncollegegreen.com/,"Dublin, Ireland",,,european restaurant
Bistro Le Cep,junior@bistro-le-cep.com,(713) 783-3985,http://www.bistro-le-cep.com/,"Houston, USA",,,french restaurant
Salento Bistrot,info@salentobistrot.com,(713) 528-7478,https://salentobistrot.com/,"Houston, USA",,,spanish restaurant
Q Bistro Semarak (Jalan Tun Razak),info@hajris.com.my,018-304 7822,https://qbistro.com/,"Kuala Lumpur, Malaysia",,,indian restaurant
Sarastro KL by Millennium,hello@sarastrokl.com.my,03-2727 2280,https://sarastrokl.com.my/,"Kuala Lumpur, Malaysia",,,restaurant
Brasserie L√©on,info@brasserie-leon.com,03-2011 3659,https://www.brasserie-leon.com/,"Kuala Lumpur, Malaysia",,,french restaurant
√âtoile Bistro at EQ,info@kul.equatorial.com,03-2789 7777,https://www.eqkualalumpur.equatorial.com/dining/etoile/?utm_source=local&utm_medium=organic&utm_campaign=GoogleMyBusiness&utm_content=Etoile+GMB,"Kuala Lumpur, Malaysia",,,restaurant
Entier French Dining,bonjour@entierfrenchdining.com,03-2268 3819,http://entierfrenchdining.com/,"Kuala Lumpur, Malaysia",,,french restaurant
The Brasserie,thebrasserie@stregis.com,03-2727 6696,https://www.thebrasseriekl.com/,"Kuala Lumpur, Malaysia",,,restaurant
Piano Bistro Restaurant,info@thedelborough.com,,https://www.thedelborough.com/,"Lagos, Nigeria",,,restaurant
Brasserie Zedel,reservations@brasseriezedel.com,020 7734 4888,http://www.brasseriezedel.com/,"London, UK",,,french restaurant
Boro Bistro,helloborobistro@gmail.com,020 7378 0788,http://borobistro.co.uk/,"London, UK",,,french restaurant
Brother Marcus Borough,enquiries@brothermarcus.co.uk,020 3146 4001,https://brothermarcus.co.uk/locations/boroughyards/,"London, UK",,,mediterranean restaurant
Bistrot at Wild Honey,dining.stjames@sofitel.com,020 7747 2200,https://www.wildhoneylondon.co.uk/bistrotatwildhoney/,"London, UK",,,restaurant
Bleeding Heart Bistro,bookings@bleedingheart.co.uk,020 7242 8238,http://www.bleedingheart.co.uk/,"London, UK",,,french restaurant
Old Compton Brasserie,bookings@oldcomptonbrasserie.co.uk,020 7434 2214,http://www.oldcomptonbrasserie.co.uk/,"London, UK",,,restaurant
Bouchon Racine,bonjour@bouchonracine.com,020 7253 3368,https://www.bouchonracine.com/new-home,"London, UK",,,french restaurant
64 Goodge Street,info@64goodgestreet.co.uk,020 3747 6364,http://64goodgestreet.co.uk/,"London, UK",,,french restaurant
Boulevard Brasserie,bookings@boulevardbrasserie.co.uk,020 7240 2992,http://www.boulevardbrasserie.co.uk/,"London, UK",,,french restaurant
Le Garrick,info@legarrick.co.uk,020 7240 7649,https://www.legarrick.co.uk/,"London, UK",,,french restaurant
A Food Affair,afoodaffair@gmail.com,(310) 557-9795,http://afoodaffair.com/,"Los Angeles, USA",,,french restaurant
Blacklock Manchester,hello@theblacklock.com,0161 414 0225,https://theblacklock.com/restaurants/manchester/,"Manchester, UK",,,steak house
THE BRASSERIE,info@mercuremanchester.co.uk,0161 751 1412,https://www.mercuremanchester.co.uk/manchester-restaurant/,"Manchester, UK",,,restaurant
Higher Ground,hello@highergroundmcr.co.uk,0161 470 9821,http://highergroundmcr.co.uk/,"Manchester, UK",,,british restaurant
The Sparrows Continental Pasta & Sp√§tzle,info@thesparrows.me,0161 302 6267,https://thesparrows.me/,"Manchester, UK",,,dumpling restaurant
Cosy Club,manchesterbookings@cosyclub.co.uk,0161 933 8255,https://cosyclub.co.uk/location/manchester/,"Manchester, UK",,,british restaurant
Adam Reid at The French,info@adam-reid.co.uk,,http://www.the-french-manchester.co.uk/,"Manchester, UK",,,french restaurant
Bon Ap' Petit Bistro,info@bonap.com.au,(03) 9415 9450,https://www.bonap.com.au/,"Melbourne, Australia",,,french restaurant
Bistrot Bisou,bonjour@bistrotbisou.com.au,(03) 9612 5757,http://www.bistrotbisou.com.au/,"Melbourne, Australia",,,french restaurant
Bistra,info@bistracarlton.com.au,(03) 9000 5607,https://www.bistracarlton.com.au/,"Melbourne, Australia",,,restaurant
The European,info@theeuropean.com.au,(03) 9654 0811,http://www.theeuropean.com.au/,"Melbourne, Australia",,,european restaurant
Chancery Lane,info@chancerylane.com.au,(03) 9089 7598,http://www.chancerylane.com.au/,"Melbourne, Australia",,,restaurant
Tartine,info@tartine.com.au,(03) 9428 3339,http://www.tartine.com.au/,"Melbourne, Australia",,,french restaurant
Le Petit Bistro,info@lepetitbistro.com.au,(03) 9822 1161,https://lepetitbistro.com.au/,"Melbourne, Australia",,,french restaurant
French Saloon,info@frenchsaloon.com,(03) 9600 2142,https://frenchsaloon.com/,"Melbourne, Australia",,,restaurant
Bistr√≥ Chapultepec,rrppbistro@cmr.mx,55 3933 0616,http://bistrochapultepec.com/,"Mexico City, Mexico",,,restaurant
American Bistroüçî American Restaurant Miami Beach,contact@americanbistromiamibeach.com,(305) 413-2465,https://americanbistromiamibeach.com/,"Miami, USA",,,american restaurant
Bistro Ocho,hi@bistro8miami.com,(305) 456-4543,http://www.bistro8miami.com/,"Miami, USA",,,restaurant
Bianco Bistro Cafe,biancobistrocafe@gmail.com,(786) 762-2459,http://biancobistro.com/,"Miami, USA",,,restaurant
Oliver's Bistro,oliversbistro959@gmail.com,(305) 535-3050,http://www.oliversmiamibeach.com/,"Miami, USA",,,restaurant
OUI Bistrot,contact@ouibistrot.com,(305) 395-8011,https://www.ouibistrot.com/,"Miami, USA",,,french restaurant
LOULOU,events@loulounyc.com,(212) 337-9577,https://www.loulounyc.com/,"New York City, USA",,,french restaurant
Le Rivage,info@lerivagenyc.com,(212) 765-7374,https://lerivagenyc.com/#about,"New York City, USA",,,french restaurant
Le Coucou,lecoucou.reservations@starr-restaurant.com,(212) 271-4252,https://www.lecoucou.com/?utm_source=GoogleBusinessProfile&utm_medium=Website&utm_campaign=MapLabs,"New York City, USA",,,restaurant
Le Parisien Bistrot,leparisiennyc@gmail.com,(212) 889-5489,http://www.leparisiennyc.com/,"New York City, USA",,,french restaurant
Grand Brasserie,info@vizz.group,(929) 577-4446,https://www.grandbrasserie.com/,"New York City, USA",,,french restaurant
Brasserie Bellanger,ondiscute@lanouvellegarde.com,09 54 00 99 65,https://nouvellegardegroupe.fr/,"Paris, France",,,restaurant
Sottise,hello@sottisephx.com,(602) 254-6378,http://www.sottisephx.com/,"Phoenix, USA",,,restaurant
El Zaguan Bistro,admin@elzaguanbistro.com,(602) 877-3033,https://www.elzaguanbistro.com/,"Phoenix, USA",,,mexican restaurant
Bistro Rex Restaurant,hello@bistrorex.com.au,(02) 9332 2100,http://www.bistrorex.com.au/,"Sydney, Australia",,,french restaurant
"Loulou Bistro, Boulangerie & Traiteur",hello@loulou.sydney,(02) 8000 7800,https://loulou.sydney/,"Sydney, Australia",,,french restaurant
The Bistro 19,hello@thebistro19.com.au,0478 744 494,https://thebistro19.com.au/,"Sydney, Australia",,,restaurant
Bistro Moncur,reservations@bistromoncur.com,(02) 9327 9713,http://www.bistromoncur.com.au/,"Sydney, Australia",,,french restaurant
Bistro Mosman,dine@bistromosman.com.au,(02) 9969 7022,https://www.thebuena.com.au/bistromosman/,"Sydney, Australia",,,mediterranean restaurant
Bistro Ebony,manager@bistroebony.com.au,(02) 9150 5230,https://www.bistroebony.com.au/,"Sydney, Australia",,,restaurant
Bistr√¥ L‚ÄôHotel,reservations@portobay.pt,(11) 2183-0500,https://www.portobay.com/en/restaurants/restaurants-sao-paulo/bistro-lhotel/,"S√£o Paulo, Brazil",,,restaurant
Le Bife,contato@lebife.com.br,(11) 4324-0783,http://www.lebife.com.br/,"S√£o Paulo, Brazil",,,restaurant
LE BISTRO,lebistro@huge.co.jp,03-6635-1030,https://www.huge.co.jp/restaurant/french/lebistro,"Tokyo, Japan",,,french restaurant
Chez Olivier,chezolivier@chezolivier.co.jp,050-5487-1412,http://www.chezolivier.co.jp/index.html,"Tokyo, Japan",,,french restaurant
Cheffry's Artisanal Bistro,cheffry@cheffrysbistro.com,(437) 996-7357,https://cheffrysbistro.com/,"Toronto, Canada",,,restaurant
Maison T,maisont@maisontbistro.com,(416) 551-9898,http://www.maisontbistro.com/,"Toronto, Canada",,,restaurant
Jazz Bistro,events@jazzbistro.ca,(416) 363-5299,https://jazzbistro.ca/,"Toronto, Canada",,,restaurant
The Broadview Bistro + Bar,info@thebroadviewhotel.ca,(416) 362-8439,https://www.thebroadviewhotel.ca/,"Toronto, Canada",,,restaurant
Alouette Bistro,info@alouettevancouver.com,(604) 689-8862,http://alouettevancouver.com/,"Vancouver, Canada",,,french restaurant
Bacchus Restaurant & Lounge,catering@wedgewoodhotel.com,(604) 608-5319,https://wedgewoodhotel.com/dining/bacchus-restaurant/,"Vancouver, Canada",,,european restaurant
L'Abattoir,info@labattoir.ca,(604) 568-1701,https://www.labattoir.ca/,"Vancouver, Canada",,,restaurant
R√©publique Caf√© Bakery & R√©publique Restaurant,events@republiquela.com,(310) 362-6115,http://www.republiquela.com/,"Los Angeles, USA",,,french restaurant
Grace Street Coffee & Desserts,hello@bygracestreet.com,(917) 540-2776,https://www.bygracestreet.com/,"New York City, USA",,,dessert restaurant
Vogue Cafe Sydney,reservations@voguecafe.au,(02) 8529 8850,https://voguecafe.au/,"Sydney, Australia",,,restaurant
11:59 Bar:Caf√©,info@1159barcafe.com,(416) 730-8019,http://www.1159barcafe.com/,"Toronto, Canada",,,restaurant
The Pantry,info@thepantry.nl,020 620 0922,https://www.thepantry.nl/?redirect=yes,"Amsterdam, Netherlands",,,dutch restaurant
Black and Blue,info@restaurantblackandblue.nl,020 625 0807,https://www.restaurantblackandblue.nl/,"Amsterdam, Netherlands",,,steak house
Restaurant Olijfje,info@restaurantolijfje.nl,020 330 4444,https://www.restaurantolijfje.nl/en,"Amsterdam, Netherlands",,,mediterranean restaurant
De Blauwe Hollander,info@deblauwehollander.nl,020 627 0521,https://deblauwehollander.nl/,"Amsterdam, Netherlands",,,dutch restaurant
Blue Amsterdam,welcome@blue-amsterdam.nl,020 427 3901,http://www.blue-amsterdam.nl/,"Amsterdam, Netherlands",,,restaurant
The Seafood Bar,info@theseafoodbar.com,020 261 1563,https://www.theseafoodbar.com/,"Amsterdam, Netherlands",,,seafood restaurant
Restaurant De Belhamel,info@belhamel.nl,020 622 1095,https://www.belhamel.nl/,"Amsterdam, Netherlands",,,french restaurant
Moeders,info@moeders.com,020 626 7957,http://www.moeders.com/,"Amsterdam, Netherlands",,,dutch restaurant
Restaurant Zaza's,info@zazas.nl,020 673 6333,http://www.zazas.nl/,"Amsterdam, Netherlands",,,restaurant
Pesca Seafood Restaurant Amsterdam,hamburg@pesca.restaurant,020 334 5136,https://pesca.restaurant/,"Amsterdam, Netherlands",,,seafood restaurant
Restaurant Black Olive Amsterdam,info@restaurantblackolive.nl,06 28079666,http://www.restaurantblackolive.nl/,"Amsterdam, Netherlands",,,restaurant
Senses Restaurant,welcome@sensesrestaurant.nl,020 530 6266,http://www.sensesrestaurant.nl/,"Amsterdam, Netherlands",,,restaurant
Caf√©-Restaurant Amsterdam,info@cradam.nl,020 682 2666,https://cradam.nl/,"Amsterdam, Netherlands",,,restaurant
Caf√© restaurant van Kerkwijk,gaspard@qodeinteractive.com,020 620 3316,https://www.vankerkwijk.com/,"Amsterdam, Netherlands",,,restaurant
Umami by Han Amsterdam,hello@villenoir.com,020 280 1379,http://umami-restaurant.com/,"Amsterdam, Netherlands",,,asian fusion restaurant
BLESS Restaurant,hello@bless-restaurants.com,030 20619795,https://bless-restaurants.com/,"Berlin, Germany",,,asian restaurant
Schnitzelei Mitte,mitte@schnitzelei.de,030 32519422,https://schnitzelei.de/mitte/,"Berlin, Germany",,,german restaurant
Zur Gerichtslaube,info@gerichtslaube.de,030 2415697,http://www.gerichtslaube.de/,"Berlin, Germany",,,german restaurant
Amrit,info@amrit.de,030 28884840,https://www.amrit.de/,"Berlin, Germany",,,indian restaurant
Restaurant Facil,welcome@facil.de,030 590051234,https://facil.de/de/,"Berlin, Germany",,,fine dining restaurant
Gaffel Haus Berlin - Das K√∂lsche Konsulat in der Hauptstadt,berlin@gaffel-haus.de,030 31011693,http://www.gaffel-haus-berlin.de/,"Berlin, Germany",,,german restaurant
Restaurant Trattoria Portofino,info@portofino-trattoria.de,030 23910610,http://www.portofino-trattoria.de/,"Berlin, Germany",,,italian restaurant
Boulevard Friedrichstrasse,mail@boulevard-friedrichstrasse.de,030 2833437,http://www.boulevard.berlin/,"Berlin, Germany",,,german restaurant
Alt-Berliner Wirtshaus,wirtshaus@hamanns-gastronomie.de,030 22488205,http://www.altberliner-wirtshaus.de/,"Berlin, Germany",,,german restaurant
St√§ndige Vertretung,berlin@staev.de,030 2823965,https://www.staev.de/berlin-mitte.html,"Berlin, Germany",,,german restaurant
Dicke Wirtin,post@dicke-wirtin.de,030 3124952,https://dicke-wirtin.de/,"Berlin, Germany",,,german restaurant
Restauration 1840,restaurant@berlin-1840.de,030 24727401,https://www.berlin-1840.de/,"Berlin, Germany",,,german restaurant
Alla Vita,info@allavitachicago.com,(312) 667-0104,https://www.allavitachicago.com/,"Chicago, USA",,,restaurant
Boka,events@bokachicago.com,(312) 337-6070,http://www.bokachicago.com/,"Chicago, USA",,,american restaurant
The Berghoff Restaurant,jamaal@berghoff.com,(312) 427-3170,https://www.theberghoff.com/,"Chicago, USA",,,german restaurant
Cindy's Rooftop,cindysinfo@caa.bokagrp.com,(312) 792-3502,http://www.cindysrooftop.com/,"Chicago, USA",,,restaurant
Bungalow,reservation@alifehospitality.com,(713) 393-7868,https://bungalowdining.com/,"Houston, USA",,,steak house
State of Grace,eventsstateofgrace@rocketfarmrestaurants.com,(832) 942-5080,http://www.stateofgracetx.com/,"Houston, USA",,,american restaurant
JOEY Uptown,accessibility@joeyrestaurants.com,(346) 646-5639,https://joeyrestaurants.com/location/joey-uptown,"Houston, USA",,,restaurant
Nancy's Hustle,info@nancyshustle.com,(346) 571-7931,http://nancyshustle.com/,"Houston, USA",,,american restaurant
La Fisheria,lafisheria.downtown@gmail.com,(713) 802-1712,http://www.lafisheriahtx.com/,"Houston, USA",,,mexican restaurant
Josephine's,josephinesgulfcoast@gmail.com,(713) 527-8988,https://josephinesgulfcoasttradition.com/,"Houston, USA",,,seafood restaurant
Moxies Houston Restaurant,jdesjardins@eatzhospitality.com,(346) 571-6164,https://moxies.com/restaurants/houston?utm_source=GMB&utm_medium=google-location-listing&utm_campaign=organic,"Houston, USA",,,restaurant
Tattu London,london@tattu.co.uk,020 3778 1985,https://tattu.co.uk/locations/tattu-london/,"London, UK",,,asian restaurant
HIDE,info@hide.co.uk,020 3146 8666,https://hide.co.uk/?utm_source=gbp&utm_medium=organic,"London, UK",,,fine dining restaurant
The Wolseley,reservations@thewolseley.com,020 7499 6996,http://www.thewolseley.com/,"London, UK",,,british restaurant
Rules,pr@rules.co.uk,020 7836 5314,http://www.rules.co.uk/,"London, UK",,,british restaurant
Blacklock Covent Garden,coventgarden@theblacklock.com,020 3034 1394,https://theblacklock.com/coventgarden-reservations/?utm_source=GMB&utm_medium=website+click&utm_campaign=SDM&utm_id=GMB,"London, UK",,,restaurant
Berners Tavern,eh.loneb.events@editionhotels.com,020 7908 7979,http://www.bernerstavern.com/,"London, UK",,,british restaurant
Ekstedt at The Yard,enquiries.ekstedt@greatscotlandyard.com,020 7925 4749,https://www.ekstedtattheyard.com/,"London, UK",,,scandinavian restaurant
Bantof,info@bantof.com,07548 373755,https://bantof.com/,"London, UK",,,restaurant
OMA,hello@oma.london,020 8129 6760,http://oma.london/,"London, UK",,,greek restaurant
Nonos,contact@nonos.co.uk,020 7278 9700,http://nonos.co.uk/,"London, UK",,,greek restaurant
Osteria romana,info@osteriaromana.co.uk,020 7584 5819,http://osteriaromana.co.uk/,"London, UK",,,italian restaurant
Inca London,reservations@incalondon.com,020 7734 6066,http://www.incalondon.com/home,"London, UK",,,south american restaurant
Oste,ostelosangeles@outlook.com,(323) 413-2372,http://ostelosangeles.com/,"Los Angeles, USA",,,italian restaurant
Farmer's Daughters,info@farmersdaughters.com.au,(03) 9116 8682,https://www.farmersdaughters.com.au/?utm_source=Google&utm_medium=GMB&utm_campaign=Map,"Melbourne, Australia",,,restaurant
NOMAD Melbourne,eat@nomad.melbourne,(03) 9021 5240,https://nomad.melbourne/,"Melbourne, Australia",,,restaurant
Maha Restaurant,admin@maharestaurant.com.au,(03) 9629 5900,http://maharestaurant.com.au/,"Melbourne, Australia",,,middle eastern restaurant
Freyja,hello@freyjarestaurant.com,(03) 8688 7141,https://www.freyjarestaurant.com/,"Melbourne, Australia",,,restaurant
Gimlet,frontdesk@gimlet.melbourne,(03) 9277 9777,https://gimlet.melbourne/,"Melbourne, Australia",,,restaurant
La Cucina Melbourne,info@lacucinamelbourne.com.au,(03) 8456 7682,https://www.lacucinamelbourne.com.au/,"Melbourne, Australia",,,italian restaurant
Supernormal,info@supernormal.net.au,(03) 9650 8688,http://www.supernormal.net.au/,"Melbourne, Australia",,,asian fusion restaurant
Palermo,info@palermo.melbourne,(03) 9002 1600,https://www.palermo.melbourne/?utm_source=google&utm_medium=gmb,"Melbourne, Australia",,,argentinian restaurant
Tipo 00,eat@tipooo.com.au,(03) 9942 3946,https://www.tipo00.com.au/,"Melbourne, Australia",,,italian restaurant
Vue de monde,vuedemonde@vuedemonde.com.au,(03) 9691 3888,http://www.vuedemonde.com.au/,"Melbourne, Australia",,,fine dining restaurant
Kiss & Tell,info@mamasdininggroup.com.au,(03) 9095 6614,http://kissandtell.melbourne/,"Melbourne, Australia",,,asian fusion restaurant
Society,bookings@societyrestaurant.com,(03) 8618 8900,https://www.societyrestaurant.com/,"Melbourne, Australia",,,restaurant
The George on Collins,info@thegeorgeoncollins.com.au,(03) 9663 7226,http://www.thegeorgeoncollins.com.au/,"Melbourne, Australia",,,asian restaurant
Sezar Restaurant,info@sezar.com.au,(03) 9663 9882,http://sezar.com.au/,"Melbourne, Australia",,,eastern european restaurant
MoVida,reservations@movida.com.au,(03) 9663 3038,https://www.movida.com.au/,"Melbourne, Australia",,,spanish restaurant
Osteria Ilaria,eat@osteriailaria.com,(03) 9642 2287,http://www.osteriailaria.com/,"Melbourne, Australia",,,italian restaurant
Chin Chin,eat@chinchinrestaurant.com.au,(03) 8663 2000,https://www.chinchin.melbourne/,"Melbourne, Australia",,,asian restaurant
Meatmaiden,info@meatmaiden.com.au,(03) 9078 7747,http://www.meatmaiden.com.au/,"Melbourne, Australia",,,steak house
Crazy About You,info@passionrestaurantgroup.com,(305) 377-4442,https://passionrestaurantgroup.com/restaurants/crazy-about-you/,"Miami, USA",,,american restaurant
CASA NEOS,reservations@casa-neos.com,(305) 800-6367,https://www.casa-neos.com/,"Miami, USA",,,mediterranean restaurant
Gordon Ramsay Hell's Kitchen - Miami,rgrhigh@gordonramsay.com,(786) 688-0082,https://www.gordonramsayrestaurants.com/en/us/hells-kitchen/locations/miami,"Miami, USA",,,restaurant
Komodo Miami,info@komodomiami.com,(305) 534-2211,https://komodomiami.com/,"Miami, USA",,,restaurant
Mayami Wynwood,info@mayamiwynwood.com,(786) 660-1341,https://www.mayamiwynwood.com/,"Miami, USA",,,restaurant
Marabu Restaurant,hello@maraburestaurant.com,(786) 598-8012,https://www.maraburestaurant.com/,"Miami, USA",,,restaurant
Moxies Miami Restaurant,adeleon@eatzhospitality.com,(305) 549-8997,https://moxies.com/restaurants/miami-mary-brickell?utm_source=GMB&utm_medium=google-location-listing&utm_campaign=organic,"Miami, USA",,,restaurant
Santorini by Georgios,groups@santorinibygeorgios.com,(305) 672-6624,https://santorinibygeorgios.com/,"Miami, USA",,,greek restaurant
Nusr-Et Steakhouse,michelle.sabel@nusr-etus.com,(305) 415-9990,https://www.nusr-et.com.tr/distinctive-venues/miami.5.aspx?&utm_source=google+business+profile&utm_medium=organic&utm_content=gbp+link+website&utm_creative_format=gbp+link+website&business_id=15624168890025590037,"Miami, USA",,,steak house
La Grande Boucherie,contact_chicago@boucherieus.com,(212) 510-7714,https://www.boucherieus.com/,"New York City, USA",,,french restaurant
The Smith,info@thesmithrestaurant.com,(212) 685-4500,https://thesmithrestaurant.com/location/nomad/,"New York City, USA",,,american restaurant
Butter,reservations@butterrestaurant.com,(646) 719-1364,http://www.butterrestaurant.com/,"New York City, USA",,,american restaurant
1803 NYC,1803nyc@gmail.com,(212) 267-3000,https://1803nyc.com/,"New York City, USA",,,cajun restaurant
Eataly,customerservice@eataly.com,(212) 897-2895,https://www.eataly.com/us_en/stores/nyc-downtown/restaurants,"New York City, USA",,,italian restaurant
Minetta Tavern,events@minettatavernny.com,(212) 475-3850,http://www.minettatavernny.com/,"New York City, USA",,,french restaurant
Atera,reservations@ateranyc.com,(212) 226-1444,http://www.ateranyc.com/,"New York City, USA",,,american restaurant
Le Marais Restaurant Paris,contact@privateaser.com,09 87 36 09 13,https://www.privateaser.com/lieu/44897-le-marais-restaurant,"Paris, France",,,mediterranean restaurant
Chouchou,restauchouchou@gmail.com,01 45 08 02 03,http://www.restaurantchouchouparis.fr/,"Paris, France",,,french restaurant
Epicure,epicure@oetkerhotels.com,01 53 43 43 40,https://www.oetkerhotels.com/hotels/le-bristol-paris/restaurants-bars/epicure/?utm_source=google&utm_medium=organic&utm_campaign=google_local_epicure,"Paris, France",,,fine dining restaurant
Restaurant Guy Savoy,reserv@guysavoy.com,01 43 80 40 61,http://www.guysavoy.com/,"Paris, France",,,french restaurant
Au Vieux Comptoir,auvieuxcomptoir@gmail.com,01 45 08 53 08,https://www.au-vieux-comptoir.com/,"Paris, France",,,french restaurant
Pur' - Jean-Fran√ßois Rouquette,reservations.restaurants@hyatt.com,01 58 71 10 60,https://www.paris-restaurant-pur.fr/,"Paris, France",,,fine dining restaurant
Hustlers. Syd,hello@hustlerssyd.com.au,0402 641 929,http://www.hustlerssyd.com.au/,"Sydney, Australia",,,asian fusion restaurant
The Blue Door,eat@thebluedoorsurryhills.com.au,0417 909 635,http://www.thebluedoorsurryhills.com.au/,"Sydney, Australia",,,fine dining restaurant
Bennelong,reservations@bennelong.com.au,(02) 9240 8000,http://www.bennelong.com.au/,"Sydney, Australia",,,australian restaurant
Aalia Restaurant Sydney,info@aaliarestaurant.com,(02) 9182 5880,https://www.aaliarestaurant.com/?utm_content=AALIA+Restaurant+Sydney&utm_campaign=Google+My+Business&utm_medium=organic&utm_source=google&utm_term=plcid_6952976032146166324,"Sydney, Australia",,,middle eastern restaurant
New Amsterdam Cafe,hi@newamsterdamcafe.com,(604) 682-8955,http://newamsterdamcafe.com/,"Vancouver, Canada",,,restaurant
Joe's Caf√© Dubai,joescafedubai@binhendiholding.com,04 320 0040,https://www.joescafedubai.com/,"Dubai, UAE",,,restaurant
"Arabian Tea House Restaurant & Cafe - Al Fahidi, Dubai",info@arabianteahouse.com,04 353 5071,http://www.arabianteahouse.com/,"Dubai, UAE",,,middle eastern restaurant
Evelyn's,hello@evelyns.co,0161 834 3303,http://www.evelyns.co/,"Manchester, UK",,,restaurant
MERCI MARCEL ORCHARD,hello@mercimarcelgroup.com,6970 9792,http://www.mercimarcelgroup.com/,Singapore,,,french restaurant
Cafe de Muse - The Restaurant,jris@cafedemusesg.com,6970 5011,https://www.cafedemusesg.com/,Singapore,,,restaurant
Le Jardin Cafe | Fort Canning,enquiries@lejardin.com.sg,8870 9977,http://www.lejardin.com.sg/,Singapore,,,european restaurant
Stacks Diner,hello@stacksdiner.com,020 854 5963,https://www.stacksdiner.com/,"Amsterdam, Netherlands",,,restaurant
Stamppot Amsterdam,info@stamppot-amsterdam.nl,020 303 8314,https://www.stamppot-amsterdam.nl/,"Amsterdam, Netherlands",,,restaurant
Hard Rock Cafe Amsterdam,amsterdam_social@hardrock.com,020 888 1358,https://cafe.hardrock.com/amsterdam/#utm_source=Google&utm_medium=Yext&utm_campaign=Listings,"Amsterdam, Netherlands",,,american restaurant
Stoop & Stoop eetcaf√©,info@stoopenstoop-amsterdam.nl,020 620 0982,http://www.stoopenstoop.nl/,"Amsterdam, Netherlands",,,dutch restaurant
Hollands Hap Hmm Restaurant,haphmm33@gmail.com,020 770 8924,http://www.hap-hmm.nl/,"Amsterdam, Netherlands",,,dutch restaurant
Broadway Diner,hello@broadwaydiner.co.nz,,https://broadwaydiner.co.nz/,"Auckland, New Zealand",,,hamburger restaurant
Federal Delicatessen,hello@thefed.co.nz,021 905 345,http://www.thefed.co.nz/,"Auckland, New Zealand",,,restaurant
Mr. Morris,eat@mrmorris.nz,09 869 5522,http://www.mrmorris.nz/,"Auckland, New Zealand",,,restaurant
Hard Rock Cafe | Berlin,berlin_social@hardrock.com,030 884620,https://cafe.hardrock.com/berlin/,"Berlin, Germany",,,american restaurant
Steakhouse & Restaurant Las Malvinas,info@las-malvinas.de,030 24727004,https://las-malvinas.de/,"Berlin, Germany",,,steak house
The Bird,thebirdreservations@gmail.com,030 20455600,http://www.thebirdinberlin.com/,"Berlin, Germany",,,american restaurant
Curry 61,info@curry61.de,030 40054033,http://www.curry61.de/,"Berlin, Germany",,,fast food restaurant
Agad√≥n,agadon@dlksa.net,(601) 5552220,http://www.restauranteagadon.com/,"Bogot√°, Colombia",,,american restaurant
La Caba√±a Restaurant,info@lacabana.com.ar,011 4314-3710,http://www.lacabana.com.ar/,"Buenos Aires, Argentina",,,argentinian restaurant
Garibaldi Restaurante,hospitality@covermanager.com,,https://www.covermanager.com/reserve/module_restaurant/garibaldi-restaurante-buenos-aires-argentina/spanish?source=INSTAGRAM,"Buenos Aires, Argentina",,,restaurant
Cucina D'Onore,info@cucinadonore.com,011 4315-9260,http://www.cucinadonore.com/,"Buenos Aires, Argentina",,,italian restaurant
The Dog's Bollocks at YARD,info@yardco.co.za,083 440 7843,https://www.yardco.co.za/,"Cape Town, South Africa",,,hamburger restaurant
Arnolds Restaurant,manager@arnolds.co.za,021 424 4344,http://www.arnolds.co.za/,"Cape Town, South Africa",,,restaurant
Between Us,info@betweenus.capetown,079 729 5316,http://www.betweenus.capetown/,"Cape Town, South Africa",,,restaurant
Dinner In The Sky,info@dinnerinthesky.ae,058 819 3296,https://dinnerinthesky.ae/,"Dubai, UAE",,,restaurant
Mama Restaurant Dubai,reservation.dubai@mamashelter.com,04 527 0888,https://mamashelter.com/dubai/eat-drink/,"Dubai, UAE",,,restaurant
The Daily City Walk,hello@rovehotels.com,04 561 9999,https://www.rovehotels.com/en/hotels/rove-city-walk/daily-city-walk/?utm_source=google&utm_medium=local-search&utm_campaign=googlemybusiness,"Dubai, UAE",,,restaurant
"Carnival by Tr√®sind Restaurant & Bar | DIFC, Dubai",marketing@passionfandb.com,800 1604,http://www.carnivalbytresind.com/,"Dubai, UAE",,,restaurant
Thunder Road Cafe,reservations@thunderroadcafe.com,(01) 265 6752,https://www.thunderroadcafe.com/,"Dublin, Ireland",,,american restaurant
Shake Dog The Finer Diner,mrshakedog@gmail.com,,http://shakedog.ie/,"Dublin, Ireland",,,hot dog restaurant
B√≥B√≥s Burgers Restaurant,info@bobos.ie,(01) 538 0100,http://bobos.ie/,"Dublin, Ireland",,,restaurant
Black Bear Diner North Houston,info@blackbeardiner.com,(346) 300-4012,https://blackbeardiner.com/location/houston-tx/,"Houston, USA",,,american restaurant
Ace Cafe Kuala Lumpur,info@acecafekualalumpur.com.my,03-2602 9880,https://www.acecafekualalumpur.com.my/,"Kuala Lumpur, Malaysia",,,restaurant
Bob's Diner,info@bobsdinerlos.com,0916 777 7771,https://bobsdinerlos.com/,"Lagos, Nigeria",,,restaurant
The Grid Lagos,reservation@thegridlagos.com,0805 325 1161,https://thegridlagos.com/,"Lagos, Nigeria",,,restaurant
Yellow Chilli Restaurant & Bar,support@yellowchilling.com,0808 994 8999,https://yellowchilling.com/,"Lagos, Nigeria",,,african restaurant
Electric Bar & Diner,enquiries@thened.com,020 3828 2000,https://www.thened.com/london/restaurants/electric-bar-and-diner?utm_source=google&utm_medium=local&utm_campaign=electric-bar-diner,"London, UK",,,american restaurant
Joe Allen,info@joeallen.co.uk,020 7836 0651,http://www.joeallen.co.uk/,"London, UK",,,american restaurant
Dinner by Heston Blumenthal,molon-reservations@mohg.com,020 7201 3833,https://www.mandarinoriental.com/en/london/hyde-park/dine/dinner-by-heston-blumenthal?src=loc.yext.molon.ggl,"London, UK",,,british restaurant
Hard Rock Cafe,piccadillycircus.jobs@hardrock.com,020 7287 4600,https://cafe.hardrock.com/piccadilly-circus/,"London, UK",,,american restaurant
Waffle Jack's American Diner,wafflejacks@aol.com,020 3659 1361,http://www.wafflejacks.co.uk/,"London, UK",,,american restaurant
Clark Street Diner,nfo@clarkstreetdiner.com,(323) 450-9149,http://www.clarkstreetdiner.la/,"Los Angeles, USA",,,restaurant
Sweet Diner,info@sweetdiner.co.uk,0161 337 8886,http://www.sweetdiner.co.uk/,"Manchester, UK",,,american restaurant
Easey's,oldmate@easeys.com.au,(03) 9417 2250,http://easeys.com.au/,"Melbourne, Australia",,,hamburger restaurant
Garden State Diner,gardendinein@gmail.com,(03) 8524 9547,https://www.gardenstatecafe.com.au/,"Melbourne, Australia",,,restaurant
Bowery To Williamsburg,info@bowerytowilliamsburg.com.au,(03) 9077 0162,http://bowerytowilliamsburg.com.au/,"Melbourne, Australia",,,american restaurant
Pepe's Italian & Liquor,info@pepesitalian.com.au,(03) 9663 7994,http://pepesitalian.com.au/,"Melbourne, Australia",,,italian restaurant
Animal Masaryk,contacto@grupocosteno.com,55 3378 1264,https://costeno.com/animal,"Mexico City, Mexico",,,mexican restaurant
Balc√≥n del Z√≥calo,concierge.bz@centralhoteles.com,55 5130 5134,https://www.balcondelzocalo.com/,"Mexico City, Mexico",,,mexican restaurant
Chug's Diner,contact@chugsdiner.com,(786) 353-2940,http://chugsdiner.com/,"Miami, USA",,,restaurant
PONDICH√âRY CAF√â - ALL-DAY DINING,h6451@sofitel.com,022 6117 5000,https://sofitel.accor.com/en/hotels/6451/R002.restaurant.html,"Mumbai, India",,,restaurant
Flute 24 Hrs,info@krishnapalaceresidency.com,022 6629 3333,http://www.krishnapalaceresidency.com/,"Mumbai, India",,,north indian restaurant
24/7 Restaurant,mumresv@thelalit.com,084510 04250,http://www.thelalit.com/the-lalit-mumbai/eat-and-drink/247-restaurant/,"Mumbai, India",,,buffet restaurant
Sacr√©e Fleur Montmartre,restosacreefleur@gmail.com,01 42 51 66 18,http://www.sacreefleur.fr/,"Paris, France",,,french restaurant
Il √©tait un square - Burger paris,contact@iletaitunsquare.com,01 43 37 68 07,http://www.iletaitunsquare.com/,"Paris, France",,,hamburger restaurant
Francette,reservation@francette.paris,06 68 94 26 82,https://www.fugafamily.com/restaurants/francette,"Paris, France",,,french restaurant
Pedzouille La Grange,dismoitout@pedzouille.fr,01 88 33 23 69,http://www.pedzouille.fr/,"Paris, France",,,restaurant
Bar Luca,info@barluca.com.au,(02) 9247 9700,http://www.barluca.com.au/,"Sydney, Australia",,,hamburger restaurant
Lamen Kazu,lamenkazu@grupokazu.com.br,(11) 3277-4286,https://lamenkazu.com.br/,"S√£o Paulo, Brazil",,,ramen restaurant
Vista Restaurante Ibirapuera,contato@vistasaopaulo.com.br,(11) 2658-3188,https://vistarestaurante.vistasaopaulo.com.br/,"S√£o Paulo, Brazil",,,brazilian restaurant
Seen - Restaurant & Bar,reservas@seensp.com,(11) 3146-5922,http://www.seensp.com/,"S√£o Paulo, Brazil",,,restaurant
R√°scal - Alameda Santos,sac@rascal.com.br,(11) 3141-0692,https://www.rascal.com.br/?utm_source=[gmb][alameda-santos]&utm_medium=[website]&utm_campaign=[youmap],"S√£o Paulo, Brazil",,,mediterranean restaurant
Tokyo Diner,office@tokyodiner.com,020 7287 8777,http://www.tokyodiner.com/,"Tokyo, Japan",,,japanese restaurant
bills Omotesando,info@billsjapan.com,03-5772-1133,https://www.billsjapan.com/jp/locations/omotesando,"Tokyo, Japan",,,australian restaurant
Frankie's Diner,info@frankiesdiner.ca,(416) 588-1936,http://frankiesdiner.ca/,"Toronto, Canada",,,hamburger restaurant
El Vi√±edo Local,welcome@elvinedolocal.com,(404) 596-8239,https://www.elvinedolocal.com/,"Atlanta, USA",,,south american restaurant
MINT - Dubai Mall,info@mintconcept.ae,04 338 0839,https://www.mintconcept.ae/mints/mint-dubai/contact/?utm_source=google&utm_medium=local&utm_campaign=gbp,"Dubai, UAE",,,restaurant
News Cafe,hello@newscafesouthbeach.com,(786) 644-6061,https://newscafesouthbeach.com/,"Miami, USA",,,restaurant
Le Colima√ßon,contactcolimacon@gmail.com,,https://le-colimacon.fr/,"Paris, France",,,french restaurant
Esteban,info@estebanrestaurant.com.au,(02) 9290 7022,https://www.estebanrestaurant.com.au/,"Sydney, Australia",,,mexican restaurant
Aria Restaurant Sydney,res.ariasydney@solotel.com.au,(02) 9240 2255,https://www.ariasydney.com.au/?utm_source=google&utm_medium=organic&utm_campaign=gbp&utm_content=Aria_Restaurant_Sydney&utm_term=plcid_18420151015366914459,"Sydney, Australia",,,fine dining restaurant
NOMAD Sydney,eat@nomad.sydney,(02) 9280 3395,https://nomad.sydney/,"Sydney, Australia",,,australian restaurant
Infinity at Sydney Tower,reservations@infinitysydneytower.com.au,,https://infinitysydneytower.com.au/,"Sydney, Australia",,,fine dining restaurant
"Luna Lu - Asian Fusion, The Rocks",reservations@lunalu.com.au,(02) 8220 8401,http://www.lunalu.com.au/,"Sydney, Australia",,,asian fusion restaurant
Lana,lana@hinchcliffhouse.com,(02) 7228 1400,https://lana.sydney/,"Sydney, Australia",,,italian restaurant
Primi Italian,info@test.com,(02) 8296 6430,https://primiitalian.com.au/,"Sydney, Australia",,,italian restaurant
Restaurant Hubert,reservations@restauranthubert.com,(02) 8302 2322,https://www.swillhouse.com/venues/restaurant-hubert,"Sydney, Australia",,,french restaurant
RASA,rasa@thefooddudes.com,(647) 350-8221,http://www.rasabar.ca/,"Toronto, Canada",,,restaurant
K≈åST,info@kosttoronto.com,(437) 800-5938,https://kosttoronto.com/,"Toronto, Canada",,,californian restaurant
PAI,downtown@paitoronto.com,(416) 901-4724,http://www.paitoronto.com/,"Toronto, Canada",,,thai restaurant
Daphne,info@daphnetoronto.com,(416) 203-1414,https://daphnetoronto.com/,"Toronto, Canada",,,american restaurant
The Chase,events@thechaserg.com,(647) 348-7000,http://www.thechasetoronto.com/,"Toronto, Canada",,,restaurant
Nightingale,info@hawknightingale.com,(604) 695-9500,http://hawknightingale.com/,"Vancouver, Canada",,,restaurant
Chambar Restaurant,info@chambar.com,(604) 879-7119,http://www.chambar.com/,"Vancouver, Canada",,,restaurant
Cardero's Restaurant,info@vancouverdine.com,(604) 669-7666,https://www.vancouverdine.com/carderos/,"Vancouver, Canada",,,seafood restaurant
Joe Fortes Seafood & Chop House,info@joefortes.ca,(604) 669-1940,http://www.joefortes.ca/,"Vancouver, Canada",,,seafood restaurant
Glowbal,info@glowbal.ca,(604) 602-0835,https://glowbalgroup.com/glowbal/,"Vancouver, Canada",,,restaurant
Coast,info@coastrestaurant.ca,(604) 685-5010,https://www.glowbalgroup.com/coast/,"Vancouver, Canada",,,restaurant
Lavantine Restaurant & Skybar,natasha@azurhotelvancouver.com,(604) 416-2855,https://lavantine.ca/,"Vancouver, Canada",,,restaurant
Italian Kitchen,info@theitaliankitchen.ca,(604) 687-2858,https://www.glowbalgroup.com/italiankitchen/,"Vancouver, Canada",,,restaurant
Five Sails Restaurant,info@fivesails.ca,(604) 844-2855,https://glowbalgroup.com/five-sails/,"Vancouver, Canada",,,restaurant
Marcel,eventsmarcel@rocketfarmrestaurants.com,(404) 665-4555,http://www.marcelatl.com/,"Atlanta, USA",,,french restaurant
By George restaurant and bar,bygeorge@thecandlerhotel.com,(470) 851-2752,https://www.bygeorgeatl.com/,"Atlanta, USA",,,restaurant
Poor Calvin's,info@poorcalvins.com,(404) 254-4051,http://www.poorcalvins.com/,"Atlanta, USA",,,asian fusion restaurant
Tabla,info@tablaatlanta.com,(404) 464-8571,https://tablaatlanta.com/,"Atlanta, USA",,,indian restaurant
Nikolai's Roof,nikolais_roof@hilton.com,(404) 221-6362,http://nikolaisroofatl.com/?SEO_id=GMB-HH-R-ATLAHHH-1&y_source=1_MTU0MDUxNDItNzE1LWxvY2F0aW9uLndlYnNpdGU%3D,"Atlanta, USA",,,restaurant
"The Sun Dial Restaurant, Bar & View",sundial@westin.com,(404) 589-7506,https://www.sundialrestaurant.com/,"Atlanta, USA",,,restaurant
Disfrutar,admin@cxcchefs.com,933 48 68 96,http://www.disfrutarbarcelona.com/,"Barcelona, Spain",,,fine dining restaurant
Casa Lolea,holabcn@casalolea.com,936 24 10 16,https://casalolea.com/,"Barcelona, Spain",,,restaurant
Arcano Restaurant cave,info@arcanobcn.com,932 95 64 67,https://www.arcanobarcelona.com/,"Barcelona, Spain",,,mediterranean restaurant
Prado de Flores Restaurant,reservaspradodeflores@hotmail.com,933 21 50 93,https://pradodeflores.es/,"Barcelona, Spain",,,mediterranean restaurant
2254 Barcelona Restaurant,info@2254tapasbarcelona.com,935 28 60 02,https://2254tapasbarcelona.com/,"Barcelona, Spain",,,tapas restaurant
Maleducat l Restaurante Eixample,reserves@maleducat.es,936 04 67 53,https://maleducat.es/?utm_source=GMB&utm_medium=gmb&utm_id=web,"Barcelona, Spain",,,restaurant
Restaurant Ibid,hello@restaurantibid.com,9151 8698,https://www.restaurantibid.com/,Singapore,,,asian fusion restaurant
Kimchi Dining | Korean Restaurant Singapore,business@initia.sg,9113 7090,https://initia.sg/pages/kimchi-dining,Singapore,,,korean restaurant
Eden Restaurant,henrik.hansson@accor.com,6603 8888,https://restaurantsandbars.accor.com/en/restaurant/B9H8_R001,Singapore,,,restaurant
Dusk @ Mount Faber Peak,guestrelations@mflg.com.sg,6361 0088,https://mountfaberdining.com/pages/dusk,Singapore,,,restaurant
NOX - Dine in the Dark,enquiries@noxdineinthedark.com,6298 0708,https://www.noxdineinthedark.com/,Singapore,,,european restaurant
Tora Tora Tora Japanese Restaurant Singapore,roar@toratoratora.sg,9852 9148,https://www.toratoratora.sg/,Singapore,,,japanese restaurant
The Halia at Singapore Botanic Gardens,general.hsbg@thehalia.com,8444 1148,http://www.thehalia.com/,Singapore,,,restaurant
Cappadocia Turkish & Mediterranean Restaurant,cappadocia.sg@gmail.com,8357 3861,https://www.cappasg.net/?utm_source=google_profile&utm_campaign=localo&utm_medium=mainlink,Singapore,,,turkish restaurant
Kaya at The Standard,kayaatthestandard@standardhotels.com,8858 7463,http://www.kayaatthestandard.com/,Singapore,,,restaurant
Onslow,info@onslow.nz,09 930 9123,http://www.onslow.nz/,"Auckland, New Zealand",,,fine dining restaurant
alma,info@alma.nz,09 242 1570,http://www.alma.nz/,"Auckland, New Zealand",,,restaurant
Amano,info@amano.nz,09 394 1416,https://savor.co.nz/amano,"Auckland, New Zealand",,,restaurant
Depot,hello@eatatdepot.co.nz,09 363 7048,https://depoteatery.co.nz/,"Auckland, New Zealand",,,restaurant
Culprit.,hello@culprit.co.nz,09 377 5992,http://www.culpritdiningroom.co.nz/,"Auckland, New Zealand",,,restaurant
Hello Beasty,emma@hellobeasty.nz,021 554 496,http://hellobeasty.nz/,"Auckland, New Zealand",,,restaurant
The Conservatory,nowreservations@theconservatory.co.nz,09 307 2222,http://www.theconservatory.co.nz/,"Auckland, New Zealand",,,restaurant
Baduzzi,info@baduzzi.co.nz,09 309 9339,http://www.baduzzi.co.nz/,"Auckland, New Zealand",,,italian restaurant
Paris Butter,reservations@parisbutter.co.nz,09 376 5597,http://www.parisbutter.co.nz/,"Auckland, New Zealand",,,restaurant
Gilt Brasserie,hello@giltbrasserie.nz,09 300 3126,https://giltbrasserie.nz/,"Auckland, New Zealand",,,restaurant
Onemata,onemata@hyatt.com,09 366 2500,https://onematarestaurant.co.nz/,"Auckland, New Zealand",,,restaurant
The French Cafe,info@sidatthefrenchcafe.co.nz,09 377 1911,https://www.thefrenchcafe.co.nz/,"Auckland, New Zealand",,,fine dining restaurant
Ortolana,ortolana@savorgroup.co.nz,09 368 9487,http://ortolana.co.nz/,"Auckland, New Zealand",,,italian restaurant
kingi,kingi@thehotelbritomart.com,09 300 9596,http://www.kingibritomart.com/,"Auckland, New Zealand",,,restaurant
Don Julio Parrilla,info@parrilladonjulio.com.ar,011 4831-9564,https://www.parrilladonjulio.com/,"Buenos Aires, Argentina",,,restaurant
El Gran Paraiso,info@granparaiso.com.ar,011 15-2730-8488,https://granparaiso.com.ar/,"Buenos Aires, Argentina",,,argentinian restaurant
Parrilla Cero5,info@parrillacero5.com.ar,011 5110-2962,http://www.parrillacero5.com/,"Buenos Aires, Argentina",,,restaurant
Mishiguene,info@mishiguene.com,011 15-7216-1226,https://mishiguenerestaurant.com/,"Buenos Aires, Argentina",,,fine dining restaurant
Caf√© De Tacuba,reservaciones@cafedetacuba.mx,729 772 3921,http://cafedetacuba.mx/,"Mexico City, Mexico",,,restaurant
Rosa Negra,contacto@gruporosanegra.com.mx,55 5282 2603,https://www.rosanegra.com.mx/restaurantes-polanco-mexico-city-restaurants?utm_source=organic&utm_medium=gmb&utm_campaign=rosapolanco&ot_source=gmb_2834_rnp,"Mexico City, Mexico",,,latin american restaurant
Casa Prime Hilton Centro Hist√≥rico,contacto@mexicohg.com,55 9990 5865,https://casaprime.com.mx/,"Mexico City, Mexico",,,restaurant
Contramar,info@redcontramar.com,55 5514 9217,http://www.contramar.com.mx/,"Mexico City, Mexico",,,seafood restaurant
Chapul√≠n,mexico_reservaciones@grupopresidente.com,55 4170 9318,https://chapulinrestaurante.com.mx/,"Mexico City, Mexico",,,mexican restaurant
Miralto Restaurante,info@miralto.com.mx,55 5518 1710,http://miralto.com.mx/,"Mexico City, Mexico",,,restaurant
C√â LA VI,events-dxb@celavi.com,04 582 6111,https://dxb.celavi.com/,"Dubai, UAE",,,restaurant
Alba Restaurant Dubai,alba@metafoodiesgroup.com,058 147 9888,https://alba.metafoodiesgroup.com/,"Dubai, UAE",,,japanese restaurant
NAZCAA,reservations@nazcaa.com,04 542 4200,http://nazcaa.com/,"Dubai, UAE",,,restaurant
Tr√®sind Dubai,tresind@passionfandb.com,800 1604,https://tresind.com/dubai,"Dubai, UAE",,,fine dining restaurant
The Banc Dubai - Restaurant & Bar,reservations@thebanc.ae,04 566 2262,https://thebanc.ae/?utm_source=google_profile&utm_campaign=localo&utm_medium=mainlink,"Dubai, UAE",,,restaurant
Jamavar Dubai,reservations@jamavardubai.com,04 553 7852,https://jamavarrestaurants.com/indian-restaurant-dubai/,"Dubai, UAE",,,indian restaurant
11 Woodfire,info@11woodfire.com,04 491 9000,http://www.11woodfire.com/,"Dubai, UAE",,,fine dining restaurant
Maison De Curry | Restaurant with the best views of Burj Khalifa & Dubai Fountains,mdc@passionfandb.com,052 406 6183,https://maisondecurry.com/,"Dubai, UAE",,,restaurant
Jovee - Japanese & European Restaurant,info@joveedubai.com,050 786 8343,https://www.joveedubai.com/,"Dubai, UAE",,,restaurant
Bisou Restaurant Dubai,bisou@metafoodiesgroup.com,058 140 6888,https://bisou.metafoodiesgroup.com/,"Dubai, UAE",,,restaurant
Krasota Dubai Restaurant,dubai@krasota.art,04 433 1258,https://bit.ly/krasota_reservation,"Dubai, UAE",,,restaurant
The Refuge,refugemcr@ihg.com,0161 233 5151,http://www.refugemcr.co.uk/,"Manchester, UK",,,restaurant
Tattu Manchester,manchester@tattu.co.uk,0161 819 2060,https://tattu.co.uk/locations/manchester/,"Manchester, UK",,,chinese restaurant
Blacklock Manchester,manchester@theblacklock.com,0161 414 0225,https://theblacklock.com/restaurants/manchester/,"Manchester, UK",,,restaurant
Grand Pacific,info@grandpacificrestaurant.co.uk,0161 839 9365,https://grandpacificrestaurant.co.uk/,"Manchester, UK",,,restaurant
Hawksmoor Manchester,manchester@thehawksmoor.com,0161 836 6980,https://thehawksmoor.com/locations/manchester/?utm_source=google&utm_medium=organic&utm_campaign=gbp,"Manchester, UK",,,seafood restaurant
Lucky Cat by Gordon Ramsay - Manchester,luckycatmanchester@gordonramsay.com,0161 424 9150,https://www.gordonramsayrestaurants.com/lucky-cat-manchester/?utm_source=gmb&utm_medium=uberall&utm_campaign=business_profile,"Manchester, UK",,,restaurant
Vincenzo Trattoria,hello@vincenzomanchester.co.uk,0161 833 1000,http://www.vincenzomanchester.co.uk/,"Manchester, UK",,,italian restaurant
"Fenix Restaurant and Bar, Manchester",manchester@fenixrestaurants.com,0161 646 0321,http://www.fenixrestaurants.com/,"Manchester, UK",,,restaurant
Another hand,enquiries@anotherhandmcr.com,0161 834 2988,http://anotherhandmcr.com/,"Manchester, UK",,,restaurant
10 Tib Lane,bookings@10tiblane.com,0161 833 1034,https://www.10tiblane.com/,"Manchester, UK",,,restaurant
MAYA,reservations@mayamanchester.com,0161 517 0000,https://www.mayamanchester.com/,"Manchester, UK",,,restaurant
SANGAM MANCHESTER,manchester@sangam.co.uk,0161 236 1313,https://www.sangam.co.uk/restaurants/sangam-manchester-city-centre/book-sangam-manchester/,"Manchester, UK",,,indian restaurant
Tapas Molecular Bar,motyo-reservations@mohg.com,03-3270-8188,https://www.mandarinoriental.com/en/tokyo/nihonbashi/dine/tapas-molecular-bar?htl=MOTYO&kw=MOTYO_tapas&eng=google&src=local,"Tokyo, Japan",,,tapas restaurant
Sushi Yuu,daisuke0625@gmail.com,03-3403-6467,http://sushiyuu.com/,"Tokyo, Japan",,,sushi restaurant
Hinokizaka,rc.tyorz.restaurant.sales@ritzcarlton.com,03-6434-8711,https://hinokizaka.ritzcarltontokyo.com/,"Tokyo, Japan",,,sushi restaurant
Gallops Restaurant,info@gallopsrestaurant.com,022 6960 0111,https://gallopsrestaurant.com/,"Mumbai, India",,,fine dining restaurant
Tr√®sind Mumbai,tresindin@passionfandb.com,089280 00058,https://www.tresind.com/mumbai,"Mumbai, India",,,fine dining restaurant
Indian Accent Mumbai,reservations.mum@indianaccent.com,022 3525 1500,https://www.indianaccent.com/mumbai,"Mumbai, India",,,indian restaurant
Veranda Bandra - Modern Indian Restaurant & Rooftop Bar,verandabandra@gmail.com,098200 27867,http://theveranda.in/,"Mumbai, India",,,indian restaurant
Ziya Restaurant,reservations.nailafort@oberoihotels.com,022 6632 6210,https://www.oberoihotels.com/hotels-in-mumbai/dining/ziya/?utm_source=GMBlisting&utm_medium=organic,"Mumbai, India",,,north indian restaurant
Peshwa Pavilion,reservations@itchotels.com,022 2830 3030,https://www.itchotels.com/in/en/itcmaratha-mumbai?utm_source=google&utm_medium=organic%20Search&utm_term=itcmaratha%20Restaurants&utm_campaign=listing,"Mumbai, India",,,buffet restaurant
Namak - Indian Specialty Restaurant,reservations@saharastar.com,022 3989 5000,https://www.saharastar.com/dining/namak-indian-specialty.html,"Mumbai, India",,,fine dining restaurant
Bombay Brasserie Colaba,marketing@bombay-brasserie.in,086559 79257,http://bombaybrasserie.in/,"Mumbai, India",,,restaurant
Tanatan Shivaji Park,amit.libra2007@gmail.com,086575 75329,https://tanatan.co/tanatan-shivaji-park/,"Mumbai, India",,,north indian restaurant
Terra√ßo Jardins,terraco.jardins@marriott.com,(11) 97607-6586,https://www.restauranteterracojardins.com.br/,"S√£o Paulo, Brazil",,,restaurant
Jiquitaia,contato@jiquitaia.com.br,(11) 3051-5638,http://jiquitaia.com.br,"S√£o Paulo, Brazil",,,brazilian restaurant
Tordesilhas,tordesilhas@tordesilhas.com,(11) 3107-7444,http://www.tordesilhas.com/,"S√£o Paulo, Brazil",,,brazilian restaurant
Banzeiro Restaurant - S√£o Paulo,banzeirosp@grupobanzeiro.com.br,(11) 2501-4777,https://grupobanzeiro.com.br/banzeiro-sao-paulo/,"S√£o Paulo, Brazil",,,brazilian restaurant
D.O.M.,dom@domrestaurante.com.br,(11) 96918-9947,http://domrestaurante.com.br/,"S√£o Paulo, Brazil",,,fine dining restaurant
Dalva e Dito,eventos@dalvaedito.com.br,(11) 3068-4444,http://www.dalvaedito.com.br/,"S√£o Paulo, Brazil",,,brazilian restaurant
Esther Rooftop,contato@estherrooftop.com.br,(11) 3256-1009,https://www.estherrooftop.com.br/,"S√£o Paulo, Brazil",,,french restaurant
Tanit,elviraviedma@gmail.com,(11) 3062-6385,http://restaurantetanit.com.br/,"S√£o Paulo, Brazil",,,spanish restaurant
TARAZ,saopaulo.restaurantes@rosewoodhotels.com,(11) 3797-0500,https://www.rosewoodhotels.com/pt/sao-paulo/dining/taraz,"S√£o Paulo, Brazil",,,south american restaurant
Storia D'Amore zona T,info@restaurantestoriadamore.com,(601) 5085809,https://co.restaurantestoriadamore.com/,"Bogot√°, Colombia",,,italian restaurant
La Brasserie,labrasserie@dlksa.net,313 8894213,https://labrasserierestaurante.com/,"Bogot√°, Colombia",,,restaurant
Andr√©s D.C. Bogot√°,basesdedatos@andrescarnederes.com,315 3559096,http://www.andrescarnederes.com/andres-dc,"Bogot√°, Colombia",,,colombian restaurant
Prudencia,prudenciareservas@gmail.com,(601) 3941678,http://prudencia.net/,"Bogot√°, Colombia",,,restaurant
Cacio & Pepe,contacto@takami.co,(601) 6447766,https://takami.co/,"Bogot√°, Colombia",,,italian restaurant
Miel De Agave Phoenix,martin@lamieldeagave.com,(480) 690-2872,https://www.lamieldeagave.com/,"Phoenix, USA",,,steak house
First & Last,hello@firstandlastphx.com,(602) 975-8297,http://www.firstandlastphx.com/,"Phoenix, USA",,,fine dining restaurant
The Farish House,eat@farishhouse.com,(602) 281-6659,https://farishhouse.com/?utm_source=google&utm_medium=local&utm_campaign=1,"Phoenix, USA",,,restaurant
Ingo‚Äôs Tasty Food,scottsdale@ingostastyfood.com,(602) 825-3000,https://ingostastyfood.com/?utm_source=GMB&utm_medium=local&utm_campaign=dtphx,"Phoenix, USA",,,restaurant
LATHA,hello@lathaphx.com,(480) 640-6183,https://www.lathaphx.com/,"Phoenix, USA",,,restaurant
The Vintage Kitchen,thevintagekitchendublin@gmail.com,(01) 679 8705,http://www.thevintagekitchen.ie/,"Dublin, Ireland",,,irish restaurant
Old Mill Restaurant,info@oldmillrestaurant.ie,(01) 671 9266,http://www.oldmillrestaurant.ie/,"Dublin, Ireland",,,irish restaurant
Trocadero Restaurant Dublin,trocaderoireland@gmail.com,(01) 677 5545,http://www.trocadero.ie/,"Dublin, Ireland",,,restaurant
The Shack Restaurant,info@shackrestaurant.ie,(01) 679 0043,http://www.shackrestaurant.ie/,"Dublin, Ireland",,,irish restaurant
WILDE Restaurant,wilde_reservations@doylecollection.com,(01) 646 3352,https://wilde.ie/?utm_source=google&utm_medium=local&utm_campaign=restaurant-WILDE,"Dublin, Ireland",,,irish restaurant
Library Street Restaurant,bookings@librarystreet.ie,(01) 617 0999,http://www.librarystreet.ie/,"Dublin, Ireland",,,restaurant
Ryleigh's Rooftop Steakhouse,book@ryleighs.ie,(01) 245 7911,https://ryleighs.ie/,"Dublin, Ireland",,,restaurant
Pickle Restaurant,info@picklerestaurant.com,(01) 555 7755,http://www.picklerestaurant.com/,"Dublin, Ireland",,,north indian restaurant
La Caverna Restaurant and Wine Bar,info@lacaverna.ie,(01) 670 3110,http://www.lacaverna.ie/,"Dublin, Ireland",,,italian restaurant
Six by Nico Dublin,vouchers@sixbynico.co.uk,(01) 525 5919,http://sixbynico.ie/,"Dublin, Ireland",,,restaurant
Etto,info@etto.ie,(01) 678 8872,http://www.etto.ie/,"Dublin, Ireland",,,family restaurant
Kloof Street House,info@kloofstreethouse.co.za,021 423 4413,http://www.kloofstreethouse.co.za/,"Cape Town, South Africa",,,restaurant
Utopia Cape Town,info@utopiacapetown.co.za,021 418 3065,http://www.utopiacapetown.co.za/,"Cape Town, South Africa",,,restaurant
The Pot Luck Club,reservations@thepotluckclub.co.za,021 447 0804,http://www.thepotluckclub.co.za/,"Cape Town, South Africa",,,restaurant
GOLD Restaurant,info@goldrestaurant.co.za,021 421 4653,http://www.goldrestaurant.co.za/,"Cape Town, South Africa",,,african restaurant
Fyn Restaurant,info@fynrestaurant.com,021 286 2733,http://fynrestaurant.com/,"Cape Town, South Africa",,,restaurant
The Cousins Trattoria,dine@thecousinsrestaurant.com,083 273 9604,http://www.thecousinsrestaurant.com/,"Cape Town, South Africa",,,italian restaurant
Bouchon Bistro,info@bouchon.co.za,021 422 0695,http://www.bouchon.co.za/,"Cape Town, South Africa",,,restaurant
Grub & Vine,hello@grubandvine.co.za,021 216 0035,http://www.grubandvine.co.za/,"Cape Town, South Africa",,,restaurant
Seven Colours Eatery,reservations@sevencolourseatery.co.za,087 265 8762,https://www.sevencolourseatery.co.za/,"Cape Town, South Africa",,,restaurant
Upper Union,reservations@upperunion.co.za,021 891 0360,http://www.upperunion.co.za/,"Cape Town, South Africa",,,restaurant
VIXI Social House,bookings@vixi.co.za,021 418 1338,http://www.vixi.co.za/,"Cape Town, South Africa",,,restaurant
Bo-Vine Wine & Grill House Camps Bay,events@cbkitchens.com,021 203 5314,http://www.bovinegrillhouse.com/,"Cape Town, South Africa",,,restaurant
Mozambik V & A Waterfront,waterfront@mozambik.co.za,021 023 0345,https://www.mozambik.co.za/western-cape/waterfront/#,"Cape Town, South Africa",,,restaurant
Fuego at Troika Sky Dining,frontdesk@troikaskydining.com,03-2162 0886,http://www.troikaskydining.com/fuego/,"Kuala Lumpur, Malaysia",,,south american restaurant
Cielo Rooftop - Dining and Lounge,customerservice@cielokl.com,012-365 5059,http://cielokl.com/,"Kuala Lumpur, Malaysia",,,western restaurant
Beta KL,betakualalumpur@gmail.com,019-212 1094,https://www.betakl.com/,"Kuala Lumpur, Malaysia",,,fine dining restaurant
Skillet KL,skilletat163@gmail.com,019-212 1240,https://www.skilletkl.com/,"Kuala Lumpur, Malaysia",,,asian restaurant
Bar.Kar Best Restaurant KL,event@feastdininggroup.com,011-2277 3131,https://www.barkarkl.com/,"Kuala Lumpur, Malaysia",,,restaurant
Dining In The Dark KL,customerservice@dininginthedarkkl.com,012-305 2011,https://dininginthedarkkl.com/,"Kuala Lumpur, Malaysia",,,restaurant
NADODI,info@nadodikl.com,017-296 9520,http://www.nadodikl.com/,"Kuala Lumpur, Malaysia",,,fine dining restaurant
El Cerdo,customerservice@elcerdokl.com,013-309 4197,http://elcerdokl.com/,"Kuala Lumpur, Malaysia",,,spanish restaurant
RSVP restaurant,info@pistachiofoods.com,0818 616 6666,https://rsvplagos.com/,"Lagos, Nigeria",,,american restaurant
Z Kitchen,zkitchencareers@zkitchen.co,0906 422 2222,https://zkitchen.co/,"Lagos, Nigeria",,,restaurant
Eric Kayser - Victoria Island,ecommerce@maison-kayser.com,0906 000 7275,https://www.maison-kayser.com/boulangeries/23-31-nigeria,"Lagos, Nigeria",,,restaurant
Wakame Asian Kitchen & Lounge,loslg.wakame@marriott.com,0707 469 3295,http://www.wakamerestaurant.com/,"Lagos, Nigeria",,,restaurant
FX Buckley Steakhouse Crow Street,crowstreet@fxbuckley.ie,,https://www.thebuckleycollection.ie/crow-street,"Dublin, Ireland",,,steak house
Pigalle Restaurant,info@pigalle.capetown,,http://www.pigalle.capetown/,"Cape Town, South Africa",,,restaurant
Bunglow37,bunglow37@gmail.com,,https://www.bunglow37.com/,"Kuala Lumpur, Malaysia",,,restaurant
Shiro Lagos,info@liquid.com,,https://experienceshiro.com/,"Lagos, Nigeria",,,restaurant
NOK by Alara,eservations@nokbyalara.com,,http://www.nokbyalara.com/,"Lagos, Nigeria",,,african restaurant
Lazy Bear,contact@lazybearsf.com,(415) 874-9921,http://www.lazybearsf.com/,"San Francisco, USA",,,restaurants
Scoma's Restaurant,seafood@scomas.com,(415) 771-4383,https://scomas.com/,"San Francisco, USA",,,restaurants
Rich Table,info@richtablesf.com,(415) 355-9085,http://richtablesf.com/,"San Francisco, USA",,,restaurants
Bottega,info@bottegavalencia.com,(415) 655-9048,http://www.bottegavalencia.com/,"San Francisco, USA",,,restaurants
Absinthe Brasserie & Bar,talk@absinthe.com,(415) 551-1590,http://www.absinthe.com/,"San Francisco, USA",,,restaurants
Trestle Restaurant,info@trestlesf.com,(415) 772-0922,http://trestlesf.com/,"San Francisco, USA",,,restaurants
The Cavalier,information@thecavaliersf.com,(415) 321-6000,https://www.thecavaliersf.com/?y_source=1_MjQ4NzYzNDYtNzE1LWxvY2F0aW9uLndlYnNpdGU%3D,"San Francisco, USA",,,restaurants
Bix,info@bixrestaurant.com,(415) 433-6300,http://www.bixrestaurant.com/,"San Francisco, USA",,,restaurants
Abac√°,info@restaurantabaca.com,(415) 486-0788,http://www.restaurantabaca.com/,"San Francisco, USA",,,restaurants
The Front Porch,thefrontporchsf@gmail.com,(415) 695-7800,https://www.thefrontporchsf.com/,"San Francisco, USA",,,restaurants
Atlantic Fish Company,websitecontact@atlanticfishco.com,(617) 267-4000,https://www.atlanticfish.com/,"Boston, USA",,,restaurants
Estella Restaurant,partnership@estellaboston.com,(617) 855-9869,https://www.estellaboston.com/,"Boston, USA",,,restaurants
Contessa Boston,reservations@contessaboston.com,(617) 741-3404,https://www.contessaristorante.com/boston/?utm_medium=Click&utm_source=GoogleMyBusiness,"Boston, USA",,,restaurants
Committee,events@committeeboston.com,(617) 737-5051,https://committeeboston.com/?utm_source=google&utm_medium=organic&utm_campaign=Google_My_Business,"Boston, USA",,,restaurants
Canlis,reservations@canlis.com,(206) 283-3313,https://canlis.com/,"Seattle, USA",,,restaurants
Pike Place Chowder - Pike Place Market,info@pikeplacechowder.com,(206) 267-2537,https://www.pikeplacechowder.com/,"Seattle, USA",,,restaurants
Toulouse Petit Kitchen & Lounge,reservations@toulousepetit.com,(206) 432-9069,https://www.toulousepetit.com/,"Seattle, USA",,,restaurants
Shaker + Spear,info@shakerandspear.com,(206) 826-1700,https://www.shakerandspear.com/,"Seattle, USA",,,restaurants
Matt's in the Market,events@mattsinthemarket.com,(206) 467-7909,http://www.mattsinthemarket.com/,"Seattle, USA",,,restaurants
Von's 1000Spirits,info@vons1000spirits.com,(206) 621-8667,https://www.vons1000spirits.com/?utm_source=gmb&utm_medium=organic&utm_campaign=gmbpost,"Seattle, USA",,,restaurants
Decorum Birmingham,info@decorumbirmingham.co.uk,0121 820 8635,https://decorumbirmingham.co.uk/,"Birmingham, UK",,,restaurants
Tattu Birmingham,birmingham@tattu.co.uk,0121 236 5556,https://tattu.co.uk/locations/birmingham/,"Birmingham, UK",,,restaurants
Pasture Birmingham,jointheteam@pasturerestaurant.com,07907 868498,https://pasturerestaurant.com/locations/pasture-birmingham/,"Birmingham, UK",,,restaurants
Fat Hippo Birmingham,birmingham@fathippo.co.uk,0121 820 0046,https://fathippo.co.uk/,"Birmingham, UK",,,restaurants
The Wilderness,reservations@wearethewilderness.co.uk,0121 233 9425,http://wearethewilderness.co.uk/,"Birmingham, UK",,,restaurants
Adam's Restaurant,info@adamsrestaurant.co.uk,0121 643 3745,https://www.adamsrestaurant.co.uk/,"Birmingham, UK",,,restaurants
The Lost & Found Birmingham,info@the-lostandfound.co.uk,0121 643 9293,https://www.lostandfoundbirmingham.co.uk/?utm_source=gbp&utm_medium=Yext&y_source=1_MjMyMjYxMjItNzE1LWxvY2F0aW9uLndlYnNpdGU%3D,"Birmingham, UK",,,restaurants
Tropea,enquiries@tropea.uk,0121 427 9777,https://www.tropea.uk/,"Birmingham, UK",,,restaurants
San Carlo - Birmingham,guestrelations@sancarlo.co.uk,0121 633 0251,https://sancarlo.co.uk/restaurants/san-carlo-birmingham/?utm_source=google&utm_medium=organic_gbp&utm_campaign=birmingham,"Birmingham, UK",,,restaurants
Tattu Edinburgh,edinburgh@tattu.co.uk,0131 558 1922,https://tattu.co.uk/locations/edinburgh/,"Edinburgh, UK",,,restaurants
The Piper's Rest,info@thepipersrest.co.uk,0131 285 5240,http://www.thepipersrest.co.uk/,"Edinburgh, UK",,,restaurants
LYLA Restaurant & Rooms,reservations@lylaedinburgh.co.uk,0131 285 8808,https://lylaedinburgh.co.uk/,"Edinburgh, UK",,,restaurants
The Spence,reservations@gleneaglestownhouse.com,0131 322 3780,https://gleneagles.com/townhouse/eat-drink/the-spence/?utm_source=google&utm_medium=local&utm_campaign=restaurant-thespence,"Edinburgh, UK",,,restaurants
The Buttery,buttery@twofatladiesrestaurant.com,0141 221 8188,https://twofatladiesrestaurant.com/buttery,"Glasgow, UK",,,restaurants
Ox and Finch,hello@oxandfinch.com,0141 339 8627,http://www.oxandfinch.com/,"Glasgow, UK",,,restaurants
The Merchant Steakhouse,manager@themerchantsteakhouse.com,0141 552 2019,https://themerchantsteakhouse.com/,"Glasgow, UK",,,restaurants
Sugo Pasta,hello@sugopasta.co.uk,0141 258 1650,https://www.sugopasta.co.uk/,"Glasgow, UK",,,restaurants
The Citizen Glasgow,info@thecitizenglasgow.co.uk,0141 222 2909,http://www.thecitizenglasgow.co.uk/,"Glasgow, UK",,,restaurants
Bothy Glasgow,info@bothyglasgow.co.uk,0141 334 4040,http://www.bothyglasgow.co.uk/,"Glasgow, UK",,,restaurants
Fallachan Kitchen,kitchen@fallachan.co.uk,,https://www.fallachankitchen.co.uk/,"Glasgow, UK",,,restaurants
The Iron Duke,theirondukeglasgow@outlook.com,07825 108219,https://theirondukeglasgow.co.uk/,"Glasgow, UK",,,restaurants
Chaophraya,info@thaileisuregroup.co.uk,0141 320 0241,https://chaophraya.co.uk/glasgow/,"Glasgow, UK",,,restaurants
Rumi Restaurant,admin@rumirestaurant.info,0141 846 0704,https://www.rumirestaurant.info/,"Glasgow, UK",,,restaurants
Le Majestique Montr√©al,info@restobarmajestique.com,(514) 439-1850,http://www.restobarmajestique.com/,"Montreal, Canada",,,restaurants
Yoko Luna,concierge@yokoluna.com,(514) 929-9656,http://www.yokoluna.com/,"Montreal, Canada",,,restaurants
√éle Flottante,info@restaurantileflottante.com,(514) 278-6854,http://www.restaurantileflottante.com/,"Montreal, Canada",,,restaurants
Gibbys,info@gibbys.com,(514) 282-1837,http://www.gibbys.com/,"Montreal, Canada",,,restaurants
Garde Manger,admin@crownsalts.com,(514) 678-5044,http://gardemanger.ca/,"Montreal, Canada",,,restaurants
BARROCO,info@barroco.ca,(438) 812-7852,http://www.barroco.ca/,"Montreal, Canada",,,restaurants
Ten Foot Henry,eat@tenfoothenry.com,(403) 475-5537,http://tenfoothenry.com/,"Calgary, Canada",,,restaurants
Orchard Restaurant,hello@orchardyyc.com,(403) 243-2392,https://orchardyyc.com/,"Calgary, Canada",,,restaurants
Salt & Brick - Calgary,info@saltandbrick.com,(403) 371-3429,http://www.saltandbrick.com/,"Calgary, Canada",,,restaurants
NOtaBLE - The Steakhouse,info@notablesteak.ca,(403) 288-4372,https://www.notablesteak.ca/,"Calgary, Canada",,,restaurants
Pat and Betty,lotus@patandbetty.com,,http://www.patandbetty.com/,"Calgary, Canada",,,restaurants
Klein / Harris,hello@kleinharris.com,(403) 262-8100,http://www.kleinharris.com/,"Calgary, Canada",,,restaurants
Vero Bistro Moderne,info@verobistro.ca,(403) 283-8988,http://www.verobistro.ca/,"Calgary, Canada",,,restaurants
La Vue Waterfront Restaurant,ronaldo@lavuerestaurant.com.au,,https://lavuerestaurant.com.au/,"Brisbane, Australia",,,restaurants
Rogue Bistro,info@roguebistro.com,0476 764 833,http://www.roguebistro.com/,"Brisbane, Australia",,,restaurants
Toscano Bar & Kitchen,info@toscanobar.com.au,(07) 3705 4326,https://www.toscanobar.com.au/,"Brisbane, Australia",,,restaurants
Rothwell‚Äôs Bar & Grill,reservations@rothwellsbrisbane.com.au,(07) 3038 1169,https://rothwellsbrisbane.com.au/,"Brisbane, Australia",,,restaurants
Southside Restaurant,seatme@southside-restaurant.com.au,(07) 3067 7269,https://www.southside-restaurant.com.au/,"Brisbane, Australia",,,restaurants
Pompette,info@pompette.com.au,(07) 2111 6888,https://www.pompette.com.au/,"Brisbane, Australia",,,restaurants
