business_name,address,owner_name,email,phone,website,category,city,source
The Pantry,"Leidsekruisstraat 21, 1017 RE Amsterdam, Netherlands",,info@thepantry.nl,020 620 0922,https://www.thepantry.nl/?redirect=yes,dutch restaurant,"Amsterdam, Netherlands",google_maps
Black and Blue,"Leliegracht 46, 1015 DH Amsterdam, Netherlands",,info@restaurantblackandblue.nl,020 625 0807,https://www.restaurantblackandblue.nl/,steak house,"Amsterdam, Netherlands",google_maps
De Kas,"Kamerlingh Onneslaan 3, 1097 DE Amsterdam, Netherlands",,,020 462 4562,http://www.restaurantdekas.nl/,fine dining restaurant,"Amsterdam, Netherlands",google_maps
Restaurant Olijfje,"Valkenburgerstraat 223D, 1011 MJ Amsterdam, Netherlands",,info@restaurantolijfje.nl,020 330 4444,https://www.restaurantolijfje.nl/en,mediterranean restaurant,"Amsterdam, Netherlands",google_maps
De Blauwe Hollander,"Leidsekruisstraat 28, 1017 RJ Amsterdam, Netherlands",,info@deblauwehollander.nl,020 627 0521,https://deblauwehollander.nl/,dutch restaurant,"Amsterdam, Netherlands",google_maps
Blue Amsterdam,"Winkelcentrum Kalverpassage, Singel 457, 1012 WP Amsterdam, Netherlands",,welcome@blue-amsterdam.nl,020 427 3901,http://www.blue-amsterdam.nl/,restaurant,"Amsterdam, Netherlands",google_maps
Florentin brunch,"Eerste Sweelinckstraat 20, 1073 CM Amsterdam, Netherlands",,info@florentinbrunch.com,020 770 5984,http://florentinbrunch.com/,brunch restaurant,"Amsterdam, Netherlands",google_maps
The Seafood Bar,"Damrak 213, 1012 ZH Amsterdam, Netherlands",,info@theseafoodbar.com,020 261 1563,https://www.theseafoodbar.com/,seafood restaurant,"Amsterdam, Netherlands",google_maps
Restaurant De Belhamel,"Brouwersgracht 60, 1013 GX Amsterdam, Netherlands",,info@belhamel.nl,020 622 1095,https://www.belhamel.nl/,french restaurant,"Amsterdam, Netherlands",google_maps
Moeders,"Rozengracht 251, 1016 SX Amsterdam, Netherlands",,info@moeders.com,020 626 7957,http://www.moeders.com/,dutch restaurant,"Amsterdam, Netherlands",google_maps
Restaurant Zaza's,"Dani√´l Stalpertstraat 103, 1072 XD Amsterdam, Netherlands",,info@zazas.nl,020 673 6333,http://www.zazas.nl/,restaurant,"Amsterdam, Netherlands",google_maps
Little Buddha Asian restaurant - Best Asian Restaurant Amsterdam,"Halvemaansteeg 18, 1017 CR Amsterdam, Netherlands",,,06 12738585,,restaurant,"Amsterdam, Netherlands",google_maps
Il Vicolo,"Taksteeg 3, 1012 PB Amsterdam, Netherlands",,,06 27341115,,italian restaurant,"Amsterdam, Netherlands",google_maps
Pesca Seafood Restaurant Amsterdam,"Rozengracht 133, 1016 LV Amsterdam, Netherlands",,hamburg@pesca.restaurant,020 334 5136,https://pesca.restaurant/,seafood restaurant,"Amsterdam, Netherlands",google_maps
Restaurant Black Olive Amsterdam,"Markenplein 30 A, 1011 MV Amsterdam, Netherlands",,info@restaurantblackolive.nl,06 28079666,http://www.restaurantblackolive.nl/,restaurant,"Amsterdam, Netherlands",google_maps
Senses Restaurant,"Vijzelstraat 45, 1017 HE Amsterdam, Netherlands",,welcome@sensesrestaurant.nl,020 530 6266,http://www.sensesrestaurant.nl/,restaurant,"Amsterdam, Netherlands",google_maps
Foodhallen,"Hannie Dankbaarpassage 16, 1053 RT Amsterdam, Netherlands",,,020 218 1776,https://www.foodhallen.nl/,food court,"Amsterdam, Netherlands",google_maps
Caf√©-Restaurant Amsterdam,"Watertorenplein 6, 1051 PA Amsterdam, Netherlands",,info@cradam.nl,020 682 2666,https://cradam.nl/,restaurant,"Amsterdam, Netherlands",google_maps
Caf√© restaurant van Kerkwijk,"Nes 41, 1012 KC Amsterdam, Netherlands",,gaspard@qodeinteractive.com,020 620 3316,https://www.vankerkwijk.com/,restaurant,"Amsterdam, Netherlands",google_maps
Umami by Han Amsterdam,"Overtoom 31HS, 1054 HB Amsterdam, Netherlands",,hello@villenoir.com,020 280 1379,http://umami-restaurant.com/,asian fusion restaurant,"Amsterdam, Netherlands",google_maps
BLESS Restaurant,"Hausvogteipl. 10, 10117 Berlin, Germany",,hello@bless-restaurants.com,030 20619795,https://bless-restaurants.com/,asian restaurant,"Berlin, Germany",google_maps
Sphere Tim Raue,"Alexanderplatz, Panoramastra√üe 1A, 10178 Berlin, Germany",,,030 247575875,http://www.tv-turm.de/,german restaurant,"Berlin, Germany",google_maps
Schnitzelei Mitte,"Chausseestr. 8, Novalisstra√üe 11, 10115 Berlin, Germany",,mitte@schnitzelei.de,030 32519422,https://schnitzelei.de/mitte/,german restaurant,"Berlin, Germany",google_maps
A Mano,"Strausberger Pl. 2, 10243 Berlin, Germany",,,030 95598243,http://www.amano-ristorante.de/,italian restaurant,"Berlin, Germany",google_maps
NENI Berlin,"Budapester Str. 40, 10787 Berlin, Germany",,,030 120221201,https://nenifood.com/restaurants/berlin,mediterranean restaurant,"Berlin, Germany",google_maps
Restaurant Maximilians Berlin,"Friedrichstra√üe 185-190, 10117 Berlin, Germany",,,030 20450559,https://www.maximilians-berlin.de/,bavarian restaurant,"Berlin, Germany",google_maps
Zur Gerichtslaube,"Poststra√üe 28, 10178 Berlin, Germany",,info@gerichtslaube.de,030 2415697,http://www.gerichtslaube.de/,german restaurant,"Berlin, Germany",google_maps
Nante-Eck | Restaurant Berlin Mitte,"Unter den Linden 35, 10117 Berlin, Germany",,,030 22487257,https://www.nante-eck.de/,german restaurant,"Berlin, Germany",google_maps
Amrit,"Oranienburger Str. 45, 10117 Berlin, Germany",,info@amrit.de,030 28884840,https://www.amrit.de/,indian restaurant,"Berlin, Germany",google_maps
Restaurant Facil,"Potsdamer Str. 3, 10785 Berlin, Germany",,welcome@facil.de,030 590051234,https://facil.de/de/,fine dining restaurant,"Berlin, Germany",google_maps
Gaffel Haus Berlin - Das K√∂lsche Konsulat in der Hauptstadt,"Direkt neben dem Maritim proArte Hotel, Dorotheenstra√üe 65, 10117 Berlin, Germany",,berlin@gaffel-haus.de,030 31011693,http://www.gaffel-haus-berlin.de/,german restaurant,"Berlin, Germany",google_maps
Elefant,"Fuggerstra√üe 18, 10777 Berlin, Germany",,,030 23607346,https://restaurant-elefant.de/,german restaurant,"Berlin, Germany",google_maps
BLOCK HOUSE Am Alexanderplatz,"Karl-Liebknecht-Str. 7, 10178 Berlin, Germany",,,030 2423300,https://www.block-house.de/restaurants/berlin/am-alexanderplatz,steak house,"Berlin, Germany",google_maps
Restaurant Trattoria Portofino,"Gubener Str. 48, 10243 Berlin, Germany",,info@portofino-trattoria.de,030 23910610,http://www.portofino-trattoria.de/,italian restaurant,"Berlin, Germany",google_maps
Night Kitchen,"Heckmann H√∂fe, Oranienburger Str. 32, 10115 Berlin, Germany",,,030 23575075,https://www.nightkitchenberlin.com/,mediterranean restaurant,"Berlin, Germany",google_maps
Boulevard Friedrichstrasse,"Friedrichstra√üe 106C, 10117 Berlin, Germany",,mail@boulevard-friedrichstrasse.de,030 2833437,http://www.boulevard.berlin/,german restaurant,"Berlin, Germany",google_maps
Alt-Berliner Wirtshaus,"Wilhelmstra√üe 77, 10117 Berlin, Germany",,wirtshaus@hamanns-gastronomie.de,030 22488205,http://www.altberliner-wirtshaus.de/,german restaurant,"Berlin, Germany",google_maps
St√§ndige Vertretung,"Schiffbauerdamm 8, 10117 Berlin, Germany",,berlin@staev.de,030 2823965,https://www.staev.de/berlin-mitte.html,german restaurant,"Berlin, Germany",google_maps
Dicke Wirtin,"Carmerstra√üe 9, 10623 Berlin, Germany",,post@dicke-wirtin.de,030 3124952,https://dicke-wirtin.de/,german restaurant,"Berlin, Germany",google_maps
Restauration 1840,"Am Zwirngraben 8-10, 10178 Berlin, Germany",,restaurant@berlin-1840.de,030 24727401,https://www.berlin-1840.de/,german restaurant,"Berlin, Germany",google_maps
Girl & The Goat,"809 W Randolph St, Chicago, IL 60607, USA",,,(312) 492-6262,http://www.girlandthegoat.com/,seafood restaurant,"Chicago, USA",google_maps
The Dearborn,"145 N Dearborn St, Chicago, IL 60602, USA",,,(312) 384-1242,http://www.thedearborntavern.com/,american restaurant,"Chicago, USA",google_maps
Aba,"302 N Green St 3rd Floor, Chicago, IL 60607, USA",,,(773) 645-1400,http://www.abarestaurants.com/,mediterranean restaurant,"Chicago, USA",google_maps
River Roast,"315 N LaSalle St, Chicago, IL 60654, USA",,,(312) 822-0100,https://www.riverroastchicago.com/,american restaurant,"Chicago, USA",google_maps
Alla Vita,"564 W Randolph St, Chicago, IL 60661, USA",,info@allavitachicago.com,(312) 667-0104,https://www.allavitachicago.com/,restaurant,"Chicago, USA",google_maps
The Purple Pig Restaurant,"444 Michigan Ave, Chicago, IL 60611, USA",,,(312) 464-1744,https://thepurplepigchicago.com/,mediterranean restaurant,"Chicago, USA",google_maps
Carnivale Chicago,"702 W Fulton St, Chicago, IL 60661, USA",,,(312) 850-5005,https://www.carnivalechicago.com/?utm_source=google&utm_medium=organic&utm_campaign=gbp_listing,restaurant,"Chicago, USA",google_maps
Elephant & Castle,"185 N Wabash Ave, Chicago, IL 60601, USA",,,(312) 345-1710,https://www.elephantcastle.com/en/locations/il/chicago/185-north-wabash-avenue,restaurant,"Chicago, USA",google_maps
"AMBAR Restaurant, Chicago","700 N Clark St, Chicago, IL 60654, USA",,,(312) 547-1700,https://ambarrestaurant.com/ambarchicago?utm_source=google,restaurant,"Chicago, USA",google_maps
Beatnik On The River,"180 N Wacker Dr, Chicago, IL 60606, USA",,,(312) 526-3345,http://beatnikontheriver.com/,mediterranean restaurant,"Chicago, USA",google_maps
Remington's,"20 N Michigan Ave, Chicago, IL 60602, USA",,,(312) 782-6000,http://www.remingtonschicago.com/?y_source=1_NDYzMDg0MTYtNzE1LWxvY2F0aW9uLndlYnNpdGU%3D,american restaurant,"Chicago, USA",google_maps
Boka,"1729 N Halsted St, Chicago, IL 60614, USA",,events@bokachicago.com,(312) 337-6070,http://www.bokachicago.com/,american restaurant,"Chicago, USA",google_maps
STK Steakhouse,"9 W Kinzie St, Chicago, IL 60654, USA",,,(312) 340-5636,https://stksteakhouse.com/venues/chicago/,steak house,"Chicago, USA",google_maps
Lou Mitchell's,"565 W Jackson Blvd, Chicago, IL 60661, USA",,,(312) 939-3111,http://www.loumitchells.com/,breakfast restaurant,"Chicago, USA",google_maps
Il Porcellino,"59 W Hubbard St #2, Chicago, IL 60654, USA",Missing Points,,(312) 595-0800,http://ilporcellinochicago.com/,italian restaurant,"Chicago, USA",google_maps
The Exchange,"224 S Michigan Ave, Chicago, IL 60604, USA",,,(312) 265-0591,https://www.thexchangechicago.com/?y_source=1_OTI3ODQyODgtNzE1LWxvY2F0aW9uLndlYnNpdGU%3D,american restaurant,"Chicago, USA",google_maps
Gibsons Italia,"233 N Canal St, Chicago, IL 60606, USA",,,(312) 414-1100,https://www.gibsonsitalia.com/,italian restaurant,"Chicago, USA",google_maps
The Berghoff Restaurant,"17 W Adams St, Chicago, IL 60603, USA",,jamaal@berghoff.com,(312) 427-3170,https://www.theberghoff.com/,german restaurant,"Chicago, USA",google_maps
Roanoke Restaurant,"135 W Madison St, Chicago, IL 60602, USA",,info@roanokehospitality.com,(312) 361-3800,http://www.theroanokerestaurant.com/,cocktail bar,"Chicago, USA",google_maps
Cindy's Rooftop,"12 S Michigan Ave, Chicago, IL 60603, USA",,cindysinfo@caa.bokagrp.com,(312) 792-3502,http://www.cindysrooftop.com/,restaurant,"Chicago, USA",google_maps
Lost & Found,"160 W Gray St, Houston, TX 77019, USA",,,(832) 649-3050,https://www.lostandfoundmidtown.com/,bar and grill,"Houston, USA",google_maps
Bungalow,"407 Main St, Houston, TX 77002, USA",,reservation@alifehospitality.com,(713) 393-7868,https://bungalowdining.com/,steak house,"Houston, USA",google_maps
Hull & Oak,"1070 Dallas St, Houston, TX 77002, USA",,,(713) 242-8555,https://hullandoak.com/,american restaurant,"Houston, USA",google_maps
Lucille's,"5512 La Branch St, Houston, TX 77004, USA",,,(713) 568-2505,https://www.lucilleshouston.net/,brunch restaurant,"Houston, USA",google_maps
The Chefs Table Houston,"110 Vintage Park Blvd Building J Suite P, Houston, TX 77070, USA",,,(832) 559-7489,https://www.chefstablehouston.com/,fine dining restaurant,"Houston, USA",google_maps
State of Grace,"3258 Westheimer Rd, Houston, TX 77098, USA",,eventsstateofgrace@rocketfarmrestaurants.com,(832) 942-5080,http://www.stateofgracetx.com/,american restaurant,"Houston, USA",google_maps
Aquarium Restaurant,"410 Bagby St, Houston, TX 77002, USA",,,(713) 315-5126,https://www.downtownaquariumhouston.com/aquarium-restaurant,seafood restaurant,"Houston, USA",google_maps
JOEY Uptown,"5045 Westheimer Rd Suite X01, Houston, TX 77056, USA",,accessibility@joeyrestaurants.com,(346) 646-5639,https://joeyrestaurants.com/location/joey-uptown,restaurant,"Houston, USA",google_maps
Brenner's on the Bayou,"1 Birdsall St, Houston, TX 77007, USA",The Team About,,(713) 868-4444,https://www.brennerssteakhouse.com/location/brenners-on-the-bayou/,restaurant,"Houston, USA",google_maps
Gotti's,"811 St Emanuel St, Houston, TX 77003, USA",,,(713) 405-3500,https://www.gottis.com/,cajun restaurant,"Houston, USA",google_maps
Taste of Texas,"10505 Katy Fwy, Houston, TX 77024, USA",,,(713) 932-6901,http://www.tasteoftexas.com/,steak house,"Houston, USA",google_maps
Nancy's Hustle,"2704 Polk St A, Houston, TX 77003, USA",,info@nancyshustle.com,(346) 571-7931,http://nancyshustle.com/,american restaurant,"Houston, USA",google_maps
Good Times,"2100 Travis St Ste 160, Houston, TX 77002, USA",,,(832) 804-7255,https://houstongoodtimes.com/,american restaurant,"Houston, USA",google_maps
Hillstone,"4848 Kirby Dr, Houston, TX 77098, USA",,,(713) 529-2385,https://hillstonerestaurant.com/locations/houston/#,american restaurant,"Houston, USA",google_maps
La Fisheria,"213 Milam St, Houston, TX 77002, USA",,lafisheria.downtown@gmail.com,(713) 802-1712,http://www.lafisheriahtx.com/,mexican restaurant,"Houston, USA",google_maps
Josephine's,"318 Gray St, Houston, TX 77002, USA",,josephinesgulfcoast@gmail.com,(713) 527-8988,https://josephinesgulfcoasttradition.com/,seafood restaurant,"Houston, USA",google_maps
The Finn,"712 Main St, Houston, TX 77002, USA",,,(713) 357-5115,https://www.thefinnhou.com/,restaurant,"Houston, USA",google_maps
La Griglia,"2817 W Dallas St, Houston, TX 77019, USA",,,(713) 526-4700,https://www.lagrigliarestaurant.com/location/la-griglia/,italian restaurant,"Houston, USA",google_maps
Moxies Houston Restaurant,"5000 Westheimer Rd, Houston, TX 77056, USA",,jdesjardins@eatzhospitality.com,(346) 571-6164,https://moxies.com/restaurants/houston?utm_source=GMB&utm_medium=google-location-listing&utm_campaign=organic,restaurant,"Houston, USA",google_maps
Roost,"1972 Fairview St, Houston, TX 77019, USA",,,(713) 523-7667,http://www.iloveroost.com/,american restaurant,"Houston, USA",google_maps
Tattu London,"The Now Building Rooftop, Outernet, Denmark St, London WC2H 0LA, UK",,london@tattu.co.uk,020 3778 1985,https://tattu.co.uk/locations/tattu-london/,asian restaurant,"London, UK",google_maps
Fallow,"52 Haymarket, London SW1Y 4RP, UK",,,020 8017 1788,http://www.fallowrestaurant.com/,british restaurant,"London, UK",google_maps
Evelyn's Table,"28 Rupert St, London W1D 6DJ, UK",,,,http://theblueposts.co.uk/evelyns-table/,fine dining restaurant,"London, UK",google_maps
HIDE,"85 Piccadilly, London W1J 7NB, UK",,info@hide.co.uk,020 3146 8666,https://hide.co.uk/?utm_source=gbp&utm_medium=organic,fine dining restaurant,"London, UK",google_maps
The Wolseley,"160 Piccadilly, London W1J 9EB, UK",,reservations@thewolseley.com,020 7499 6996,http://www.thewolseley.com/,british restaurant,"London, UK",google_maps
Rules,"35 Maiden Ln, London WC2E 7LB, UK",,pr@rules.co.uk,020 7836 5314,http://www.rules.co.uk/,british restaurant,"London, UK",google_maps
Blacklock Covent Garden,"16a Bedford St, London WC2E 9HE, UK",,coventgarden@theblacklock.com,020 3034 1394,https://theblacklock.com/coventgarden-reservations/?utm_source=GMB&utm_medium=website+click&utm_campaign=SDM&utm_id=GMB,restaurant,"London, UK",google_maps
Gymkhana,"42 Albemarle St, London W1S 4JH, UK",,,020 3011 5900,http://www.gymkhanarestaurants.com/,indian restaurant,"London, UK",google_maps
Bill's Covent Garden Restaurant,"St Martin's Courtyard, Slingsby Pl, London WC2H 9EF, UK",,,020 8054 5400,https://bills-website.co.uk/restaurants/covent-garden/?utm_source=LocalGoogle&utm_medium=Organic,british restaurant,"London, UK",google_maps
Berners Tavern,"10 Berners St, London W1T 3NP, UK",The Team Contact,eh.loneb.events@editionhotels.com,020 7908 7979,http://www.bernerstavern.com/,british restaurant,"London, UK",google_maps
Ekstedt at The Yard,"3-5 Great Scotland Yard, London SW1A 2HN, UK",,enquiries.ekstedt@greatscotlandyard.com,020 7925 4749,https://www.ekstedtattheyard.com/,scandinavian restaurant,"London, UK",google_maps
Bantof,"31 Great Windmill St, London W1D 7LW, UK",,info@bantof.com,07548 373755,https://bantof.com/,restaurant,"London, UK",google_maps
Happy London,"25-29 Coventry St, Piccadilly Circus, London W1D 7AG, UK",,,020 3883 7874,https://happyrestaurants.com/,restaurant,"London, UK",google_maps
OMA,"3 Bedale St, London SE1 9AL, UK",,hello@oma.london,020 8129 6760,http://oma.london/,greek restaurant,"London, UK",google_maps
Scully,"4 St James's Market, London SW1Y 4AH, UK",,,07359 519227,http://www.scullyrestaurant.com/,fine dining restaurant,"London, UK",google_maps
Nonos,"112 Judd St, London WC1H 9NT, UK",,contact@nonos.co.uk,020 7278 9700,http://nonos.co.uk/,greek restaurant,"London, UK",google_maps
Colonel Saab High Holborn,"193-197 High Holborn, London WC1V 7BD, UK",,,020 8016 6800,https://colonelsaab.co.uk/,indian restaurant,"London, UK",google_maps
Osteria romana,"3-4 Park Cl, London SW1X 7PQ, UK",,info@osteriaromana.co.uk,020 7584 5819,http://osteriaromana.co.uk/,italian restaurant,"London, UK",google_maps
Prezzo,"31-32 Northumberland Ave, London WC2N 5BW, UK",,,020 3910 9777,https://www.prezzo.co.uk/restaurants/london-northumberland-avenue/,italian restaurant,"London, UK",google_maps
Inca London,"8-9 Argyll St, London W1F 7TF, UK",,reservations@incalondon.com,020 7734 6066,http://www.incalondon.com/home,south american restaurant,"London, UK",google_maps
Bottega Louie,"700 S Grand Ave, Los Angeles, CA 90017, USA",,,(213) 802-1470,http://www.bottegalouie.com/,italian restaurant,"Los Angeles, USA",google_maps
Chi Spacca,"6610 Melrose Ave, Los Angeles, CA 90038, USA",,,(323) 297-1133,http://www.chispacca.com/,italian restaurant,"Los Angeles, USA",google_maps
Musso & Frank Grill,"6667 Hollywood Blvd, Hollywood, CA 90028, USA",,,(323) 467-7788,http://www.mussoandfrank.com/,american restaurant,"Los Angeles, USA",google_maps
Redbird,"114 E 2nd St, Los Angeles, CA 90012, USA",,info@redbird.la,(213) 788-1191,http://www.redbird.la/,brunch restaurant,"Los Angeles, USA",google_maps
Holbox,"3655 S Grand Ave c9, Los Angeles, CA 90007, USA",,,(213) 986-9972,http://www.holboxla.com/,seafood restaurant,"Los Angeles, USA",google_maps
Philippe The Original,"1001 N Alameda St, Los Angeles, CA 90012, USA",,customerservice@philippes.com,(213) 628-3781,https://www.philippes.com/,sandwich shop,"Los Angeles, USA",google_maps
R√©publique Caf√© Bakery & R√©publique Restaurant,"624 S La Brea Ave, Los Angeles, CA 90036, USA",,events@republiquela.com,(310) 362-6115,http://www.republiquela.com/,french restaurant,"Los Angeles, USA",google_maps
Home Restaurant,"1760 Hillhurst Ave, Los Angeles, CA 90027, USA",,,(323) 990-8016,https://www.homerestaurantla.com/,bar and grill,"Los Angeles, USA",google_maps
Running Goose,"1620 N Cahuenga Blvd, Los Angeles, CA 90028, USA",,,(323) 469-1080,https://runningoose.com/,restaurant,"Los Angeles, USA",google_maps
The Little Jewel of New Orleans,"207 Ord St, Los Angeles, CA 90012, USA",,,(213) 620-0461,https://littlejewel.net/?utm_source=google,cajun restaurant,"Los Angeles, USA",google_maps
Fleming‚Äôs Prime Steakhouse & Wine Bar,"800 W Olympic Blvd Suite A-135, Los Angeles, CA 90015, USA",,,(213) 745-9911,https://www.flemingssteakhouse.com/Locations/CA/Los-Angeles?y_source=1_MTU1MDMxOTctNzE1LWxvY2F0aW9uLndlYnNpdGU%3D,fine dining restaurant,"Los Angeles, USA",google_maps
Oste,"8142 W 3rd St, Los Angeles, CA 90048, USA",,ostelosangeles@outlook.com,(323) 413-2372,http://ostelosangeles.com/,italian restaurant,"Los Angeles, USA",google_maps
Maccheroni Republic,"332 S Broadway, Los Angeles, CA 90013, USA",,,(213) 346-9725,http://www.maccheronirepublic.com/,italian restaurant,"Los Angeles, USA",google_maps
Joyce,"770 S Grand Ave A, Los Angeles, CA 90017, USA",,,(213) 395-0202,https://www.joycela.com/,cocktail bar,"Los Angeles, USA",google_maps
Placita Olvera üá≤üáΩ,"5-11 Olvera St, Los Angeles, CA 90012, USA",,,,,gift shop,"Los Angeles, USA",google_maps
Marugame Monzo,"329 1st St, Los Angeles, CA 90012, USA",,,(213) 346-9762,,japanese restaurant,"Los Angeles, USA",google_maps
San Laurel,"100 S Grand Ave, Los Angeles, CA 90012, USA",,,(213) 349-8585,https://www.sanlaurel.com/,spanish restaurant,"Los Angeles, USA",google_maps
Crossroads Kitchen,"8284 Melrose Ave, Los Angeles, CA 90046, USA",,,(323) 782-9245,http://www.crossroadskitchen.com/,vegan restaurant,"Los Angeles, USA",google_maps
Daikokuya Little Tokyo,"327 1st St, Los Angeles, CA 90012, USA",,,(213) 626-1680,https://group.bishamon-ten.com/daikokuya/littletokyo,ramen restaurant,"Los Angeles, USA",google_maps
Hard Rock Cafe,"6801 Hollywood Blvd Suite 105, Los Angeles, CA 90028, USA",,,(323) 464-7625,https://cafe.hardrock.com/hollywood-on-hollywood-blvd/#utm_source=Google&utm_medium=Yext&utm_campaign=Listings,restaurant,"Los Angeles, USA",google_maps
Farmer's Daughters,"95 Exhibition Street, 80 Collins Precinct, Melbourne VIC 3000, Australia",,info@farmersdaughters.com.au,(03) 9116 8682,https://www.farmersdaughters.com.au/?utm_source=Google&utm_medium=GMB&utm_campaign=Map,restaurant,"Melbourne, Australia",google_maps
NOMAD Melbourne,"187 Flinders Ln, Melbourne VIC 3000, Australia",,eat@nomad.melbourne,(03) 9021 5240,https://nomad.melbourne/,restaurant,"Melbourne, Australia",google_maps
Maha Restaurant,"21 Bond St, Melbourne VIC 3000, Australia",,admin@maharestaurant.com.au,(03) 9629 5900,http://maharestaurant.com.au/,middle eastern restaurant,"Melbourne, Australia",google_maps
Freyja,"477 Collins St, Melbourne VIC 3000, Australia",,hello@freyjarestaurant.com,(03) 8688 7141,https://www.freyjarestaurant.com/,restaurant,"Melbourne, Australia",google_maps
Gimlet,"33 Russell St, Melbourne VIC 3000, Australia",,frontdesk@gimlet.melbourne,(03) 9277 9777,https://gimlet.melbourne/,restaurant,"Melbourne, Australia",google_maps
La Cucina Melbourne,"Corner of Cosgrave lane, opposite Holey Moley, 628 Little Bourke St, Melbourne VIC 3000, Australia",,info@lacucinamelbourne.com.au,(03) 8456 7682,https://www.lacucinamelbourne.com.au/,italian restaurant,"Melbourne, Australia",google_maps
Supernormal,"180 Flinders Ln, Melbourne VIC 3000, Australia",,info@supernormal.net.au,(03) 9650 8688,http://www.supernormal.net.au/,asian fusion restaurant,"Melbourne, Australia",google_maps
Palermo,"401 Little Bourke St, Melbourne VIC 3000, Australia",,info@palermo.melbourne,(03) 9002 1600,https://www.palermo.melbourne/?utm_source=google&utm_medium=gmb,argentinian restaurant,"Melbourne, Australia",google_maps
HER,"270 Lonsdale St, Melbourne VIC 3000, Australia",,,(03) 9997 0437,http://www.her.melbourne/,bar,"Melbourne, Australia",google_maps
Tipo 00,"361 Little Bourke St, Melbourne VIC 3000, Australia",,eat@tipooo.com.au,(03) 9942 3946,https://www.tipo00.com.au/,italian restaurant,"Melbourne, Australia",google_maps
Vue de monde,"55 Rialto Towers, 525 Collins St, Melbourne VIC 3000, Australia",,vuedemonde@vuedemonde.com.au,(03) 9691 3888,http://www.vuedemonde.com.au/,fine dining restaurant,"Melbourne, Australia",google_maps
Kiss & Tell,"Level 1/37-41 Little Bourke St, Melbourne VIC 3000, Australia",,info@mamasdininggroup.com.au,(03) 9095 6614,http://kissandtell.melbourne/,asian fusion restaurant,"Melbourne, Australia",google_maps
Society,"80 Collins St, Melbourne VIC 3000, Australia",,bookings@societyrestaurant.com,(03) 8618 8900,https://www.societyrestaurant.com/,restaurant,"Melbourne, Australia",google_maps
The George on Collins,"162-168 Collins St, Melbourne VIC 3000, Australia",,info@thegeorgeoncollins.com.au,(03) 9663 7226,http://www.thegeorgeoncollins.com.au/,asian restaurant,"Melbourne, Australia",google_maps
Sezar Restaurant,"6 Melbourne Pl, Melbourne VIC 3000, Australia",,info@sezar.com.au,(03) 9663 9882,http://sezar.com.au/,eastern european restaurant,"Melbourne, Australia",google_maps
MoVida,"1 Hosier Ln, Melbourne VIC 3000, Australia",,reservations@movida.com.au,(03) 9663 3038,https://www.movida.com.au/,spanish restaurant,"Melbourne, Australia",google_maps
Osteria Ilaria,"367 Little Bourke St, Melbourne VIC 3000, Australia",,eat@osteriailaria.com,(03) 9642 2287,http://www.osteriailaria.com/,italian restaurant,"Melbourne, Australia",google_maps
Chin Chin,"125 Flinders Ln, Melbourne VIC 3000, Australia",,eat@chinchinrestaurant.com.au,(03) 8663 2000,https://www.chinchin.melbourne/,asian restaurant,"Melbourne, Australia",google_maps
Meatmaiden,"195 Little Collins St, Melbourne VIC 3000, Australia",,info@meatmaiden.com.au,(03) 9078 7747,http://www.meatmaiden.com.au/,steak house,"Melbourne, Australia",google_maps
Attica,"74 Glen Eira Rd, Ripponlea VIC 3185, Australia",,,(03) 9530 0111,http://www.attica.com.au/,fine dining restaurant,"Melbourne, Australia",google_maps
Crazy About You,"1155 Brickell Bay Dr PH101, Miami, FL 33131, USA",,info@passionrestaurantgroup.com,(305) 377-4442,https://passionrestaurantgroup.com/restaurants/crazy-about-you/,american restaurant,"Miami, USA",google_maps
Sexy Fish Miami,"1001 S Miami Ave, Miami, FL 33130, USA",,,(305) 889-7888,https://sexyfishmiami.com/?utm_source=LocalGoogleExtNet&utm_medium=Organic,japanese restaurant,"Miami, USA",google_maps
Rusty Pelican Miami,"3201 Rickenbacker Cwy, Key Biscayne, FL 33149, USA",,,(305) 361-3818,https://www.therustypelican.com/,seafood restaurant,"Miami, USA",google_maps
Tanuki River Landing,"1420 NW N River Dr, Miami, FL 33125, USA",,,(305) 433-2436,https://tanukimiami.com/?utm_source=google,asian fusion restaurant,"Miami, USA",google_maps
CASA NEOS,"40 SW North River Dr, Miami, FL 33128, USA",,reservations@casa-neos.com,(305) 800-6367,https://www.casa-neos.com/,mediterranean restaurant,"Miami, USA",google_maps
Gordon Ramsay Hell's Kitchen - Miami,"333 Biscayne Blvd Way, Miami, FL 33131, USA",,rgrhigh@gordonramsay.com,(786) 688-0082,https://www.gordonramsayrestaurants.com/en/us/hells-kitchen/locations/miami,restaurant,"Miami, USA",google_maps
Komodo Miami,"801 Brickell Ave, Miami, FL 33131, USA",,info@komodomiami.com,(305) 534-2211,https://komodomiami.com/,restaurant,"Miami, USA",google_maps
Fiore Caffe Miami,"228 SE 1st St, Miami, FL 33131, USA",,fiorecafemiami@gmail.com,(786) 558-5152,https://fiorecaffemiami.com/,breakfast restaurant,"Miami, USA",google_maps
Rosa Sky,"115 SW 8th St 22nd Floor, Miami, FL 33130, USA",,,(786) 628-1515,https://rosaskyrooftop.com/?utm_source=google&utm_medium=organic&utm_campaign=gbp,cocktail bar,"Miami, USA",google_maps
Mayami Wynwood,"127 NW 23rd St, Miami, FL 33127, USA",,info@mayamiwynwood.com,(786) 660-1341,https://www.mayamiwynwood.com/,restaurant,"Miami, USA",google_maps
Marabu Restaurant,"701 S Miami Ave Fl 4, Miami, FL 33131, USA",,hello@maraburestaurant.com,(786) 598-8012,https://www.maraburestaurant.com/,restaurant,"Miami, USA",google_maps
The Capital Grille,"444 Brickell Ave, Miami, FL 33131, USA",,,(305) 374-4500,https://www.thecapitalgrille.com/locations/fl/miami/miami/8006?cmpid=br:tcg_ag:ie_ch:loc_ca:TCGGMB_sn:gmb_gt:miami-fl-8006_pl:locurl_rd:1004,fine dining restaurant,"Miami, USA",google_maps
Seaspice Brasserie & Lounge,"412 NW N River Dr, Miami, FL 33128, USA",,,(305) 440-4200,http://www.seaspice.com/,fine dining restaurant,"Miami, USA",google_maps
Moxies Miami Restaurant,"900 S Miami Ave #161, Miami, FL 33130, USA",,adeleon@eatzhospitality.com,(305) 549-8997,https://moxies.com/restaurants/miami-mary-brickell?utm_source=GMB&utm_medium=google-location-listing&utm_campaign=organic,restaurant,"Miami, USA",google_maps
Sunny‚Äôs Steakhouse,"7357 NW Miami Ct, Miami, FL 33150, USA",,,,https://sunnysmia.com/,steak house,"Miami, USA",google_maps
Elia on the River,"1440 NW N River Dr Suite 195, Miami, FL 33125, USA",,,(305) 904-4045,https://www.eliaontheriver.com/,restaurant,"Miami, USA",google_maps
Santorini by Georgios,"101 Ocean Dr # 101, Miami Beach, FL 33139, USA",,groups@santorinibygeorgios.com,(305) 672-6624,https://santorinibygeorgios.com/,greek restaurant,"Miami, USA",google_maps
Nusr-Et Steakhouse,"999 Brickell Ave, Miami, FL 33131, USA",,michelle.sabel@nusr-etus.com,(305) 415-9990,https://www.nusr-et.com.tr/distinctive-venues/miami.5.aspx?&utm_source=google+business+profile&utm_medium=organic&utm_content=gbp+link+website&utm_creative_format=gbp+link+website&business_id=15624168890025590037,steak house,"Miami, USA",google_maps
MAYU by Aromas Del Peru,"177 SW 7th St, Miami, FL 33130, USA",,,(305) 860-1426,https://mayumiami.com/,peruvian restaurant,"Miami, USA",google_maps
La Grande Boucherie,"145 W 53rd St, New York, NY 10019, USA",,contact_chicago@boucherieus.com,(212) 510-7714,https://www.boucherieus.com/,french restaurant,"New York City, USA",google_maps
The Modern,"9 W 53rd St, New York, NY 10019, USA",Danny Meyer,,(212) 333-1220,https://www.themodernnyc.com/the-modern/,restaurant,"New York City, USA",google_maps
The Smith,"1150 Broadway, New York, NY 10010, USA",,info@thesmithrestaurant.com,(212) 685-4500,https://thesmithrestaurant.com/location/nomad/,american restaurant,"New York City, USA",google_maps
Manhatta,"28 Liberty St 60th floor, New York, NY 10005, USA",,,(212) 230-5788,https://www.manhattarestaurant.com/,fine dining restaurant,"New York City, USA",google_maps
The Capital Grille,"200 Park Ave, New York, NY 10166, USA",,,(212) 548-8338,https://www.thecapitalgrille.com/locations/ny/new-york/nyc-metlife-building/8074?cmpid=br:tcg_ag:ie_ch:loc_ca:TCGGMB_sn:gmb_gt:new-york-ny-8074_pl:locurl_rd:1067,fine dining restaurant,"New York City, USA",google_maps
Le Bernardin,"155 W 51st St, New York, NY 10019, USA",,,(212) 554-1515,https://www.le-bernardin.com/home,french restaurant,"New York City, USA",google_maps
Butter,"70 W 45th St, New York, NY 10036, USA",,reservations@butterrestaurant.com,(646) 719-1364,http://www.butterrestaurant.com/,american restaurant,"New York City, USA",google_maps
1803 NYC,"82 Reade St, New York, NY 10007, USA",,1803nyc@gmail.com,(212) 267-3000,https://1803nyc.com/,cajun restaurant,"New York City, USA",google_maps
Eataly,"101 Liberty St, New York, NY 10007, USA",Our Makers,customerservice@eataly.com,(212) 897-2895,https://www.eataly.com/us_en/stores/nyc-downtown/restaurants,italian restaurant,"New York City, USA",google_maps
Per Se,"10 Columbus Cir, New York, NY 10019, USA",,,(212) 823-9335,https://www.thomaskeller.com/perseny,fine dining restaurant,"New York City, USA",google_maps
abc kitchen,"35 E 18th St, New York, NY 10003, USA",,,(212) 475-5829,https://www.abckitchen.nyc/,restaurant,"New York City, USA",google_maps
ONE Dine at One World Observatory,"117 West St, New York, NY 10007, USA",,,(212) 602-4070,https://www.oneworldobservatory.com/bar-restaurant/?utm_source=googlebusiness&utm_medium=organic&utm_campaign=places,american restaurant,"New York City, USA",google_maps
Don Angie,"103 Greenwich Ave, New York, NY 10014, USA",,,(212) 889-8884,http://donangie.com/,italian restaurant,"New York City, USA",google_maps
Altair Restaurant NYC,"351 W 38th St, New York, NY 10018, USA",,,(929) 561-6131,https://www.altairnyc.com/,american restaurant,"New York City, USA",google_maps
Minetta Tavern,"113 MacDougal St, New York, NY 10012, USA",,events@minettatavernny.com,(212) 475-3850,http://www.minettatavernny.com/,french restaurant,"New York City, USA",google_maps
Brooklyn Chop House Steakhouse Downtown NYC,"150 Nassau St, New York, NY 10038, USA",,,(212) 619-1200,https://www.brooklynchophouse.com/,steak house,"New York City, USA",google_maps
Nobu Downtown,"195 Broadway, New York, NY 10007, USA",,,(212) 219-0500,https://www.noburestaurants.com/downtown/home/?utm_source=google&utm_medium=Yext,japanese restaurant,"New York City, USA",google_maps
Atera,"77 Worth St, New York, NY 10013, USA",,reservations@ateranyc.com,(212) 226-1444,http://www.ateranyc.com/,american restaurant,"New York City, USA",google_maps
Pink Mamma,"20bis Rue de Douai, 75009 Paris, France",,,09 73 03 40 29,https://www.bigmammagroup.com/italian-restaurants/pink-mamma?utm_source=google&utm_medium=organic&utm_campaign=mybusiness-website,italian restaurant,"Paris, France",google_maps
Sph√®re,"18 Rue La Bo√©tie, 75008 Paris, France",,,01 71 25 26 91,https://restaurantsphere.com/,fine dining restaurant,"Paris, France",google_maps
Le Ju',"16 Rue des Archives, 75004 Paris, France",,,01 42 78 11 47,https://le-ju-paris.fr/,restaurant,"Paris, France",google_maps
Le Tout-Paris,"8 Quai du Louvre, 75001 Paris, France",,,01 79 35 50 22,http://letoutparis.fr/?y_source=1_MjM2NzUwMDEtNzE1LWxvY2F0aW9uLndlYnNpdGU%3D,french restaurant,"Paris, France",google_maps
Le Marais Restaurant Paris,"47 R. de Turbigo, 75003 Paris, France",Cem A.,contact@privateaser.com,09 87 36 09 13,https://www.privateaser.com/lieu/44897-le-marais-restaurant,mediterranean restaurant,"Paris, France",google_maps
Chouchou,"23 Bd de S√©bastopol, 75001 Paris, France",,restauchouchou@gmail.com,01 45 08 02 03,http://www.restaurantchouchouparis.fr/,french restaurant,"Paris, France",google_maps
Epicure,"112 Rue du Faubourg Saint-Honor√©, 75008 Paris, France",Arnaud Faye,epicure@oetkerhotels.com,01 53 43 43 40,https://www.oetkerhotels.com/hotels/le-bristol-paris/restaurants-bars/epicure/?utm_source=google&utm_medium=organic&utm_campaign=google_local_epicure,fine dining restaurant,"Paris, France",google_maps
Au Bourguignon du Marais,"52 Rue Fran√ßois Miron, 75004 Paris, France",,,01 48 87 15 40,http://aubourguignondumarais.fr/?utm_source=gmb,french restaurant,"Paris, France",google_maps
La Maison du Boulevard,"40 Bd de l'H√¥pital, 75005 Paris, France",,,,https://www.instagram.com/lamaisonduboulevard_paris/,french restaurant,"Paris, France",google_maps
Le Cinq,"31 Av. George V, 75008 Paris, France",,,01 49 52 71 54,https://www.fourseasons.com/paris/dining/restaurants/le_cinq/?utm_source=google&utm_medium=organicsearch&utm_campaign=tor-par-fab-mid-seo-na&utm_content=na-na&utm_term=na,restaurant,"Paris, France",google_maps
Bistrot Richelieu,"45 Rue de Richelieu, 75001 Paris, France",,,01 42 60 19 16,https://www.bistrotrichelieu.com/,french restaurant,"Paris, France",google_maps
Restaurant Guy Savoy,"11 Quai de Conti, 75006 Paris, France",,reserv@guysavoy.com,01 43 80 40 61,http://www.guysavoy.com/,french restaurant,"Paris, France",google_maps
Le Paris Paris,"8 Rue de Montfaucon, 75006 Paris, France",,,01 43 26 50 56,http://www.leparisparis.fr/,restaurant,"Paris, France",google_maps
Le Colima√ßon,"44 Rue Vieille du Temple, 75004 Paris, France",,contactcolimacon@gmail.com,,https://le-colimacon.fr/,french restaurant,"Paris, France",google_maps
Le P'tit Bistrot,"8 Rue Saint-Martin, 75004 Paris, France",,,01 42 78 55 80,,bistro,"Paris, France",google_maps
Au Vieux Comptoir,"17 Rue des Lavandi√®res Sainte-Opportune, 75001 Paris, France",,auvieuxcomptoir@gmail.com,01 45 08 53 08,https://www.au-vieux-comptoir.com/,french restaurant,"Paris, France",google_maps
L'Orangerie,"31 Av. George V, 75008 Paris, France",,,01 49 52 72 24,https://www.fourseasons.com/paris/dining/restaurants/l-orangerie/?utm_source=google&utm_medium=organicsearch&utm_campaign=tor-par-fab-mid-seo-na&utm_content=na-na&utm_term=na,restaurant,"Paris, France",google_maps
Restaurant L'Ange 20,"44 Rue des Tournelles, 75004 Paris, France",,,01 49 96 58 39,http://www.lange20.com/,french restaurant,"Paris, France",google_maps
Pur' - Jean-Fran√ßois Rouquette,"5 Rue de la Paix, 75002 Paris, France",,reservations.restaurants@hyatt.com,01 58 71 10 60,https://www.paris-restaurant-pur.fr/,fine dining restaurant,"Paris, France",google_maps
Le Saint-Regis - Paris,"6 Rue Jean du Bellay, 75004 Paris, France",,,01 43 54 59 41,http://www.lesaintregis-paris.com/,french restaurant,"Paris, France",google_maps
Hustlers. Syd,"LG/24 York St, Sydney NSW 2000, Australia",,hello@hustlerssyd.com.au,0402 641 929,http://www.hustlerssyd.com.au/,asian fusion restaurant,"Sydney, Australia",google_maps
The Blue Door,"8/38 Waterloo St, Surry Hills NSW 2010, Australia",,eat@thebluedoorsurryhills.com.au,0417 909 635,http://www.thebluedoorsurryhills.com.au/,fine dining restaurant,"Sydney, Australia",google_maps
Grana,"Ground Floor/5-7 Young St, Sydney NSW 2000, Australia",,,(02) 7228 1400,https://www.grana.sydney/,restaurant,"Sydney, Australia",google_maps
The Sanderson,"Enter Via Wynyard Lane, 285 George St, Sydney NSW 2000, Australia",,,(02) 7225 5559,https://thesanderson.com.au/,restaurant,"Sydney, Australia",google_maps
Bennelong,"Sydney Opera House, Bennelong Point, Sydney NSW 2000, Australia",The Team,reservations@bennelong.com.au,(02) 9240 8000,http://www.bennelong.com.au/,australian restaurant,"Sydney, Australia",google_maps
Aalia Restaurant Sydney,"Shop 7.07-7.08/25 Martin Pl, Sydney NSW 2000, Australia",,info@aaliarestaurant.com,(02) 9182 5880,https://www.aaliarestaurant.com/?utm_content=AALIA+Restaurant+Sydney&utm_campaign=Google+My+Business&utm_medium=organic&utm_source=google&utm_term=plcid_6952976032146166324,middle eastern restaurant,"Sydney, Australia",google_maps
Esteban,"1 Temperance Ln, Sydney NSW 2000, Australia",,info@estebanrestaurant.com.au,(02) 9290 7022,https://www.estebanrestaurant.com.au/,mexican restaurant,"Sydney, Australia",google_maps
Aria Restaurant Sydney,"1 Macquarie St, Sydney NSW 2000, Australia",,res.ariasydney@solotel.com.au,(02) 9240 2255,https://www.ariasydney.com.au/?utm_source=google&utm_medium=organic&utm_campaign=gbp&utm_content=Aria_Restaurant_Sydney&utm_term=plcid_18420151015366914459,fine dining restaurant,"Sydney, Australia",google_maps
BISTECCA,"3 Dalley St, Sydney NSW 2000, Australia",,,(02) 8067 0450,https://www.liquidandlarder.com.au/venues/bistecca/,steak house,"Sydney, Australia",google_maps
Cafe Sydney Restaurant,"Level 5 Customs House, 31 Alfred St, Sydney NSW 2000, Australia",,reservations@cafesydney.com,(02) 9251 8683,http://www.cafesydney.com/,cocktail bar,"Sydney, Australia",google_maps
NOMAD Sydney,"16 Foster St, Surry Hills NSW 2010, Australia",,eat@nomad.sydney,(02) 9280 3395,https://nomad.sydney/,australian restaurant,"Sydney, Australia",google_maps
Infinity at Sydney Tower,"Westfield Sydney, Level 4/108 Market St, Sydney NSW 2000, Australia",,reservations@infinitysydneytower.com.au,,https://infinitysydneytower.com.au/,fine dining restaurant,"Sydney, Australia",google_maps
"Luna Lu - Asian Fusion, The Rocks","Ground Level, Bays 4 and 5, Campbells Cove, 7-27 Circular Quay W, The Rocks NSW 2000, Australia",,reservations@lunalu.com.au,(02) 8220 8401,http://www.lunalu.com.au/,asian fusion restaurant,"Sydney, Australia",google_maps
Lana,"Level 1/5-7 Young St, Sydney NSW 2000, Australia",,lana@hinchcliffhouse.com,(02) 7228 1400,https://lana.sydney/,italian restaurant,"Sydney, Australia",google_maps
Primi Italian,"168 Clarence St, Sydney NSW 2000, Australia",,info@test.com,(02) 8296 6430,https://primiitalian.com.au/,italian restaurant,"Sydney, Australia",google_maps
MuMu,"330C George St, Sydney NSW 2000, Australia",,,(02) 9114 7393,https://merivale.com/venues/mumu/?utm_source=googlemybusines_venue&utm_medium=organic&utm_campaign=googlemybusiness_venue_organic_mumu&utm_content=website,restaurant,"Sydney, Australia",google_maps
Mr. Wong,"3 Bridge Ln, Sydney NSW 2000, Australia",,,(02) 9114 7317,https://merivale.com/venues/mrwong?&utm_source=googlemybusiness_venue&utm_medium=organic&utm_campaign=googlemybusiness_venue_organic_mr.wong&utm_content=website,cantonese restaurant,"Sydney, Australia",google_maps
Bouillon L'Entrec√¥te,"6 Loftus St, Sydney NSW 2000, Australia",,,,http://bouillonlentrecote.com.au/,french restaurant,"Sydney, Australia",google_maps
Restaurant Hubert,"15 Bligh St, Sydney NSW 2000, Australia",Brendan Fong,reservations@restauranthubert.com,(02) 8302 2322,https://www.swillhouse.com/venues/restaurant-hubert,french restaurant,"Sydney, Australia",google_maps
The Gidley,"Basement/161 King St, Sydney NSW 2000, Australia",,,(02) 9169 6898,https://www.liquidandlarder.com.au/venues/the-gidley/,steak house,"Sydney, Australia",google_maps
RASA,"196 Robert St, Toronto, ON M5S 2K7, Canada",,rasa@thefooddudes.com,(647) 350-8221,http://www.rasabar.ca/,restaurant,"Toronto, Canada",google_maps
Black+Blue,"130 King St W, Toronto, ON M5X 2A2, Canada",,,(647) 368-8283,https://blackandbluesteakhouse.ca/toronto-home/,restaurant,"Toronto, Canada",google_maps
Canoe,"66 Wellington St W 54th floor, Toronto, ON M5K 1E9, Canada",,donations@oliverbonacini.com,(416) 364-0054,http://www.canoerestaurant.com/,wine bar,"Toronto, Canada",google_maps
K≈åST,"80 Blue Jays Way 44th Floor, Toronto, ON M5V 2G3, Canada",,info@kosttoronto.com,(437) 800-5938,https://kosttoronto.com/,californian restaurant,"Toronto, Canada",google_maps
Chop Steakhouse & Bar,"181 University Ave, Toronto, ON M5H 3M7, Canada",,,(416) 752-0969,https://chop.ca/locations/toronto-downtown,steak house,"Toronto, Canada",google_maps
Richmond Station,"1 Richmond St W, Toronto, ON M5H 3W4, Canada",,,(647) 748-1444,http://richmondstation.ca/,restaurant,"Toronto, Canada",google_maps
The Rabbit Hole,"21 Adelaide St W, Toronto, ON M5H 1L6, Canada",,,(647) 480-6963,http://therabbitholepub.ca/,restaurant,"Toronto, Canada",google_maps
PAI,"18 Duncan St, Toronto, ON M5H 3G8, Canada",,downtown@paitoronto.com,(416) 901-4724,http://www.paitoronto.com/,thai restaurant,"Toronto, Canada",google_maps
Aloette Restaurant,"163 Spadina Ave. 1st Floor, Toronto, ON M5V 2A5, Canada",,info@aloetterestaurant.com,(416) 260-3444,http://aloetterestaurant.com/,bistro,"Toronto, Canada",google_maps
Daphne,"67 Richmond St W, Toronto, ON M5H 1Z5, Canada",,info@daphnetoronto.com,(416) 203-1414,https://daphnetoronto.com/,american restaurant,"Toronto, Canada",google_maps
Earls Kitchen + Bar,"150 King St W #100, Toronto, ON M5H 1J9, Canada",,,(416) 916-0227,https://earls.ca/locations/financial--district/,restaurant,"Toronto, Canada",google_maps
The Carbon Bar,"99 Queen St E, Toronto, ON M5C 1S1, Canada",,,(416) 947-7000,https://thecarbonbar.ca/,barbecue restaurant,"Toronto, Canada",google_maps
360 The Restaurant at the CN Tower,"290 Bremner Blvd, Toronto, ON M5V 3L9, Canada",,,(416) 362-5411,https://www.cntower.ca/dine-at-360-restaurant/overview,restaurant,"Toronto, Canada",google_maps
Jacobs & Co. Steakhouse,"81 Bay St. 4th Floor, Toronto, ON M5J 0E7, Canada",,,(416) 366-0200,http://www.jacobssteakhouse.com/,steak house,"Toronto, Canada",google_maps
Byblos Downtown,"11 Duncan St, Toronto, ON M5V 3M2, Canada",,,(647) 660-0909,https://byblosdowntown.com/,middle eastern restaurant,"Toronto, Canada",google_maps
The Chase,"10 Temperance St Fl 5, Toronto, ON M5H 1Y4, Canada",,events@thechaserg.com,(647) 348-7000,http://www.thechasetoronto.com/,restaurant,"Toronto, Canada",google_maps
Fox on John,"106 John St #3, Toronto, ON M5V 2E1, Canada",,info@foxonjohn.ca,(647) 748-0369,https://www.foxonjohn.ca/,wine bar,"Toronto, Canada",google_maps
GEORGE Restaurant,"111C Queen St E, Toronto, ON M5C 1S2, Canada",,concierge@verity.ca,(416) 863-6006,http://www.georgeonqueen.com/,bar,"Toronto, Canada",google_maps
