business_name,address,owner_name,email,phone,website,category,city,source
Barney's Coffeeshop Amsterdam THC Cannabis Dispensary,"Haarlemmerstraat 102, 1013 EW Amsterdam, Netherlands",,,,https://www.barneysamsterdam.com/,coffee shop,"Amsterdam, Netherlands",google_maps
Coffeeshop IBIZA,"Hemonystraat 16, 1074 BP Amsterdam, Netherlands",,,020 223 2534,https://coffeeshopibiza.com/,coffee shop,"Amsterdam, Netherlands",google_maps
Coffeeshop Amsterdam,"Haarlemmerstraat 44, 1013 ES Amsterdam, Netherlands",,,020 427 6739,https://coffeeshopamsterdam.com/,coffee shop,"Amsterdam, Netherlands",google_maps
Boerejongens,"Utrechtsestraat 21, 1017 VH Amsterdam, Netherlands",,,020 447 3557,https://www.boerejongens.com/,coffee shops,"Amsterdam, Netherlands",google_maps
Prix d'Ami.,"Haringpakkerssteeg 3, 1012 LR Amsterdam, Netherlands",The Bong,info@prixdami.nl,,https://www.prixdami.nl/?utm_source=GMB&utm_medium=organic&utm_campaign=website,coffee shop,"Amsterdam, Netherlands",google_maps
ProGram Coffeeshop Amsterdam,"Daniël Stalpertstraat 78, 1072 XK Amsterdam, Netherlands",,,,https://www.coffeeshopdepijp.amsterdam/,coffee shops,"Amsterdam, Netherlands",google_maps
Kafenion Amsterdam,"Bloemgracht 49, 1016 KD Amsterdam, Netherlands",,,,https://www.kafenion.eu/,cafe,"Amsterdam, Netherlands",google_maps
Coffeeshopamsterdam Café,"Singel 8, 1013 GA Amsterdam, Netherlands",,,020 778 4387,https://coffeeshopamsterdamcafe.com/,coffee shop,"Amsterdam, Netherlands",google_maps
Original Dampkring Coffeeshop,"Handboogstraat 29, 1012 XM Amsterdam, Netherlands",,,020 638 0705,http://www.dampkring.amsterdam/,coffee shops,"Amsterdam, Netherlands",google_maps
Grey Area Coffeeshop,"Oude Leliestraat 2, 1015 AW Amsterdam, Netherlands",,,020 420 4301,http://www.greyarea.nl/,tourist attraction,"Amsterdam, Netherlands",google_maps
Coffeeshop Get Down,"Korte Leidsedwarsstraat 77, 1017 PW Amsterdam, Netherlands",,,020 223 1319,https://m.facebook.com/GetDownToIT/,cafe,"Amsterdam, Netherlands",google_maps
Katsu Coffeeshop,"Eerste van der Helststraat 70, 1072 NZ Amsterdam, Netherlands",,,020 675 2617,http://www.katsu.nl/,tourist attraction,"Amsterdam, Netherlands",google_maps
Coffeeshop Bluebird,"Sint Antoniesbreestraat 71, 1011 HB Amsterdam, Netherlands",,,020 622 5232,,association or organization,"Amsterdam, Netherlands",google_maps
Coffeeshop Relax | Amsterdam Centrum,"Binnen Oranjestraat 9, 1013 HZ Amsterdam, Netherlands",,,020 331 1828,https://www.coffeeshop-relax.nl/locaties/coffeeshop-relax-centrum?utm_source=google&utm_medium=maps,coffee shop,"Amsterdam, Netherlands",google_maps
Tyson 2.0 Nieuwmarkt,"Nieuwmarkt 14, 1012 CR Amsterdam, Netherlands",,,020 427 7878,https://greenhouse-effect.amsterdam/,cafe,"Amsterdam, Netherlands",google_maps
Coffeeshop Siberië,"Brouwersgracht 11, 1015 GA Amsterdam, Netherlands",,,020 623 5909,https://thecoffeeshops.com/,cafe,"Amsterdam, Netherlands",google_maps
LOT61 Amsterdam Centraal Station,"Oosterdoksstraat 4, 1011 DK Amsterdam, Netherlands",,,06 11590211,https://lot61.com/lot61-amsterdam-centraal,coffee shop,"Amsterdam, Netherlands",google_maps
De Koffieschenkerij,"Oudekerksplein 27, 1012 GX Amsterdam, Netherlands",,info@koffieschenkerij.com,,http://www.koffieschenkerij.com/,coffee shop,"Amsterdam, Netherlands",google_maps
Easy Times Prinsengracht,"Prinsengracht 476, 1017 KG Amsterdam, Netherlands",,,,https://easytimes.amsterdam/,coffee shops,"Amsterdam, Netherlands",google_maps
Coffeeshop Sloterdijk,"Humberweg 2, 1043 AN Amsterdam, Netherlands",,,06 55955400,http://www.coffeeshopsloterdijk.com/,coffee shops,"Amsterdam, Netherlands",google_maps
Harbor Coffee,"331 Elizabeth St NE suite c, Atlanta, GA 30307, USA",,,(404) 678-1561,http://www.harborcoffeeatl.com/,coffee shop,"Atlanta, USA",google_maps
Foxtail Coffee - Midtown,"1230 W Peachtree St NW unit 120, Atlanta, GA 30309, USA",,,(470) 788-8006,https://www.foxtailcoffee.com/locations/foxtail-coffee-midtown,coffee shop,"Atlanta, USA",google_maps
Bloom Coffee Co.,"2025 Peachtree Rd NW, Atlanta, GA 30309, USA",,bloomcoffeecoatl@gmail.com,(404) 343-6631,http://bloomcoffeecoatl.com/,coffee shop,"Atlanta, USA",google_maps
Portrait Coffee,"1065 Ralph David Abernathy Blvd SW # A, Atlanta, GA 30310, USA",,,,http://portrait.coffee/,coffee shop,"Atlanta, USA",google_maps
Dope Coffee @ Azalea,"25 Peachtree St NW 2nd Floor, Atlanta, GA 30303, USA",,,,http://www.realdope.coffee/,coffee shop,"Atlanta, USA",google_maps
Condesa Coffee,"480 John Wesley Dobbs Ave NE UNIT 100, Atlanta, GA 30312, USA",,,(404) 524-5054,http://www.condesacoffee.com/oldfourthward,coffee shop,"Atlanta, USA",google_maps
Con Leche Coffee,"181 Flat Shoals Ave SE Unit 1, Atlanta, GA 30316, USA",,hola@conlechecoffee.com,(678) 904-9299,https://www.conleche.com/,coffee shop,"Atlanta, USA",google_maps
For Five Coffee Atlanta,"1105 W Peachtree St NW, Atlanta, GA 30309, USA",,,,https://www.forfivecoffee.com/location/for-five-coffee-atlanta/,cafe,"Atlanta, USA",google_maps
Peoples Town Coffee Bar,"55 Milton Ave SE Suite A, Atlanta, GA 30315, USA",,hey@peoplestowncoffee.com,(678) 310-5663,http://www.peoplestowncoffee.com/,coffee shop,"Atlanta, USA",google_maps
Apotheos Coffee Midtown,"740 W Peachtree St NW, Atlanta, GA 30308, USA",,,,http://apotheosroastery.com/,coffee shop,"Atlanta, USA",google_maps
Prevail Union | ATL,"1050 Howell Mill Rd NW, Atlanta, GA 30318, USA",,,(678) 837-5440,http://www.prevailcoffee.com/,coffee shop,"Atlanta, USA",google_maps
Foxtail Coffee - Society Atlanta,"811 Peachtree St NE Unit 5, Atlanta, GA 30308, USA",,,(678) 358-4320,"https://www.foxtailcoffee.com/locations/foxtail-coffee-society-atlanta,-ga",coffee shop,"Atlanta, USA",google_maps
Drip,"928 Garrett St B, Atlanta, GA 30316, USA",,,(404) 627-7375,http://www.dripatlanta.com/,coffee shop,"Atlanta, USA",google_maps
Bellwood Coffee - East Atlanta Village,"1336 Glenwood Ave SE, Atlanta, GA 30316, USA",,,(678) 986-2822,http://bellwoodcoffee.com/,coffee shop,"Atlanta, USA",google_maps
Urban Grind,"962 Marietta St NW, Atlanta, GA 30318, USA",,,,http://urbangrindatlanta.com/,coffee shop,"Atlanta, USA",google_maps
Grant Park Coffeehouse,"337 Georgia Ave SE, Atlanta, GA 30312, USA",,filler@godaddy.com,(404) 856-0433,https://www.grantparkcoffeehouse.com/,coffee shop,"Atlanta, USA",google_maps
Chrome Yellow,"501 Edgewood Ave SE, Atlanta, GA 30312, USA",,,(470) 355-1340,https://chrome-yellow.com/,coffee shop,"Atlanta, USA",google_maps
Remedy Coffee,"1 Wellesley Street West, Auckland CBD, Auckland 1010, New Zealand",,,0210 383 066,https://www.facebook.com/Remedy-Coffee-134703853265719/,coffee shop,"Auckland, New Zealand",google_maps
Maeve Coffee Roasters,"16 Anzac Avenue, Auckland CBD, Auckland 1010, New Zealand",,,,,coffee shop,"Auckland, New Zealand",google_maps
Kompass Coffee,"2 Kitchener Street, Auckland CBD, Auckland 1010, New Zealand",,,,https://www.instagram.com/kompasscoffee/,cafe,"Auckland, New Zealand",google_maps
D.O.S.E On High,"5 High Street, Auckland CBD, Auckland 1010, New Zealand",,,,https://instagram.com/d.o.s.eonhigh?igshid=YTQwZjQ0NmI0OA==,coffee shop,"Auckland, New Zealand",google_maps
The EOS Coffee,"Shop 6, 34/40 Queen Street, Auckland CBD, Auckland 1010, New Zealand",,,,,cafe,"Auckland, New Zealand",google_maps
Coffee Corner,"17 Wellesley Street West, Auckland CBD, Auckland 1010, New Zealand",,,,,coffee shop,"Auckland, New Zealand",google_maps
Rumours coffee,"19 O'Connell Street, Auckland CBD, Auckland 1010, New Zealand",,,,,coffee shop,"Auckland, New Zealand",google_maps
Nola Coffee,"Ground Floor/17 Albert Street, Auckland CBD, Auckland 1010, New Zealand",,,0210 200 1651,,coffee shop,"Auckland, New Zealand",google_maps
Millers Coffee,"31 Cross Street, Auckland CBD, Auckland 1010, New Zealand",,,09 356 7322,http://millerscoffee.co.nz/,coffee shop,"Auckland, New Zealand",google_maps
Allpress Roastery Auckland,"8 Drake Street, Freemans Bay, Auckland 1010, New Zealand",,coffee@allpress.co.nz,09 307 5555,https://nz.allpressespresso.com/find/auckland-roastery?utm_source=google&utm_medium=organic&utm_campaign=mybusiness,coffee shop,"Auckland, New Zealand",google_maps
Atomic Coffee Roasters,"420 New North Road, Kingsland, Auckland 1021, New Zealand",,,0800 286 642,http://atomiccoffee.co.nz/,coffee shop,"Auckland, New Zealand",google_maps
The Pantry,"Park Hyatt Auckland 99 Halsey Street, Auckland CBD, Auckland 1010, New Zealand",,thepantry@hyatt.com,09 366 2501,https://hyattpantry.co.nz/,cafe,"Auckland, New Zealand",google_maps
STOLEN SUMMER,"18B High Street, Auckland CBD, Auckland 1010, New Zealand",,,022 545 2288,https://m.facebook.com/stolensummer.co/,coffee stand,"Auckland, New Zealand",google_maps
BESPOKE coffee specialist,"72 Albert Street, CBD, Auckland 1010, New Zealand",,,09 306 4186,,cafe,"Auckland, New Zealand",google_maps
Chur Bae,"Shed 13A/90 Wellesley Street West, Auckland CBD, Auckland 1010, New Zealand",,,09 300 7264,http://churbae.com/,cafe,"Auckland, New Zealand",google_maps
Meeso Coffee,"22 Kitchener Street, Auckland CBD, Auckland 1010, New Zealand",,,,https://meesocoffee.co.nz/,coffee shop,"Auckland, New Zealand",google_maps
Barcelona Coffeeshop,"Carrer d'Aragó, 60, Eixample, 08015 Barcelona, Spain",,,931 00 52 79,http://barcelonacoffeeshop.com/,association or organization,"Barcelona, Spain",google_maps
Nomad Coffee Bar (ex Coffee Lab),"Passatge Sert, 12, Ciutat Vella, 08003 Barcelona, Spain",,,,http://nomadcoffee.es/,coffee shop,"Barcelona, Spain",google_maps
Coffee Casa,"Carrer dels Carders, 25, Ciutat Vella, 08003 Barcelona, Spain",,,655 14 17 06,http://coffeecasa.es/,coffee shop,"Barcelona, Spain",google_maps
ONIS COFFEE,"Carrer de Roger de Llúria, 87, Eixample, 08009 Barcelona, Spain",,,,https://www.instagram.com/oniscoffee/,coffee shop,"Barcelona, Spain",google_maps
Hidden Coffee Roasters - Les Corts,"C/ Constança, Carrer de Déu i Mata, esquina, Les Corts, 08029 Barcelona, Spain",,,,http://hiddencoffeeroasters.com/,coffee shop,"Barcelona, Spain",google_maps
Brew Coffee,"Carrer de Roger de Flor, 102, Eixample, 08013 Barcelona, Spain",,,620 90 26 94,,cafe,"Barcelona, Spain",google_maps
Dalston Coffee Barcelona - Cafè d'especialitat - Coffee Roasters,"Carrer de les Ramelleres, 16, Ciutat Vella, 08001 Barcelona, Spain",,,623 98 27 94,http://www.dalstoncoffee.com/,coffee roastery,"Barcelona, Spain",google_maps
Kafenion Barcelona,"Carrer de Pau Claris, 128, Eixample, 08009 Barcelona, Spain",,,,https://www.kafenion.eu/,cafe,"Barcelona, Spain",google_maps
Departure Coffee Co.,"Carrer de la Verge, 1, Ciutat Vella, 08001 Barcelona, Spain",,,,,coffee shop,"Barcelona, Spain",google_maps
Magnolia café,"Carrer de n'Amargós, 18, Ciutat Vella, 08002 Barcelona, Spain",,,,https://magnoliasbcncafe.my.canva.site/,coffee shop,"Barcelona, Spain",google_maps
Garage Coffee,"Carrer de Joan Gamper, 13, Les Corts, 08014 Barcelona, Spain",,,,https://www.instagram.com/garagecoffeebcn/,coffee shop,"Barcelona, Spain",google_maps
Ripa Coffee - Eixample,"Carrer del Consell de Cent, 291, Eixample, 08007 Barcelona, Spain",,,,,coffee shop,"Barcelona, Spain",google_maps
Right Side Coffee Bar,"Carrer de l'Arc de Sant Ramon del Call, 11, Ciutat Vella, 08002 Barcelona, Spain",,,,http://www.rightsidecoffee.com/,coffee shop,"Barcelona, Spain",google_maps
Hidden Coffee Roasters - El Born,"Carrer dels Canvis Vells, 10, Ciutat Vella, 08003 Barcelona, Spain",,,,http://hiddencoffeeroasters.com/,coffee shop,"Barcelona, Spain",google_maps
BLACKBIRD Coffee Corner,"Carrer de València, 418, Eixample, 08013 Barcelona, Spain",,,,https://bit.ly/3TujEEc,coffee shop,"Barcelona, Spain",google_maps
Morrow Coffee,"Av. Gran Vía de les Corts Catalanes 403 Barcelona, Spain, Eixample, 08015 Barcelona, Spain",,,,http://morrowcoffee.com/,coffee shop,"Barcelona, Spain",google_maps
LITTLE FERN,"Carrer de Pere IV, 168, Sant Martí, 08005 Barcelona, Spain",,,938 08 93 17,http://www.littleferncafe.com/,coffee shop,"Barcelona, Spain",google_maps
THE BARN Café Mitte,"Auguststraße 58, 10119 Berlin, Germany",,,030 44046292,https://thebarn.de/,coffee roastery,"Berlin, Germany",google_maps
Refinery High End Coffee,"Albrechtstraße 11B, 10117 Berlin, Germany",,,030 30874491,http://refinerycoffee.de/,coffee shop,"Berlin, Germany",google_maps
Kaffee Momente Berlin - Café Berlin,"Bötzowstraße 21, 10407 Berlin, Germany",,kaffeemomente@gmail.com,01573 2192174,https://kaffee-momente.eatbu.com/?lang=de,coffee shop,"Berlin, Germany",google_maps
Bonanza Coffee Roasters,"Adalbertstraße 70, 10999 Berlin, Germany",,,,http://www.bonanzacoffee.de/,coffee roastery,"Berlin, Germany",google_maps
Father Carpenter,"Münzstraße 21, 10178 Berlin, Germany",,,,http://www.fathercarpenter.com/,coffee roastery,"Berlin, Germany",google_maps
Mandarin Coffee Roastery,"Sophienstraße 10, 10178 Berlin, Germany",,,,,coffee shop,"Berlin, Germany",google_maps
Five Elephant Mitte,"Alte Schönhauser Str. 14, 10119 Berlin, Germany",,,,http://www.fiveelephant.com/,coffee roastery,"Berlin, Germany",google_maps
nur coffee Berlin,"Friedrichstraße 183, 10117 Berlin, Germany",,berlin@nurcoffee.de,01522 5364827,https://nurcoffee.de/,coffee shop,"Berlin, Germany",google_maps
Magic Bitte,"Kufsteiner Str. 1, 10825 Berlin, Germany",,,,https://www.instagram.com/magicbitteberlin,coffee roastery,"Berlin, Germany",google_maps
Distrikt coffee,"Bergstraße 68, 10115 Berlin, Germany",,info@distriktcoffee.de,,http://distriktcoffee.de/,coffee shop,"Berlin, Germany",google_maps
Oslo Kaffebar,"Eichendorffstraße 13, 10115 Berlin, Germany",,oslokaffebar@gmail.com,,http://www.oslokaffebar.co/,coffee shop,"Berlin, Germany",google_maps
WhyNot Kaffee,"Pohlstraße 74, 10785 Berlin, Germany",,,,https://whynotkaffee.shop/,coffee shop,"Berlin, Germany",google_maps
BEAN HOUSE,"Nürnberger Str. 17, 10789 Berlin, Germany",,,0176 25113113,http://www.beanhouse.de/,coffee roastery,"Berlin, Germany",google_maps
Silo Coffee,"Gabriel-Max-Straße 4, 10245 Berlin, Germany",,hello@silo-coffee.com,030 62608833,https://www.silo-coffee.com/,coffee shop,"Berlin, Germany",google_maps
BEN RAHIM Berlin,"Sophienstraße 7A, 10178 Berlin, Germany",,,030 56002844,http://www.benrahim.de/,coffee shop,"Berlin, Germany",google_maps
Garçon de Café - Specialty coffee shop - Kaffee,"Invalidenstraße 65, 10557 Berlin, Germany",,,,https://www.garcondecafe.de/garcon-de-cafe-coffee-shop-in-der-naehe-vom-hauptbahnhof-berlin/,coffee shop,"Berlin, Germany",google_maps
Bonanza Coffee Heroes,"Oderberger Str. 35, 10435 Berlin, Germany",,,,http://www.bonanzacoffee.de/,coffee shop,"Berlin, Germany",google_maps
Cappuccino Grand Café - Mitte,"Tucholskystraße 36, 10117 Berlin, Germany",,,030 28444619,http://www.cappuccinograndcafe.de/,coffee roastery,"Berlin, Germany",google_maps
Leo's,"Greifswalder Str. 2, 10405 Berlin, Germany",,,030 50593889,,coffee shop,"Berlin, Germany",google_maps
Fauve Coffee Berlin,"Neue Schönhauser Str. 8, 10178 Berlin, Germany",,,,,coffee roastery,"Berlin, Germany",google_maps
Azahar Coffee Parque 93,"Cl 93b #13-91, Bogotá, Colombia",,,(601) 7442416,http://azaharcoffee.com/,coffee shop,"Bogotá, Colombia",google_maps
Érase una vez café de especialidad,"Cra. 38a #25-76 Piso 1, Bogotá, Colombia",,,322 8965669,https://www.eraseunavezcafedeespecialidad.com/,coffee shop,"Bogotá, Colombia",google_maps
Bogota Coffee Roasters,"Cl. 43 #19 - 30, Bogotá, Colombia",,,319 5827627,,cafe,"Bogotá, Colombia",google_maps
DV Café Especial.,"Centro histórico, Cl. 12b #4-06, La Candelaria, Bogotá, Colombia",,experiencias@divinocafeespecial.com,317 3810597,https://www.divinocafeespecial.com/,food store,"Bogotá, Colombia",google_maps
Bogota Coffee Roasters / Casa & Jardín,"Cl. 45a Bis #19-13, Teusaquillo, Bogotá, Cundinamarca, Colombia",,,319 5827627,,coffee shop,"Bogotá, Colombia",google_maps
Colo Coffee,"Kr 13 #83 - 19, Bogotá, Colombia",,,323 2315269,http://www.colo.coffee/,coffee roastery,"Bogotá, Colombia",google_maps
Casa Café Cultor,"Cl. 70a #9 - 44 Casa, Bogotá, Colombia",,tienda.casa@cafecultor.co,315 5431596,https://www.cafecultor.co/,cafe,"Bogotá, Colombia",google_maps
Arte y pasión Café: Escuela de baristas,"Cl. 10 #8 - 87, Bogotá, Colombia",,arteypasioncafe@gmail.com,317 5097835,https://arteypasioncafe.com/,cafe,"Bogotá, Colombia",google_maps
Tropicalia Coffee,"Cl. 81a #8-23, Bogotá, Colombia",,,322 6802553,https://www.tropicaliacoffee.com/,coffee shop,"Bogotá, Colombia",google_maps
Mundano Coffee Shop,"Dg. 40 #7-40, Bogotá, Colombia",,,300 5629440,https://www.facebook.com/cafemundano/,coffee shop,"Bogotá, Colombia",google_maps
Café Amor Perfecto Chapinero Alto,"Cra. 4 #66-46, Chapinero, Bogotá, Cundinamarca, Colombia",,,318 6294872,http://cafeamorperfecto.com/,coffee shop,"Bogotá, Colombia",google_maps
Café Casa Galería,"Cl. Del Embudo #12B - 92, Bogotá, Colombia",,,321 2683638,https://casagaleria.co/,coffee shop,"Bogotá, Colombia",google_maps
Café San Alberto Museo del Oro,"a 15-98, Cra. 6 #15-2, Bogotá, Colombia",,,316 5248264,http://www.cafesanalberto.com/,cafe,"Bogotá, Colombia",google_maps
Juan Valdez - Zona G,"Cl. 70 #6 – 09, Chapinero, Bogotá, Cundinamarca, Colombia",,cuentaconjuan@juanvaldezcafe.com,,https://juanvaldez.com/,coffee shop,"Bogotá, Colombia",google_maps
Café Cécile,"Cra. 4 #9 - 66, La Candelaria, Bogotá, Colombia",,,322 5382319,,coffee shop,"Bogotá, Colombia",google_maps
Orígenes Café,"Cl. 11 #2 - 98, La Candelaria, Bogotá, Colombia",,,310 4482318,,coffee shop,"Bogotá, Colombia",google_maps
Varietale Javeriana,"Cl. 41 #8-43, Bogotá, Colombia",,,324 2550397,http://www.varietale.com/,cafe,"Bogotá, Colombia",google_maps
Libertario Coffee Roasters - Calle 70a,"Cl. 70a # 5 - 37, Bogotá, Colombia",,,322 5112476,https://www.libertariocoffee.com/,cafe,"Bogotá, Colombia",google_maps
Café San Alberto Usaquén,"Cl. 117 # 6A-47 6a, Usaquén, Bogotá, Cundinamarca, Colombia",,,317 5026246,http://www.cafesanalberto.com/,cafe,"Bogotá, Colombia",google_maps
Café del Mercado,"Cra. 2 #11-88, La Candelaria, Bogotá, Cundinamarca, Colombia",,,,,coffee shop,"Bogotá, Colombia",google_maps
Café Tortoni,"Av. de Mayo 825, C1084 Cdad. Autónoma de Buenos Aires, Argentina",,tortoni@cafetortoni.com.ar,011 4342-4328,http://www.cafetortoni.com.ar/,coffee shop,"Buenos Aires, Argentina",google_maps
Confitería La Ideal,"Suipacha 384, C1008AAF Cdad. Autónoma de Buenos Aires, Argentina",,,011 15-6801-1519,https://laideal.ar/,coffee shop,"Buenos Aires, Argentina",google_maps
CCS Coffee Shop,"Bernardo de Irigoyen 356, C1072AAH Cdad. Autónoma de Buenos Aires, Argentina",,,011 15-2404-6013,,cafe,"Buenos Aires, Argentina",google_maps
El Gato Negro,"Av. Corrientes 1669, C1042AAC Cdad. Autónoma de Buenos Aires, Argentina",,,011 4374-1730,http://www.donvictoriano.com.ar/,coffee shop,"Buenos Aires, Argentina",google_maps
Import Coffee Co.,"Av. Corrientes 802, C1043 San Nicolas, Cdad. Autónoma de Buenos Aires, Argentina",,,,,coffee shop,"Buenos Aires, Argentina",google_maps
Vive Café,"C1414BTH, Costa Rica 5722, C1414BTH Cdad. Autónoma de Buenos Aires, Argentina",,,011 4774-5461,http://vivecafe.com.ar/,coffee shop,"Buenos Aires, Argentina",google_maps
TERRASOHO - Specialty Coffee,"Gorriti 4563, C1414 Cdad. Autónoma de Buenos Aires, Argentina",,,,https://www.instagram.com/terrasoho?igsh=MTV6aXl1cmFobXR1Ng==,coffee shop,"Buenos Aires, Argentina",google_maps
Toki Moment - Specialty Coffee,"Marcelo Torcuato de Alvear 664, C1058 Cdad. Autónoma de Buenos Aires, Argentina",,,,,coffee shop,"Buenos Aires, Argentina",google_maps
Full City Coffee Roasters,"Thames 1535, C1414 Cdad. Autónoma de Buenos Aires, Argentina",,oraclegym@gmail.com,,http://www.fullcity.com.ar/,coffee shop,"Buenos Aires, Argentina",google_maps
Tona Café,"Laprida 1218, C1425 Cdad. Autónoma de Buenos Aires, Argentina",,,,https://www.instagram.com/tona.cafe/,coffee shop,"Buenos Aires, Argentina",google_maps
LAB. Training Center & Coffee Shop,"C1414CTN, Humboldt 1542, C1414CTN Cdad. Autónoma de Buenos Aires, Argentina",,,011 6465-7008,https://shop.labcafe.com.ar/,coffee shop,"Buenos Aires, Argentina",google_maps
Lattente,"Thames 1891, C1414 Cdad. Autónoma de Buenos Aires, Argentina",,,,http://www.cafelattente.com/,coffee shop,"Buenos Aires, Argentina",google_maps
NEGRO Cueva de café,"Suipacha 637, C1006 Cdad. Autónoma de Buenos Aires, Argentina",,,,http://www.negrocuevadecafe.com/,coffee shop,"Buenos Aires, Argentina",google_maps
Seattle Cafe,"Charcas 4625, C1425BNQ Cdad. Autónoma de Buenos Aires, Argentina",,,011 6406-6534,https://instagram.com/seattle.ba,coffee shop,"Buenos Aires, Argentina",google_maps
Hobby - Café de Especialidad,"Guevara 91, C1427 Cdad. Autónoma de Buenos Aires, Argentina",,,,,coffee shop,"Buenos Aires, Argentina",google_maps
Ciao Cacao Specialty coffee,"Arévalo 1506, C1414CQF Cdad. Autónoma de Buenos Aires, Argentina",,,,https://menusa.app/11f06800dd7aae69a90916e19cb63237,coffee shop,"Buenos Aires, Argentina",google_maps
Tónico Café,"Riobamba 1173, C1116 Cdad. Autónoma de Buenos Aires, Argentina",,,,,coffee shop,"Buenos Aires, Argentina",google_maps
La Biela,"Av. Pres. Manuel Quintana 596, C1129 Cdad. Autónoma de Buenos Aires, Argentina",,,011 4804-0449,https://la-biela.shop/,cafe,"Buenos Aires, Argentina",google_maps
Cuervo Café,"El Salvador 4580, C1414 Cdad. Autónoma de Buenos Aires, Argentina",,,,http://www.cuervocafe.com/,cafe,"Buenos Aires, Argentina",google_maps
DOC Café,"Aráoz 645, C1414 Cdad. Autónoma de Buenos Aires, Argentina",,,011 6196-5270,http://doccafe.com.ar/,cafe,"Buenos Aires, Argentina",google_maps
Truth Coffee Roasting,"36 Buitenkant St, Cape Town City Centre, Cape Town, 8000, South Africa",,,021 201 7000,https://www.truth.capetown/,coffee roastery,"Cape Town, South Africa",google_maps
Rosetta Roastery Cafe (Bree Street),"101 Bree St, CBD, Cape Town, 8001, South Africa",,,021 447 4099,http://www.rosettaroastery.com/,coffee shop,"Cape Town, South Africa",google_maps
Origin Coffee Roasting,"28 Hudson St, De Waterkant, Cape Town, 8001, South Africa",,info@originroasting.co.za,021 421 1000,http://originroasting.co.za/,coffee roastery,"Cape Town, South Africa",google_maps
Hey Stranger Coffee Collective,"172 Long St, Cape Town City Centre, Cape Town, 8000, South Africa",,,,,coffee shop,"Cape Town, South Africa",google_maps
THE 777 COFFEE SHOP,"City center, 66 Keerom St, Cape Town City Centre, Cape Town, 8000, South Africa",,,065 593 6130,,coffee shop,"Cape Town, South Africa",google_maps
Heaven Coffee Shop,"38 Burg St, Cape Town City Centre, Cape Town, 8000, South Africa",,,072 884 2057,,coffee shop,"Cape Town, South Africa",google_maps
The Ladder,"136 Bree St, Cape Town City Centre, Cape Town, 8001, South Africa",,theladderon136@gmail.com,082 451 1572,http://www.theladderon136.com/,cafe,"Cape Town, South Africa",google_maps
Ground Art Caffe,"160 Strand St, De Waterkant, Cape Town, 8001, South Africa",,info@groundartcaffe.co.za,021 418 1331,http://www.groundartcaffe.co.za/,coffee shop,"Cape Town, South Africa",google_maps
Halō Coffee,"In the foyer of, 117 Strand St, Cape Town City Centre, Cape Town, 8001, South Africa",,,083 297 3971,,coffee shop,"Cape Town, South Africa",google_maps
Molten Toffee.,"45b Kloof St, Gardens, Cape Town, 8001, South Africa",,,083 703 1162,,coffee shop,"Cape Town, South Africa",google_maps
Boston Coffee Roasters,"Cleveland St, Boston, Cape Town, 7530, South Africa",,info@bostoncoffee.co.za,066 374 2420,http://www.bostoncoffee.co.za/,coffee shop,"Cape Town, South Africa",google_maps
Pang Specialty Coffee,"93 Wale St, Cape Town, 8001, South Africa",,,084 202 5663,http://pangspecialty.com/,coffee shop,"Cape Town, South Africa",google_maps
Kamili Coffee on Long,"29 Shortmarket St &, Long St, Cape Town City Centre, Cape Town, 8000, South Africa",,info@kamilicoffee.co.za,083 226 4426,https://kamilicoffee.co.za/?utm_source=GMB&utm_medium=Long-Street-Listing,coffee shop,"Cape Town, South Africa",google_maps
Grind 4 Truth Coffee Shop,"Prestwich Memorial, 1 Somerset Rd, Green Point, Cape Town, 8005, South Africa",,,021 433 4083,,coffee shop,"Cape Town, South Africa",google_maps
The KAYA Cafe,"35 Loop St, Cape Town City Centre, Cape Town, 8001, South Africa",,hello.kayacafe@gmail.com,,https://thekayacafe.co.za/,coffee shop,"Cape Town, South Africa",google_maps
Naked coffee,"2 Wisbeach Rd, Sea Point, Cape Town, 8060, South Africa",,,021 433 1648,,coffee shop,"Cape Town, South Africa",google_maps
Sonder Café,"79 Lower Main Rd, Observatory, Cape Town, 7925, South Africa",,sonderobz@gmail.com,083 394 6672,http://sonderobz.com/,coffee shop,"Cape Town, South Africa",google_maps
Deluxe Coffeeworks,"171A Buitenkant St, Gardens, Cape Town, 8001, South Africa",,,076 767 3519,http://www.deluxecoffeeworks.co.za/,coffee shop,"Cape Town, South Africa",google_maps
The Blue Cafe,"13 Brownlow Rd, Tamboerskloof, Cape Town, 8001, South Africa",,laughing@thebluecafe.co.za,021 426 0250,http://www.thebluecafe.co.za/,coffee shop,"Cape Town, South Africa",google_maps
Pauline's,"277 Main Rd, Sea Point, Cape Town, 8005, South Africa",,,021 205 4466,http://paulinescoffee.com/,coffee shop,"Cape Town, South Africa",google_maps
Starbucks Reserve Roastery,"646 Michigan Ave, Chicago, IL 60611, USA",,,(312) 283-7100,https://www.starbucksreserve.com/locations/chicago-roastery,coffee shop,"Chicago, USA",google_maps
Sawada Coffee,"112 N Green St, Chicago, IL 60607, USA",,,(312) 344-1750,https://sawadacoffee.com/,coffee shop,"Chicago, USA",google_maps
Vietfive Coffee - Chicago,"1116 W Madison St, Chicago, IL 60607, USA",,,(312) 929-4732,https://www.vietfive.com/,coffee shop,"Chicago, USA",google_maps
Ground Up Coffee & Bites,"900 W Van Buren St, Chicago, IL 60607, USA",,,(312) 374-1348,https://groundupchicago.com/,coffee shop,"Chicago, USA",google_maps
Kapéj Coffee Roasters,"1447 N Sedgwick St, Chicago, IL 60610, USA",,,(312) 291-9022,http://www.kapejcoffee.com/,coffee shop,"Chicago, USA",google_maps
Dark Matter Coffee - The Mothership,"738 N Western Ave, Chicago, IL 60612, USA",,,(773) 697-8472,http://www.darkmattercoffee.com/,coffee shop,"Chicago, USA",google_maps
Coffee Joint,"2059 W Irving Park Rd, Chicago, IL 60618, USA",,,(773) 629-1725,http://www.coffeejoint.com/,coffee shop,"Chicago, USA",google_maps
Nomad-Chicago,"820 N Franklin St, Chicago, IL 60610, USA",,,(312) 847-7222,http://www.nomad-chicago.com/,coffee shop,"Chicago, USA",google_maps
Ludlow Charlingtons Coffee Shop,"2425 N Clark St, Chicago, IL 60614, USA",,,(773) 697-7984,http://www.ludlowcharlingtons.com/,coffee shop,"Chicago, USA",google_maps
Blue Bottle Coffee,"313 W Wolf Point Plaza, Chicago, IL 60654, USA",,,(510) 661-3510,https://bluebottlecoffee.com/us/eng/chicago-cafes?utm_source=google&utm_medium=organic&utm_campaign=cafe_business_listing_chicago,coffee shop,"Chicago, USA",google_maps
Sputnik Coffee Company,"2618 W 48th St, Chicago, IL 60632, USA",,,(847) 668-5575,https://www.sputnikcoffeecompany.com/,coffee shop,"Chicago, USA",google_maps
Caffe Umbria,"346 N Clark St UNIT 4709, Chicago, IL 60654, USA",,,(312) 955-0288,http://www.caffeumbria.com/,coffee shop,"Chicago, USA",google_maps
ESPRESSO AND MILK,"20 N Wacker Dr Suite 105, Chicago, IL 60606, USA",,,,https://www.espressoandmilk.com/,coffee shop,"Chicago, USA",google_maps
"Goddess and the Baker, 33 S Wabash-Millennium Park","33 S Wabash Ave, Chicago, IL 60603, USA",,,(312) 877-5176,https://www.goddessandthebaker.com/,coffee shop,"Chicago, USA",google_maps
Gaslight Coffee Roasters,"2385 N Milwaukee Ave, Chicago, IL 60647, USA",,,,http://www.gaslightcoffee.com/,coffee shop,"Chicago, USA",google_maps
Intelligentsia Coffee Monadnock Coffeebar,"Monadnock Building, 53 W Jackson Blvd, Chicago, IL 60604, USA",,,(312) 253-0594,https://www.intelligentsia.com/pages/monadnock-coffeebar,coffee shop,"Chicago, USA",google_maps
Side Practice Coffee,"5139 N Damen Ave, Chicago, IL 60625, USA",,,(773) 754-8763,https://sidepracticecoffee.square.site/s/order,coffee shop,"Chicago, USA",google_maps
Roasters Specialty Coffee House Creek Harbour,Al Kheeran First - Dubai Creek Harbour - Dubai - United Arab Emirates,Elena Savina Marketing,beans@roasterscoffee.ae,058 585 7686,http://www.roasterscoffee.ae/,coffee shop,"Dubai, UAE",google_maps
Orto cafe,395 Al Athar Street - Jumeirah - Jumeira Second - Dubai - United Arab Emirates,,,04 345 5060,https://instagram.com/ortodubai?igshid=MzRlODBiNWFlZA==,cafe,"Dubai, UAE",google_maps
The Espresso Lab - D3,Unit 8، Building 7 - Ground Floor - Zaa'beel Second - Dubai Design District - Dubai - United Arab Emirates,,,050 101 1347,https://theespressolab.com/,coffee shop,"Dubai, UAE",google_maps
BRIX Café,Jumeirah Fishing Harbour - Shop 1 - Al Urouba St - Jumeirah - Jumeira First - Dubai - United Arab Emirates,,,054 515 7861,https://brixdessert.com/cafe,coffee shop,"Dubai, UAE",google_maps
The Grey Al Wasl - Coffee Lounge & Bar,9A St - Al Wasl - Al Safa - Dubai - United Arab Emirates,,,04 236 2996,http://www.the-grey.co/,coffee shop,"Dubai, UAE",google_maps
The Roots Cafe,Creek - Al Seef Marsa - شارع السيف - الحمرية - دبي - United Arab Emirates,,,04 333 8631,https://www.instagram.com/theroots.coffee/?hl=en,coffee shop,"Dubai, UAE",google_maps
Peet's Coffee - City Walk,"City, Dubai, City Walk 2 - Ground Floor - 33 Al Safa St - Al Wasl - Jumeirah - Dubai - United Arab Emirates",,,056 704 8431,https://www.peets.com/,coffee shop,"Dubai, UAE",google_maps
Flat12 Cafe,Rashid - Dubai - Shed 3 Marina Cubes Street - مدينة دبي الملاحية - ميناء راشد - دبي - United Arab Emirates,,,04 228 7123,https://www.instagram.com/flat12cafe?igsh=MW1lbm43dnh6cTZncg==,coffee shop,"Dubai, UAE",google_maps
The Coffee,"BD-OTCI-L3-008 Level 3, Souk Al Bahar - Burj Khalifa - Dubai Mall - Dubai - United Arab Emirates",,,04 553 6385,https://thecoffee.jp/,cafe,"Dubai, UAE",google_maps
Black Sheep Coffee,"Cinema Parking - Black Sheep Coffee, Dubai Mall - Second Floor - Burj Khalifa - Downtown Dubai - Dubai - United Arab Emirates",,,04 558 0447,,coffee shop,"Dubai, UAE",google_maps
The Patisserie at Address Sky View,sk - Burj Khalifa - Dubai - United Arab Emirates,,dineatskyview@addresshotels.com,04 873 8888,https://www.addresshotels.com/en/restaurant/patisserie-at-address-sky-view/,coffee shop,"Dubai, UAE",google_maps
Caju Coffee House,"Caju Cafe, Al Manzil - GF-801 - Burj Khalifa - Yansoon - Dubai - United Arab Emirates",,info@caju.ae,04 575 2710,https://caju.ae/,cafe,"Dubai, UAE",google_maps
Brew Lab Specialty Coffee,"17 Redmond's Hill, Dublin, D02 E034, Ireland",,,,https://www.instagram.com/brewlabdublin/?hl=en,coffee shop,"Dublin, Ireland",google_maps
The Stage Door Cafe,"Apartment 3, Apartment 3, 11 Essex St E, Temple Bar, Dublin 2, Ireland",,,,,cafe,"Dublin, Ireland",google_maps
Two Pups,"74 Francis St, The Liberties, Dublin 8, D08 KA43, Ireland",,twopupscoffee@gmail.com,,http://www.twopupscoffee.com/,coffee shop,"Dublin, Ireland",google_maps
Lemon Jelly Cafe,"Millennium Walkway, North City, Dublin 1, D01 Y027, Ireland",,,(01) 233 8441,https://www.lemonjelly.ie/,coffee shop,"Dublin, Ireland",google_maps
Shoe Lane Coffee,"7 Tara St, Dublin 2, D02 Y662, Ireland",,jobs@shoelane.com,,http://www.shoelanecoffee.ie/,coffee shop,"Dublin, Ireland",google_maps
Legit Coffee Co,"Meath Mart, 1 Meath St, The Liberties, Dublin, D08 XHT7, Ireland",,info@legitcoffeeco.com,,http://legitcoffeeco.com/,coffee shop,"Dublin, Ireland",google_maps
Vice Coffee Inc,"54 Middle Abbey St, North City, Dublin 1, D01 E2X4, Ireland",,,,https://www.vicecoffeeinc.com/,coffee shop,"Dublin, Ireland",google_maps
Copper + Straw Speciality Coffee,"14 - 18 Aston Quay, Temple Bar, Dublin 2, D02 FV38, Ireland",,hello@copperandstraw.ie,087 810 2634,http://copperandstraw.ie/,coffee shop,"Dublin, Ireland",google_maps
Beanhive Coffee Dawson Street,"26 Dawson St, Dublin 2, D02 FY28, Ireland",,,(01) 677 4685,http://beanhive.ie/,coffee shop,"Dublin, Ireland",google_maps
Boom Coffee Roasters Francis Street,"29 Francis St, The Liberties, Dublin, D08 KF97, Ireland",,,,,coffee shop,"Dublin, Ireland",google_maps
Groundstate Coffee,"48- 50 James's St, Saint James, Dublin 8, D08 YK6N, Ireland",,,,https://www.groundstated8.com/,coffee roastery,"Dublin, Ireland",google_maps
Proper Order Coffee Co,"Unit 1, The Distillery Building, Smithfield, Dublin 7, D07 WDX9, Ireland",,,,http://www.properordercoffeeco.com/,coffee shop,"Dublin, Ireland",google_maps
The Coffee Bean,"64 Mary St, North City, Dublin 1, D01 KW22, Ireland",,,(01) 561 3011,http://www.thecoffeebean.ie/,cafe,"Dublin, Ireland",google_maps
Clement & Pekoe,"50 William St S, Dublin 2, D02 DE93, Ireland",,,,https://clementandpekoe.com/,coffee shop,"Dublin, Ireland",google_maps
Kaph,"31 Drury St, Dublin 2, D02 Y684, Ireland",,,(01) 613 9030,http://www.kaph.ie/,cafe,"Dublin, Ireland",google_maps
Central Brew Coffee,"Talbot St, North City, Dublin 1, D01 RD25, Ireland",,,(01) 534 0799,https://centralbrewcoffee.com/,coffee shop,"Dublin, Ireland",google_maps
Creed Coffee Roasters,"80 Pearse St, Dublin 2, D02 WV83, Ireland",,,,https://creedcoffeeroasters.ie/,coffee shop,"Dublin, Ireland",google_maps
Coffeeangel,"16 Anne St S, Dublin, D02 VF29, Ireland",,,,https://coffeeangel.com/,coffee shop,"Dublin, Ireland",google_maps
Nick's Coffee,"20 Ranelagh Rd, Ranelagh, Dublin, 6, Ireland",,,086 383 8203,https://www.nickscoffeecompany.ie/,coffee shop,"Dublin, Ireland",google_maps
Keoghs Cafe,"1 & 2 Trinity St, Dublin, D02 A440, Ireland",,orders@keoghscafe.ie,(01) 677 8080,http://keoghscafe.ie/,coffee shop,"Dublin, Ireland",google_maps
Slow Drip TX,"Sky house North 77002, 1625 Main St Ste A-1, Houston, TX 77002, USA",,,(713) 230-8359,https://www.slowdriptx.com/,coffee shop,"Houston, USA",google_maps
Day 6 Coffee Co.,"910 Prairie St Suite 100, Houston, TX 77002, USA",,,(832) 696-7822,http://www.daysixcoffee.com/,coffee shop,"Houston, USA",google_maps
The Coffee House at West End,"802 Shepherd Dr, Houston, TX 77007, USA",,hello@thecoffeehousehtx.com,,http://thecoffeehousehtx.com/,coffee shop,"Houston, USA",google_maps
Fifth Vessel Coffee Co.,"104 N Main St, Houston, TX 77002, USA",,,,http://fifth.coffee/,coffee shop,"Houston, USA",google_maps
Catalina Coffee,"2201 Washington Ave, Houston, TX 77007, USA",,,(713) 861-8448,https://catalinacoffeeshop.com/,coffee shop,"Houston, USA",google_maps
Golden Roastery,"3111 Fondren Rd, Houston, TX 77063, USA",,,(832) 633-3337,https://goldenroastery.store/,coffee shop,"Houston, USA",google_maps
The Coffee Garden,"1920 Houston Ave, Houston, TX 77007, USA",,info@thecoffeegarden.com,(713) 955-4420,https://thecoffeegarden.com/heights-coffee-shop/,coffee shop,"Houston, USA",google_maps
Pavon Coffee Den,"1216 W Clay St Ste 300, Houston, TX 77019, USA",,hello@pavonhtx.com,(713) 261-6679,https://www.pavonhtx.com/,coffee shop,"Houston, USA",google_maps
Un Caffe,"3217 Milam St, Houston, TX 77006, USA",,,(832) 519-8018,http://un-caffe.com/,coffee shop,"Houston, USA",google_maps
Common Grounds Uncommon Coffee,"1401 McKinney St 375 3rd floor, Houston, TX 77010, USA",,,(281) 571-7093,http://bwcroasters.com/,coffee shop,"Houston, USA",google_maps
Café Forth,"731 Yale St, Houston, TX 77007, USA",,,(713) 814-8198,http://cafeforth.com/,coffee shop,"Houston, USA",google_maps
The Coffee Garden,"5353 W Alabama St Suite 100, Houston, TX 77056, USA",,,(713) 343-3324,https://thecoffeegarden.com/galleria-coffee-shop/,coffee shop,"Houston, USA",google_maps
Segundo Coffee Lab,"711 Milby St #35, Houston, TX 77023, USA",,,(346) 240-3032,http://segundocoffee.com/,coffee shop,"Houston, USA",google_maps
Agora,"1712 Westheimer Rd, Houston, TX 77098, USA",,info@agorahouston.com,,https://www.agorahouston.com/,coffee shop,"Houston, USA",google_maps
Kopi Cowboy Coffee,"1000 Main St (Tunnel Level, Houston, TX 77002, USA",,,(832) 576-5240,http://www.kopicowboy.com/,coffee shop,"Houston, USA",google_maps
Roast & Brew,"931 W 19th St, Houston, TX 77008, USA",,,(346) 802-4844,https://www.roastandbrewcafetx.com/,coffee shop,"Houston, USA",google_maps
Siphon Coffee,"701 W Alabama St, Houston, TX 77006, USA",,,(281) 974-4426,,coffee shop,"Houston, USA",google_maps
Blacksmith,"1018 Westheimer Rd, Houston, TX 77006, USA",,,,https://www.blacksmith.website/,coffee shop,"Houston, USA",google_maps
Simply Coffie,"733 W 24th St, Houston, TX 77008, USA",,,(713) 485-5733,https://www.instagram.com/simplycoffie/,coffee shop,"Houston, USA",google_maps
CoffeeTrend,"4042 S Braeswood Blvd, Houston, TX 77025, USA",,,(713) 367-0338,http://coffeetrendhtx.com/,coffee shop,"Houston, USA",google_maps
Stellar Coffee,"80, Jalan Sultan, City Centre, 50000 Kuala Lumpur, Wilayah Persekutuan Kuala Lumpur, Malaysia",,,,https://stellarkl.com/,coffee shop,"Kuala Lumpur, Malaysia",google_maps
LOKL Coffee Co,"30, Jalan Tun H S Lee, City Centre, 50100 Kuala Lumpur, Wilayah Persekutuan Kuala Lumpur, Malaysia",,,018-968 5515,https://www.instagram.com/loklcoffee/?hl=en,cafe,"Kuala Lumpur, Malaysia",google_maps
VCR,"2, Jalan Galloway, Bukit Bintang, 50150 Kuala Lumpur, Wilayah Persekutuan Kuala Lumpur, Malaysia",,,03-2110 2330,http://linktree.com/hellovcr,coffee shop,"Kuala Lumpur, Malaysia",google_maps
Bröom At Bukit Bintang,"4, Jln Sin Chew Kee, Bukit Bintang, 50150 Kuala Lumpur, Wilayah Persekutuan Kuala Lumpur, Malaysia",,,012-277 5212,http://www.instagram.com/broomartisanbakery,cafe,"Kuala Lumpur, Malaysia",google_maps
Feeka Coffee Roasters,"19, Jln Mesui, Bukit Bintang, 50200 Kuala Lumpur, Wilayah Persekutuan Kuala Lumpur, Malaysia",,,03-2110 4599,https://feekacoffeeroasters.orderu.com/,coffee roastery,"Kuala Lumpur, Malaysia",google_maps
Bean Brothers at The Linc KL,"G-1, THE LINC No, 360, Jln Tun Razak, Taman U Thant, 50400 Kuala Lumpur, Federal Territory of Kuala Lumpur, Malaysia",Our Bestsellers,support@beanbrothers.my,,http://beanbrothers.my/,coffee shop,"Kuala Lumpur, Malaysia",google_maps
Common Space,"40 Jalan 1/77A Off Jalan Imbi, Changkat Thambi Dollah, Imbi, 55100 Kuala Lumpur, Wilayah Persekutuan Kuala Lumpur, Malaysia",,,013-632 4678,,cafe,"Kuala Lumpur, Malaysia",google_maps
103 Coffee - Chow Kit,"9, Jalan Yap Ah Shak, Chow Kit, 50300 Kuala Lumpur, Wilayah Persekutuan Kuala Lumpur, Malaysia",,media@103coffee.com,012-960 1353,http://www.103coffee.com/,coffee shop,"Kuala Lumpur, Malaysia",google_maps
Common Man Coffee Roasters - Kuala Lumpur,"A-G-1 New Podium, 1, Jalan Tun Mohd Fuad, Taman Tun Dr Ismail, 60000 Kuala Lumpur, Federal Territory of Kuala Lumpur, Malaysia",,,03-7731 7095,https://commonmancoffeeroasters.com/?utm_source=google&utm_medium=organic&utm_campaign=gmb_kuala_lumpur,coffee roastery,"Kuala Lumpur, Malaysia",google_maps
leaf & co. cafe,"53, Jalan Sultan, City Centre, 50000 Kuala Lumpur, Wilayah Persekutuan Kuala Lumpur, Malaysia",,,03-2020 2220,https://www.facebook.com/leafandcocafe/,cafe,"Kuala Lumpur, Malaysia",google_maps
Middle Lane Coffee,"A-0-3, St Mary Place, 1, Jalan Tengah, Kuala Lumpur, 50450 Kuala Lumpur, Wilayah Persekutuan Kuala Lumpur, Malaysia",,,017-247 7870,http://instagram.com/middlelane.coffee,coffee shop,"Kuala Lumpur, Malaysia",google_maps
Jeju Coffee,"9, Jln Mesui, Bukit Bintang, 50200 Kuala Lumpur, Wilayah Persekutuan Kuala Lumpur, Malaysia",,,010-201 8278,https://www.instagram.com/jejucoffee.my?igsh=a3QxeHdxNHYxNDlr,coffee shop,"Kuala Lumpur, Malaysia",google_maps
Kaffe 16,"Jalan Panggong, City Centre, 50000 Wilayah Persekutuan, Wilayah Persekutuan Kuala Lumpur, Malaysia",,,03-2022 2552,https://www.instagram.com/kaffe.16/?hl=en,cafe,"Kuala Lumpur, Malaysia",google_maps
Bean Brothers Bukit Bintang,"G36, The Starhill, 181, Jln Bukit Bintang, Bukit Bintang, 55100 Kuala Lumpur, Wilayah Persekutuan Kuala Lumpur, Malaysia",,,,http://beanbrothers.my/,coffee shop,"Kuala Lumpur, Malaysia",google_maps
Miss Coco Cafe,"G1, Menara Noble Land 2, Jalan Changkat, Lorong Ceylon, Bukit Ceylon, 50200 Kuala Lumpur, Wilayah Persekutuan Kuala Lumpur, Malaysia",,admin@misscococafe.com,018-208 3983,https://misscococafe.com/,coffee roastery,"Kuala Lumpur, Malaysia",google_maps
Pucks Coffee,"Back Portion, 180, Jalan Tun H S Lee, City Centre, 50000 Kuala Lumpur, Wilayah Persekutuan Kuala Lumpur, Malaysia",,,012-253 0132,,coffee shop,"Kuala Lumpur, Malaysia",google_maps
Miss J Cafe KL,"G2, STAR RESIDENCES TWO, 1, Jalan Yap Kwan Seng, 50450 Kuala Lumpur, Wilayah Persekutuan Kuala Lumpur, Malaysia",,,010-332 9955,https://www.facebook.com/missjcafekl,cafe,"Kuala Lumpur, Malaysia",google_maps
AHMA KOPI KL,"Menara RKT, 36, Jalan Raja Abdullah, Off, Jln Sultan Ismail, Chow Kit, 50300 Kuala Lumpur, Federal Territory of Kuala Lumpur, Malaysia",,,011-5408 9776,https://www.facebook.com/AHMAKOPI.MY/,coffee shop,"Kuala Lumpur, Malaysia",google_maps
PULP Cafe Bangsar,"29-01, Jalan Riong, Bangsar, 59100 Kuala Lumpur, Wilayah Persekutuan Kuala Lumpur, Malaysia",,,03-2201 3650,http://www.pulpcoffee.co/,cafe,"Kuala Lumpur, Malaysia",google_maps
Coffee Up,"LOT G11, ground floor, 88, Jalan Raja Chulan, Kuala Lumpur, 50450 Kuala Lumpur, Wilayah Persekutuan Kuala Lumpur, Malaysia",,,012-873 3886,https://instagram.com/coffeeupmy,cafe,"Kuala Lumpur, Malaysia",google_maps
TOP BEANS. Coffee & More,"1436 Sanusi Fafunwa St, Victoria Island, Lagos 106104, Lagos, Nigeria",,,0811 588 8885,,coffee shop,"Lagos, Nigeria",google_maps
ART CAFE,"282 Akin Olugbade St, Victoria Island, Lagos 106104, Lagos, Nigeria",,,0811 888 8887,,restaurant,"Lagos, Nigeria",google_maps
Cafeteria Nigeria,"16b Akin Adesola St, Victoria Island, Lagos 106104, Lagos, Nigeria",,,0818 188 8993,,american restaurant,"Lagos, Nigeria",google_maps
Flowershop Cafe,"274 Akin Adesola St, Victoria Island, Lagos 106104, Lagos, Nigeria",,,0815 990 6666,https://flowershopcafe.com.ng/,cafe,"Lagos, Nigeria",google_maps
TOP BEANS. Coffee & More,"17 A Ozumba Mbadiwe Ave, WINGS, Lagos 106104, Lagos, Nigeria",,,0903 000 7500,,coffee shop,"Lagos, Nigeria",google_maps
PAUSE | Café & Espresso Bar,"1 Bisway St, Maroko, Lekki 106104, Lagos, Nigeria",,,0818 738 0000,,coffee shop,"Lagos, Nigeria",google_maps
The Kofe Club,"Trocadero Square, Shop 3, The Rock Dr, Lekki Phase I, Lagos 106104, Lagos, Nigeria",,,0707 718 8760,,cafe,"Lagos, Nigeria",google_maps
Cafe One Yaba,"G94F+GM9, Commercial Ave, Sabo yaba, Lagos 101245, Lagos, Nigeria",,,0707 107 3528,,coffee shop,"Lagos, Nigeria",google_maps
Hard Rock Cafe Lagos,"Landmark Village, Water Corporation Road, Oniru, VI, Eti-Osa, Lagos 550104, Lagos, Nigeria",,,0908 198 8888,https://cafe.hardrock.com/lagos/#utm_source=Google&utm_medium=Yext&utm_campaign=Listings,american restaurant,"Lagos, Nigeria",google_maps
Mai Shayi Coffee Roasters Lagos,"Podium floor, South Atlantic Petroleum Towers, 1 Adeola Odeku St, Victoria Island, Lagos 106104, Lagos, Nigeria",,,0904 478 1938,http://www.maishayicoffee.com/,coffee roastery,"Lagos, Nigeria",google_maps
Café One UNILAG,"Bookshop building, University of Lagos Main Campus, Akoka, road, LGA, Yaba, Lagos 101017, Lagos, Nigeria",,,0707 392 4652,https://www.cafeone.ng/,coffee shop,"Lagos, Nigeria",google_maps
Coffee & Co,"landmark boulevard, Water Corporation Dr, Maroko, Lagos 106104, Lagos, Nigeria",,,0911 523 3701,,coffee shop,"Lagos, Nigeria",google_maps
"Cafe One Lekki, Admiralty Way","21 Admiralty Wy, Lekki Phase 1, Lagos 106104, Lagos, Nigeria",,,0905 387 2953,http://www.cafeone.ng/,coffee shop,"Lagos, Nigeria",google_maps
Dulce Cafe & Bakery,"Behind Slashpoint supermarket, 15 Glover Rd, Ikoyi, Lagos 106104, Lagos, Nigeria",,,0704 916 2291,,restaurant,"Lagos, Nigeria",google_maps
Boutique Cafe,"64 Adeola Odeku St, Victoria Island, Lagos 101241, Lagos, Nigeria",,,0904 365 3625,,coffee shop,"Lagos, Nigeria",google_maps
Café One VI,"300 Adeola Odeku St, Victoria Island, Lagos 101241, Lagos, Nigeria",,,0818 114 6181,https://www.cafeone.ng/,coffee shop,"Lagos, Nigeria",google_maps
Choco Latte Coffee Bar,"Inside Raddison Blu, 38, 40 Isaac John St, Ikeja GRA, Lagos 100271, Lagos, Nigeria",,,0908 780 5555,,coffee shop,"Lagos, Nigeria",google_maps
Alex | coffee brunch wine,"R. Lucinda Anino dos Santos 12, 8600-749 Lagos, Portugal",,,,https://www.instagram.com/alexcoffeewine/,coffee stand,"Lagos, Nigeria",google_maps
Toast Coffee and Bites,"Eko Hotel, Victoria Island, Lagos 106104, Lagos, Nigeria",,,,,western restaurant,"Lagos, Nigeria",google_maps
Rosslyn Coffee Queen Victoria Street,"78 Queen Victoria St, London EC4N 4SJ, UK",,,,https://www.rosslyncoffee.com/?utm_source=GMB-listing,coffee shop,"London, UK",google_maps
Hideaway Coffee House,"7 Farrier's Psge, London W1D 7DP, UK",,,,https://www.instagram.com/hideawaycoffee/,coffee shop,"London, UK",google_maps
Monmouth Coffee Company,"27 Monmouth St, London WC2H 9EU, UK",,,020 7232 3010,http://www.monmouthcoffee.co.uk/,coffee shop,"London, UK",google_maps
Kaffeine,"66 Great Titchfield St., London W1W 7QJ, UK",Prufrock Coffee,,,https://kaffeine.co.uk/,coffee shop,"London, UK",google_maps
Coffee Island,"4b Upper St Martin's Ln, London WC2H 9NY, UK",,,020 7836 3007,http://www.coffeeisland.co.uk/,coffee shop,"London, UK",google_maps
Omotesando Koffee,"8 Newman St, London W1T 1FB, UK",,,,http://ooo-koffee.com/,coffee shop,"London, UK",google_maps
L'ETO Soho,"155 Wardour St, London W1F 8WG, UK",,,020 7494 4991,http://www.letocaffe.co.uk/,coffee shop,"London, UK",google_maps
St James's Café,"Horse Guards Rd, London SW1A 2BJ, UK",,,07552 008421,https://www.royalparks.org.uk/visit/parks/st-jamess-park,cafe,"London, UK",google_maps
Formative Coffee,"4 Butler Pl, London SW1H 0QD, UK",,,,https://formative.coffee/,coffee shop,"London, UK",google_maps
% ARABICA London Covent Garden,"5 King St, London WC2E 8HN, UK",,,,https://arabica.coffee/en/location/arabica-london-covent-garden/,coffee shop,"London, UK",google_maps
Drury Covent Garden | Cafe & Brunch,"188-189 Drury Ln, London WC2B 5QD, UK",,,020 7831 7555,http://www.drury188189.co.uk/,brunch restaurant,"London, UK",google_maps
Black Sheep Coffee,"5-7 Goodge St, London W1T 2PD, UK",,,020 3988 6994,https://blacksheepcoffee.co.uk/blogs/locations/goodge-street?utm_source=ExtNet&utm_medium=Yext,coffee shop,"London, UK",google_maps
Chill House Coffee Shop,"10 Shepherd St, London W1J 7JE, UK",,,,https://www.chillhouselondon.com/,coffee shop,"London, UK",google_maps
Monmouth Coffee Company,"2 Park St, London SE1 9AB, UK",,,020 7232 3010,http://www.monmouthcoffee.co.uk/,coffee shop,"London, UK",google_maps
Coffee & Friends,"12 Regent Street Saint James's, London SW1Y 4PE, UK",,,,https://www.instagram.com/coffee_friends12/,coffee shop,"London, UK",google_maps
Algerian Coffee Stores,"52 Old Compton St, London W1D 4QE, UK",,,020 7437 2480,http://www.algeriancoffeestores.com/,tea store,"London, UK",google_maps
Archetype Coffee,"31 Riding House St, London W1W 7DY, UK",,,,,coffee shop,"London, UK",google_maps
Victoria House Coffee & Food,"5 Coptic St, London WC1A 1NH, UK",,,020 3876 5517,https://victoriahouseco.com/,coffee shop,"London, UK",google_maps
Alchemist Coffee Project,"698 S Vermont Ave Ste 103, Los Angeles, CA 90005, USA",,,(213) 388-8767,http://alchemistcp.com/,coffee shop,"Los Angeles, USA",google_maps
Urth Caffe,"459 S Hewitt St, Los Angeles, CA 90013, USA",,,(213) 797-4534,https://www.urthcaffe.com/,coffee shop,"Los Angeles, USA",google_maps
Blue Bottle Coffee,"300 S Broadway, Los Angeles, CA 90013, USA",,,(510) 661-3510,https://bluebottlecoffee.com/us/eng/southern-california-cafes?utm_source=google&utm_medium=organic&utm_campaign=cafe_business_listing_socal,coffee shop,"Los Angeles, USA",google_maps
"The Butcher, The Baker, The Cappuccino Maker","8653 Sunset Blvd, West Hollywood, CA 90069, USA",,,(310) 360-6900,https://www.bbcmcafe.com/,coffee shop,"Los Angeles, USA",google_maps
Boxx Coffee Roasters Co.,"950 E 3rd St, Los Angeles, CA 90013, USA",,,(424) 313-2533,http://boxxcoffee.la/,coffee roastery,"Los Angeles, USA",google_maps
The Latte Shop,"228 1st St, Los Angeles, CA 90012, USA",,,(213) 999-3834,https://food.orders.co/thelatteshop,coffee shop,"Los Angeles, USA",google_maps
The Coffee Company,"8751 La Tijera Blvd, Los Angeles, CA 90045, USA",,,(310) 645-7315,http://thecoffeecompanyla.com/,coffee shop,"Los Angeles, USA",google_maps
Kumquat Coffee DTLA,"545 S Figueroa St, Los Angeles, CA 90071, USA",,,,http://www.kumquatcoffee.com/,coffee shop,"Los Angeles, USA",google_maps
House Coffee Co,"5162 W Jefferson Blvd, Los Angeles, CA 90016, USA",,,(833) 363-7438,https://housecoffeeco.la/,coffee shop,"Los Angeles, USA",google_maps
Coffee For Sasquatch,"7020 Melrose Ave, Los Angeles, CA 90038, USA",,hello@coffeeforsasquatch.com,(323) 433-4070,http://www.coffeeforsasquatch.com/,coffee shop,"Los Angeles, USA",google_maps
Awesome Coffee Ktown,"3959 Wilshire Blvd a21, Los Angeles, CA 90010, USA",,,(213) 674-7558,https://www.instagram.com/awesomecoffeeshop?igsh=OGQ5ZDc2ODk2ZA%3D%3D&utm_source=qr,coffee shop,"Los Angeles, USA",google_maps
Maru Coffee,"1019 S Santa Fe Ave, Los Angeles, CA 90021, USA",,,,http://marucoffee.com/,coffee shop,"Los Angeles, USA",google_maps
Andante Coffee,"816 S Grand Ave, Los Angeles, CA 90017, USA",,,(213) 628-3670,http://www.lacoffeeclub.com/roasters/andante-coffee-roasters/,coffee shop,"Los Angeles, USA",google_maps
Nice Coffee,"515 Flower St #100, Los Angeles, CA 90071, USA",,,,http://www.nicecoffee.com/,coffee shop,"Los Angeles, USA",google_maps
Alchemist Coffee Project at The Pearl,"687 S Hobart Blvd, Los Angeles, CA 90005, USA",,,(213) 315-5700,http://alchemistcp.com/,coffee shop,"Los Angeles, USA",google_maps
koffeeski,"4003 Wilshire Blvd Unit G, Los Angeles, CA 90010, USA",,,(213) 427-3637,,coffee shop,"Los Angeles, USA",google_maps
Philz Coffee,"801 S Hope St A, Los Angeles, CA 90017, USA",,,(213) 213-2616,https://philzcoffee.com/locations/dtla-hope?utm_source=gmb&utm_medium=yext,coffee shop,"Los Angeles, USA",google_maps
Fig + Sparrow,"20 Oldham St, Manchester M1 1JA, UK",,,,,coffee shop,"Manchester, UK",google_maps
Idle Hands Coffee,"35 Dale St, Manchester M1 2HF, UK",,,,http://www.idlehandscoffee.com/,coffee shop,"Manchester, UK",google_maps
Moose Coffee,"20 York St, Manchester M2 3BB, UK",,,0161 228 7994,http://www.moosecoffee.co/,breakfast restaurant,"Manchester, UK",google_maps
Black Sheep Coffee,"Unit 2, 2 St Peter's Sq, Manchester M2 3AA, UK",,,020 3988 6994,https://blacksheepcoffee.co.uk/blogs/locations/manchester-st-peters-square?utm_source=ExtNet&utm_medium=Yext,coffee shop,"Manchester, UK",google_maps
Factory Coffee MCR,"38 King St W, Manchester M3 2WZ, UK",,,0161 236 5379,https://www.factorycoffeemcr.com/,coffee shop,"Manchester, UK",google_maps
Coffee Lab Manchester Piccadilly.,"23-24 Mosley St, Manchester M2 3AG, UK",,info@coffeelab.gr,0161 511 4263,https://coffeelab.gr/en/,coffee shop,"Manchester, UK",google_maps
Atrium Coffee,"Ground floor, 1 St Peter's Sq, Manchester M2 3DE, UK",,info@atrium-coffee.co.uk,,http://www.atrium-coffee.co.uk/,coffee shop,"Manchester, UK",google_maps
Black Sheep Coffee & Cocktails,"60 Spring Gardens, Manchester M2 2BQ, UK",,,020 3988 6994,https://blacksheepcoffee.co.uk/blogs/locations/spring-gardens?utm_source=ExtNet&utm_medium=Yext,coffee shop,"Manchester, UK",google_maps
Just Between Friends Coffee,"56 Tib St, Manchester M4 1LG, UK",,,,http://www.justbetweenfriendscoffee.com/,coffee shop,"Manchester, UK",google_maps
Nùr Cafe Manchester,"45 Deansgate, Manchester M3 2AY, UK",,,0161 821 0139,https://nurcafe.co.uk/,coffee shop,"Manchester, UK",google_maps
Fort Coffee,"255 Deansgate, Manchester M3 4EN, UK",,,,https://fortcoffee.co.uk/,coffee shop,"Manchester, UK",google_maps
Blank Street Coffee,"62 Cross St, Manchester M2 4JQ, UK",,,,https://www.blankstreet.com/en-GB,coffee shop,"Manchester, UK",google_maps
Black Sheep Coffee,"Unit 13, Manchester Arndale, 23 Market St, Manchester M1 1WR, UK",,,020 3988 6994,https://blacksheepcoffee.co.uk/blogs/locations/market-street?utm_source=ExtNet&utm_medium=Yext,coffee shop,"Manchester, UK",google_maps
Ancoats Coffee Co.,"Unit 9, Royal Mills, 17 Redhill St, Ancoats, Manchester M4 5BA, UK",,,0161 531 3420,http://www.ancoats-coffee.co.uk/,coffee roastery,"Manchester, UK",google_maps
ARTISTA PERFETTO (Ancoats),"130 Oldham Rd, Ancoats, Manchester M4 6BG, UK",,,,http://instagram.com/artistaperfettouk,coffee shop,"Manchester, UK",google_maps
Siop Shop,"53 Tib St, Manchester M4 1LS, UK",,,0161 834 4416,http://siopshop.co/,cafe,"Manchester, UK",google_maps
Haunt MCR,"58 Peter St, Manchester M2 3NQ, UK",,,0161 711 1185,https://haunt-mcr.co.uk/,coffee shop,"Manchester, UK",google_maps
Patricia Coffee Brewers,"Rear of, 493-495 Little Bourke St, Melbourne VIC 3000, Australia",,,,http://www.patriciacoffee.com.au/,coffee shop,"Melbourne, Australia",google_maps
Little Rogue.,"12 Drewery Ln, Melbourne VIC 3000, Australia",,shop@littlerogue.com.au,,https://www.littlerogue.com.au/,coffee shop,"Melbourne, Australia",google_maps
Brother Baba Budan,"359 Little Bourke St, Melbourne VIC 3000, Australia",,,,http://sevenseeds.com.au/pages/brother-baba-budan,coffee shop,"Melbourne, Australia",google_maps
Dukes Coffee Roasters,"247 Flinders Ln, Melbourne VIC 3000, Australia",,,(03) 9417 5578,http://www.dukescoffee.com.au/,coffee shop,"Melbourne, Australia",google_maps
Manchester Press,"8 Rankins Ln, Melbourne VIC 3000, Australia",,,0412 912 999,https://www.facebook.com/manchesterpress,coffee shop,"Melbourne, Australia",google_maps
Seven Seeds Coffee Roasters,"114 Berkeley St, Carlton VIC 3053, Australia",,,,http://sevenseeds.com.au/,cafe,"Melbourne, Australia",google_maps
ST. ALi Coffee Roasters - South Melbourne,"12-18 Yarra Pl, South Melbourne VIC 3205, Australia",,,(03) 9132 8966,http://stali.com.au/,coffee roastery,"Melbourne, Australia",google_maps
Brick Lane Melbourne,"33 Guildford Ln, Melbourne VIC 3000, Australia",,,0416 198 743,http://thebricklane.com.au/,cafe,"Melbourne, Australia",google_maps
Higher Ground,"650 Little Bourke St, Melbourne VIC 3000, Australia",,info@highergroundmelbourne.com.au,(03) 8899 6219,https://highergroundmelbourne.com.au/,coffee shop,"Melbourne, Australia",google_maps
The League of Honest Coffee,"108 Little Lonsdale St, Melbourne VIC 3000, Australia",,,(03) 9681 9359,http://www.leagueofhonestcoffee.com.au/,coffee shop,"Melbourne, Australia",google_maps
BENCH COFFEE CO. Lt Collins,"321 Little Collins St, Melbourne VIC 3000, Australia",,,,http://benchcoffee.co/,coffee shop,"Melbourne, Australia",google_maps
"Market Lane Coffee - Victoria St, Queen Victoria Market","83-85 Victoria St, Melbourne VIC 3000, Australia",,,(03) 9804 7434,https://www.marketlane.com.au/,coffee shop,"Melbourne, Australia",google_maps
Vacation Coffee CBD,"1 Exhibition St, Melbourne VIC 3000, Australia",,,(03) 9662 2013,http://vacationcoffee.com.au/,coffee shop,"Melbourne, Australia",google_maps
Industry Beans Lt. Collins,"345 Little Collins St, Melbourne VIC 3000, Australia",,,(03) 9989 3779,https://industrybeans.com/,coffee shop,"Melbourne, Australia",google_maps
Project Zero Coffee Meriton Suites,"Store 1/140 King St, Melbourne VIC 3000, Australia",,,,https://projectzero.coffee/,coffee shop,"Melbourne, Australia",google_maps
The Hardware Société,"10 Katherine Pl, Melbourne VIC 3000, Australia",,,(03) 9471 1448,http://hardwaresociete.com/,coffee shop,"Melbourne, Australia",google_maps
Dead Man Espresso,"35 Market St, South Melbourne VIC 3205, Australia",,,(03) 9645 9991,https://www.deadmanespresso.com/,cafe,"Melbourne, Australia",google_maps
First Love Coffee Collins St,"Tenancy 4/433 Collins St, Melbourne VIC 3000, Australia",,,,https://firstlovecoffee.com.au/,coffee shop,"Melbourne, Australia",google_maps
Operator25,"25 Wills St, Melbourne VIC 3000, Australia",,,(03) 9670 3278,http://www.operator25.com.au/,coffee shop,"Melbourne, Australia",google_maps
Market Lane Coffee - Collins St,"8 Collins St, Melbourne VIC 3000, Australia",,,(03) 9804 7434,http://www.marketlane.com.au/,coffee shop,"Melbourne, Australia",google_maps
Café Nin,"Havre 73, Juárez, Cuauhtémoc, 06600 Ciudad de México, CDMX, Mexico",,,55 9155 4805,http://www.cafenin.com.mx/,coffee shop,"Mexico City, Mexico",google_maps
Cafebrería El Péndulo Roma,"Av. Álvaro Obregón 86, Roma Nte., Cuauhtémoc, 06700 Ciudad de México, CDMX, Mexico",,web@pendulo.com,55 5574 7034,http://pendulo.com/,coffee shop,"Mexico City, Mexico",google_maps
Finca Don Porfirio,"Av. Juarez 14, Colonia Centro, Centro, Cuauhtémoc, 06000 Ciudad de México, CDMX, Mexico",,,55 6650 4036,,coffee shop,"Mexico City, Mexico",google_maps
CUMBÉ Coffee Roasters,"Monterrey 82, Roma Sur, Cuauhtémoc, 06700 Ciudad de México, CDMX, Mexico",,,,https://cumbe.lat/,coffee shop,"Mexico City, Mexico",google_maps
Drip Specialty Coffee,"Guadalajara 36, Roma Nte., Cuauhtémoc, 06700 Ciudad de México, CDMX, Mexico",,,,https://www.facebook.com/dripspecialtycoffee/,coffee shop,"Mexico City, Mexico",google_maps
Nice Day Coffee,"Río Pánuco 165, Cuauhtémoc, 06500 Ciudad de México, CDMX, Mexico",,,,http://www.nicedaymx.com/,cafe,"Mexico City, Mexico",google_maps
Almanegra Café,"Zacatecas 180, Roma Nte., Cuauhtémoc, 06700 Ciudad de México, CDMX, Mexico",,,55 4162 5899,http://almanegra.cafe/,coffee shop,"Mexico City, Mexico",google_maps
Café Memorias de un Barista,"Frontera 83, Roma Nte., Cuauhtémoc, 06700 Ciudad de México, CDMX, Mexico",,memoriasdeunbarista@gmail.com,55 5207 6201,http://www.memoriasdeunbarista.com/,coffee shop,"Mexico City, Mexico",google_maps
Blend Station,"Avenida Tamaulipas 60 , Col. Condesa C.P06140, Hipódromo, Cuauhtémoc, 06140 Ciudad de México, CDMX, Mexico",,,55 6868 5350,http://www.blendstation.com.mx/,coffee shop,"Mexico City, Mexico",google_maps
Qūentin Café,"Av. Álvaro Obregón 64, Roma Nte., Cuauhtémoc, 06700 Ciudad de México, CDMX, Mexico",,,55 2715 9042,https://qentincafe.shop/,coffee shop,"Mexico City, Mexico",google_maps
Cardinal Casa de Café,"Córdoba 132, Roma Nte., Cuauhtémoc, 06100 Ciudad de México, CDMX, Mexico",,,55 6721 8874,,coffee shop,"Mexico City, Mexico",google_maps
Café Toscano,"Temístocles 26, Polanco, Polanco IV Secc, Miguel Hidalgo, 11560 Ciudad de México, CDMX, Mexico",,,55 6732 5374,,coffee shop,"Mexico City, Mexico",google_maps
Compay,"Altata 9, Hipódromo Condesa, Cuauhtémoc, 06100 Ciudad de México, CDMX, Mexico",,,,,coffee stand,"Mexico City, Mexico",google_maps
Café Regina,"Regina 24, Centro Histórico de la Cdad. de México, Centro, Cuauhtémoc, 06080 Ejido del Centro, CDMX, Mexico",,,55 5709 2436,https://www.instagram.com/cafe_regina,coffee shop,"Mexico City, Mexico",google_maps
Buna - Café Rico,"C. Orizaba 42, Roma Nte., Cuauhtémoc, 06700 Ciudad de México, CDMX, Mexico",,,,http://buna.mx/,cafe,"Mexico City, Mexico",google_maps
Libertario Coffee Roasters - Roma Norte,"C. Orizaba 16, Roma Nte., Cuauhtémoc, 06700 Ciudad de México, CDMX, Mexico",,,322 5112476,http://www.libertariocoffee.co/,coffee shop,"Mexico City, Mexico",google_maps
Café La Habana,"Av. Morelos 62, Juárez, Cuauhtémoc, 06600 Ciudad de México, CDMX, Mexico",,,55 5535 2620,,coffee shop,"Mexico City, Mexico",google_maps
Balam House,"C. de la Palma 24-Local 4, Centro Histórico de la Cdad. de México, Centro, Cuauhtémoc, 06000 Ciudad de México, CDMX, Mexico",,,55 4836 0853,https://www.instagram.com/balam.house,restaurant,"Mexico City, Mexico",google_maps
Tierra Garat,"Jalapa 99-A-Local 4, Roma Nte., Cuauhtémoc, 06700 Ciudad de México, CDMX, Mexico",,,55 5207 6298,http://www.tierragarat.mx/,coffee shop,"Mexico City, Mexico",google_maps
Casiopea Café,"Justo Sierra 61, Centro Histórico de la Cdad. de México, Centro, Cuauhtémoc, 06020 Ciudad de México, CDMX, Mexico",,,55 1113 7522,,coffee shop,"Mexico City, Mexico",google_maps
MIAM CAFE-WYNWOOD,"2750 NW 3rd Ave Suite 21, Miami, FL 33127, USA",,miam@miamcafe.com,(786) 703-1451,http://www.miamcafe.com/,coffee shop,"Miami, USA",google_maps
{petite} maman,"140 NE 39th St #136, Miami, FL 33137, USA",,,(786) 580-5938,https://mamannyc.com/locations/design-district,coffee shop,"Miami, USA",google_maps
Magdalena Coffee & Houseplants,"321 NE 26th St CU-04, Miami, FL 33137, USA",,,,http://www.magdalenacoffee.com/,coffee shop,"Miami, USA",google_maps
maman,"1300 Brickell Bay Dr CU2, Miami, FL 33131, USA",,,(786) 323-7180,https://mamannyc.com/locations/brickell-bay,coffee shop,"Miami, USA",google_maps
Naughty Coffee,"101 NE 2nd Ave, Miami, FL 33132, USA",,naughtycoffeeshop@gmail.com,(347) 283-5609,https://naughtycoffeeshop.com/,coffee shop,"Miami, USA",google_maps
DIOR Café Miami,"162 NE 39th St, Miami, FL 33137, USA",,,(786) 725-3781,https://www.dior.com/en_int?utm_source=Yext&utm_medium=GMB,cafe,"Miami, USA",google_maps
Studio 24 Artful Coffee,"1250 S Miami Ave, Miami, FL 33130, USA",,,(645) 248-6524,https://www.studiotwentyfour.co/,coffee shop,"Miami, USA",google_maps
Suite Habana Cafe,"2609 N Miami Ave, Miami, FL 33127, USA",,,,https://suite-habana-cafe.myshopify.com/,coffee shop,"Miami, USA",google_maps
Novela Cafe Social,"2323 N Miami Ave, Miami, FL 33127, USA",,,(786) 772-5615,http://novelamia.com/,cafe,"Miami, USA",google_maps
Vice City Bean,"1657 N Miami Ave unit c, Miami, FL 33136, USA",,,(305) 726-8031,http://vicecitybean.com/,coffee shop,"Miami, USA",google_maps
Vice City Bean Brickell,"1111 Brickell Ave Ste 185, Miami, FL 33131, USA",,,,http://vicecitybean.com/,coffee shop,"Miami, USA",google_maps
Surry Hills Coffee | Brunch Miami,"8226 NE 2nd Ave, Miami, FL 33138, USA",,business.eu@surryhillscoffee.com,(305) 456-6787,http://www.surryhillscoffee.com/?utm_source=local&utm_medium=utm,coffee shop,"Miami, USA",google_maps
La Colada Gourmet,"1518 SW 8th St, Miami, FL 33135, USA",,lacoladagourmet@gmail.com,(305) 582-5762,https://www.lacoladagourmet.com/,coffee shop,"Miami, USA",google_maps
ITSI Coffee - i think she is,"169 SW 7th St, Miami, FL 33130, USA",,itsi.coffee@gmail.com,(786) 800-5659,http://ithinksheis.com/,coffee shop,"Miami, USA",google_maps
STL Café,"850 NW 42nd Ave Suite 101, Miami, FL 33126, USA",,,(786) 542-9930,,coffee shop,"Miami, USA",google_maps
Panther Coffee - Wynwood,"2390 NW 2nd Ave, Miami, FL 33127, USA",,,(305) 677-3952,http://www.panthercoffee.com/,coffee shop,"Miami, USA",google_maps
Café Bastille Downtown Miami,"248 SE 1st St, Miami, FL 33131, USA",,contact@cafebastilledowntown.com,(786) 425-3575,http://www.cafebastilledowntown.com/,brunch restaurant,"Miami, USA",google_maps
Imperial Moto Café,"7299 NW 2nd Ave, Miami, FL 33150, USA",,,(305) 364-5083,http://imperialmoto.com/,coffee shop,"Miami, USA",google_maps
White Rose Coffee,"4703 SW 8th St, Miami, FL 33134, USA",,whiterosecoffeemiami@gmail.com,,http://whiterose.coffee/,coffee shop,"Miami, USA",google_maps
Prithvi Cafe,"Apartment, Alongside, Prithvi Theatre, 20, Juhu Rd, Janki Kutir, Juhu, Mumbai, Maharashtra 400049, India",,,070459 40218,,cafe,"Mumbai, India",google_maps
Mokai Cafe,"Chapel Rd, St Sebastian Colony, Ranwar, Bandra West, Mumbai, Maharashtra 400050, India",,,098209 83607,,coffee shop,"Mumbai, India",google_maps
Kala Ghoda Cafe,"10, Rope Walk Ln, Kala Ghoda, Fort, Mumbai, Maharashtra 400001, India",,info@kgcafe.in,098338 03418,https://kgcafe.in/,cafe,"Mumbai, India",google_maps
Boojee Cafe,"Shop No 6, 29, New Kantwadi Rd, off Perry Cross Road, Bandra West, Mumbai, Maharashtra 400050, India",,,099302 03882,http://www.boojeecafe.com/,cafe,"Mumbai, India",google_maps
Bombay To Barcelona Library Cafe,"Timmy Arcade, 778, Makwana Rd, Gamdevi, Marol, Andheri East, Mumbai, Maharashtra 400059, India",,bombay2barcelonalc@gmail.com,077384 46788,http://www.bombaytobarcelonalibrarycafe.com/,cafe,"Mumbai, India",google_maps
Bombay Coffee House,"Neelkamal Building, 248, Waterfield Road, opposite National College, Khar, Bandra West, Mumbai, Maharashtra 400050, India",,,077180 42147,https://bombaycoffeehouse.com/,coffee shop,"Mumbai, India",google_maps
Banyan Tree Cafe,"7, 9, Calicut Rd, Ballard Estate, Fort, Mumbai, Maharashtra 400001, India",,,096190 33000,,cafe,"Mumbai, India",google_maps
Bombay Coffee House Fort,"WRPR+34C, 3, SS Ram Gulam Marg, Ballard Estate, Fort, Mumbai, Maharashtra 400001, India",,,084509 25026,https://bombaycoffeehouse.com/,coffee shop,"Mumbai, India",google_maps
Third Wave Coffee,"CrossWord Bookstore, Kemps Corner Flyover, Babulnath, Kemps Corner, Tardeo, Mumbai, Maharashtra 400026, India",,,081477 38399,https://stores.thirdwavecoffeeroasters.com/store-pages/third-wave-coffee-kemps-corner-mumbai/,coffee shop,"Mumbai, India",google_maps
Earth Cafe @ Churchgate,"Ground Floor, Ram Mahal, Dinshaw Vacha Rd, near KC College, Churchgate, Mumbai, Maharashtra 400020, India",,info@earthcafeindia.com,090818 81844,http://earthcafeindia.com/,coffee shop,"Mumbai, India",google_maps
Mockingbird Cafe Bar,"80, Veer Nariman Rd, Churchgate, Mumbai, Maharashtra 400020, India",,contact@mockingbirdcafebar.com,080976 06010,http://www.mockingbirdcafebar.com/,cafe,"Mumbai, India",google_maps
Leopold Cafe,"Shahid Bhagat Singh Road, Police Station, Colaba Causeway, near Colaba, Apollo Bandar, Colaba, Mumbai, Maharashtra 400001, India",,,085858 28201,https://www.instagram.com/leopoldcafemumbai?igsh=Mm90dW1hNzc1aWg3,coffee shop,"Mumbai, India",google_maps
Iteeha Coffee,"Ground Floor, Urmi Axis Building, West, behind Famous studio, opp. Doctor Elijah Moses Road, Mahalakshmi, Mumbai, Maharashtra 400018, India",,connect@iteeha.coffee,098198 20211,https://iteeha.coffee/,cafe,"Mumbai, India",google_maps
Candies,"5AA, Pali Hill, next to Learners Academy School, Bandra (W, Mumbai, Maharashtra 400050, India",,,085911 49713,http://www.candiescafe.com/,cafe,"Mumbai, India",google_maps
JW Cafe,"Chhatrapati Shivaji International Airport Area, Navpada, Vile Parle East, Vile Parle, Mumbai, Maharashtra 400099, India",,,022 6882 8656,http://www.jwmumbai.com/,coffee shop,"Mumbai, India",google_maps
Ettarra Coffee House,"Ground Floor, boutique hotel, Juhu residency, Airport Area, Juhu, Mumbai, Maharashtra 400049, India",The People Behind,care@ettarracoffee.in,086558 05815,https://ettarracoffee.in/,coffee shop,"Mumbai, India",google_maps
Third Wave Coffee,"Plot No 29, Dr N A Purandare Marg Chowpatty Marine Lines, Chowpatty, Girgaon, Mumbai, Maharashtra 400007, India",,orders@thirdwavecoffee.in,080500 03543,https://cafe.thirdwavecoffee.in/coffee-cafe-mumbai-32255/home?utm_source=gmb,coffee shop,"Mumbai, India",google_maps
Zen Cafe,"Fort Foundation Building, Bake House Ln, Kala Ghoda, Fort, Mumbai, Maharashtra 400001, India",Stimulating Conversation,,091677 68950,http://www.zencafe.co/,coffee shop,"Mumbai, India",google_maps
Bombay Island Coffee Company | Vikhroli,"Shop #4, Tower C, Retail Street, The Trees, GODREJ ONE, Pirojshanagar, Vikhroli East, Mumbai, Maharashtra 400079, India",,,022 4003 4931,https://www.bombayisland.com/,cafe,"Mumbai, India",google_maps
The Cacao Mill by Subko,"2nd Pasta Lane, Market, Badhwar Park, Apollo Bandar, Colaba, Mumbai, Maharashtra 400005, India",,,070212 15817,https://www.subko.coffee/pages/subko-cacao,coffee shop,"Mumbai, India",google_maps
Coffee Project New York | East Village,"239 E 5th St, New York, NY 10003, USA",,,(212) 228-7888,https://coffeeprojectny.com/?utm_source=google&utm_medium=organic&utm_campaign=gmb_ev,coffee shop,"New York City, USA",google_maps
Gold coffee,"491 3rd Ave, New York, NY 10016, USA",,,,https://goldcoffee.us/,coffee shop,"New York City, USA",google_maps
"Drip Drop Café, coffee shop","98 Thompson St, New York, NY 10012, USA",,,(201) 677-8660,http://www.dripdrop.nyc/,coffee shop,"New York City, USA",google_maps
787 Coffee,"204 W 10th St, New York, NY 10014, USA",,,(646) 852-6473,http://www.787coffee.com/,coffee shop,"New York City, USA",google_maps
787 Coffee,"310 W 14th St, New York, NY 10014, USA",,,(646) 649-3538,http://www.787coffee.com/,coffee shop,"New York City, USA",google_maps
787 Coffee,"256 W 15th St, New York, NY 10011, USA",,,(646) 649-2937,http://787coffee.com/,coffee shop,"New York City, USA",google_maps
787 Coffee,"93 Worth St, New York, NY 10013, USA",,,(917) 444-1196,http://www.787coffee.com/,coffee shop,"New York City, USA",google_maps
Stumptown Coffee Roasters,"18 W 29th St, New York, NY 10001, USA",,,(347) 414-7816,https://www.stumptowncoffee.com/pages/new-york-ace-hotel-cafe?utm_source=gbp&utm_medium=organic&utm_campaign=local,coffee shop,"New York City, USA",google_maps
Frisson Espresso,"10036 326 W 47th St, New York, NY 10036, USA",,,(646) 850-3928,http://frissonespresso.co/,coffee shop,"New York City, USA",google_maps
Noise NYC,"255A Canal St, New York, NY 10013, USA",,,,,cafe,"New York City, USA",google_maps
White Noise Coffee - Coffee Shop & Roastery,"829 11th Ave, Manhattan, NY 10019, USA",,,(646) 455-0339,https://whitenoisecoffee.com/,coffee shop,"New York City, USA",google_maps
787 Coffee,"66 Pearl St, New York, NY 10004, USA",,,(646) 449-9200,http://www.787coffee.com/,coffee shop,"New York City, USA",google_maps
Little Collins,"708 3rd Ave, New York, NY 10017, USA",Collin We,,(212) 308-1969,http://www.littlecollinsnyc.com/,coffee shop,"New York City, USA",google_maps
The Caféothèque of Paris,"52 Rue de l'Hôtel de Ville, 75004 Paris, France",,contact@lacafeotheque.com,01 53 01 83 84,http://www.lacafeotheque.com/,coffee shop,"Paris, France",google_maps
Café de Flore,"172 Bd Saint-Germain, 75006 Paris, France",,,01 45 48 55 26,https://cafedeflore.fr/,coffee shop,"Paris, France",google_maps
BlackBird Coffee,"77 Rue du Temple, 75003 Paris, France",,,06 73 17 03 80,,coffee shop,"Paris, France",google_maps
Brouillon Coffee,"42 Bd de Magenta, 75010 Paris, France",,,,http://brouilloncoffee.com/,coffee shop,"Paris, France",google_maps
Matamata Coffee,"58 Rue d'Argout, 75002 Paris, France",,,,,coffee shop,"Paris, France",google_maps
Boot Café,"19 Rue du Pont aux Choux, 75003 Paris, France",,,,,coffee shop,"Paris, France",google_maps
Motors Coffee,"7 Rue des Halles, 75001 Paris, France",,info@motorscoffee.com,,https://motorscoffee.com/,coffee shop,"Paris, France",google_maps
Le Peloton Café,"17 Rue du Pont Louis-Philippe, 75004 Paris, France",,,06 18 80 84 92,http://www.lepelotoncafe.com/,cafe,"Paris, France",google_maps
Terres de Café,"150 Rue Saint-Honoré, 75001 Paris, France",,,09 86 51 02 00,http://www.terresdecafe.com/,coffee shop,"Paris, France",google_maps
Kozy Bosquet,"79 Av. Bosquet, 75007 Paris, France",,,01 85 09 45 19,http://www.kozy.fr/,coffee shop,"Paris, France",google_maps
Clove,"14 Rue Chappe, 75018 Paris, France",,,,http://instagram.com/clovecoffeeshop,coffee shop,"Paris, France",google_maps
Shukery coffee & matcha,"18 Av. de l'Opéra, 75001 Paris, France",,,01 53 40 83 64,https://www.instagram.com/shukerycoffee/,coffee shop,"Paris, France",google_maps
Café d’Auteur - Specialty Coffee shop & roaster,"39 Rue Mazarine, 75006 Paris, France",,,07 56 89 66 03,https://cafedauteur.com/content/16-coffee-shop,coffee shop,"Paris, France",google_maps
Fringe,"106 Rue de Turenne, 75003 Paris, France",,,,http://www.fringecoffeeparis.com/,coffee shop,"Paris, France",google_maps
"Minicafé Île Saint-Louis - coffeeshop, matcha and cookies","1 Rue des Deux Ponts, 75004 Paris, France",,,06 12 17 61 75,https://www.minicafe.paris/,coffee shop,"Paris, France",google_maps
KB CaféShop,"53 Av. Trudaine, 75009 Paris, France",,,01 56 92 12 41,http://www.kbcoffeeroasters.com/,coffee roastery,"Paris, France",google_maps
République of Coffee,"2 Bd Saint-Martin, 75010 Paris, France",,,09 83 35 38 13,,coffee shop,"Paris, France",google_maps
O Coffee,"23 Rue de Lourmel, 75015 Paris, France",,,01 45 79 69 89,https://www.ocoffee.fr/,coffee shop,"Paris, France",google_maps
Baguett's Café,"33 Rue de Richelieu, 75001 Paris, France",,,,https://www.instagram.com/baguettscafe/,coffee stand,"Paris, France",google_maps
The Coffee,"2 Rue Saint-Gilles, 75003 Paris, France",,,,https://thecoffee.jp/,coffee shop,"Paris, France",google_maps
The Coffee Builders,"901 S 7th St Bldg C, Phoenix, AZ 85034, USA",,creative@thecoffeebuilders.com,(602) 904-7550,http://www.thecoffeebuilders.com/,coffee shop,"Phoenix, USA",google_maps
Lux Central,"4402 N Central Ave, Phoenix, AZ 85012, USA",,,(602) 327-1396,http://www.luxcoffee.com/,coffee shop,"Phoenix, USA",google_maps
Window Coffee Bar,"903 W Camelback Rd, Phoenix, AZ 85013, USA",,,(480) 307-4405,http://www.windowcoffeebar.com/,coffee shop,"Phoenix, USA",google_maps
"Songbird Coffee & Tea House - Phoenix, AZ","812 N 3rd St Ac, Phoenix, AZ 85004, USA",,info@songbirdcoffeehouse.com,(602) 374-4192,http://www.songbirdcoffeehouse.com/,coffee shop,"Phoenix, USA",google_maps
Case Study Coffee Lounge,"4802 N 16th St, Phoenix, AZ 85016, USA",,william@casestudycoffeelounge.com,(480) 590-4270,https://www.casestudycoffeelounge.com/,coffee shop,"Phoenix, USA",google_maps
Lola Coffee,"1001 N 3rd Ave #6, Phoenix, AZ 85003, USA",,,(602) 252-2265,https://lolacoffeebarphx.com/,coffee shop,"Phoenix, USA",google_maps
Copper Star Coffee,"4220 N 7th Ave, Phoenix, AZ 85013, USA",,,(602) 266-2136,https://copperstarcoffee.com/,coffee shop,"Phoenix, USA",google_maps
Fillmore Coffee Co.,"600 N 4th St, Phoenix, AZ 85004, USA",,info@fillmorecoffeeco.com,(928) 232-8527,http://www.fillmorecoffeeco.com/,coffee shop,"Phoenix, USA",google_maps
Moxie Coffee Co.,"4626 N 16th St Suite 101, Phoenix, AZ 85016, USA",,,(480) 215-9987,https://moxiecoffeeco.com/,coffee shop,"Phoenix, USA",google_maps
Cactus Cloud Cafe,"111 W Monroe St suite 121, Phoenix, AZ 85003, USA",,,(602) 566-7932,http://cactuscloudcafe.com/,coffee shop,"Phoenix, USA",google_maps
Fair Trade Cafe,"1020 N 1st Ave, Phoenix, AZ 85003, USA",,info@azfairtrade.com,(602) 354-8150,https://azfairtrade.com/?y_source=1_NTgwNjEyNjUtNzE1LWxvY2F0aW9uLndlYnNpdGU%3D,cafe,"Phoenix, USA",google_maps
WeBe Coffee Roasters,"15244 N Cave Creek Rd, Phoenix, AZ 85032, USA",,,(602) 888-4168,https://webe.coffee/pages/cave-creek-center-coffee-shop,coffee shop,"Phoenix, USA",google_maps
Press Coffee - EVB,"200 E Van Buren St, Phoenix, AZ 85004, USA",,,(602) 612-4160,https://presscoffee.com/pages/location-evb,coffee shop,"Phoenix, USA",google_maps
Bang Bang Coffee,"10 W Vernon Ave, Phoenix, AZ 85003, USA",,,,https://www.bangbangcoffeephx.com/,coffee shop,"Phoenix, USA",google_maps
Let's Meet Up,"3058 N 16th St Suite A, Phoenix, AZ 85016, USA",Up Let,info@redstakesolutions.com,,http://www.letsmeetup.coffee/,coffee shop,"Phoenix, USA",google_maps
Better Buzz Coffee - Phoenix,"717 E Glendale Ave, Phoenix, AZ 85020, USA",,,(623) 267-1797,http://www.betterbuzzcoffee.com/,coffee shop,"Phoenix, USA",google_maps
Dark Hall Coffee,"2243 N 12th St, Phoenix, AZ 85006, USA",,,(602) 277-5507,http://darkhallcoffeephx.com/,coffee shop,"Phoenix, USA",google_maps
Xolo Coffee,"2428 N 16th St C, Phoenix, AZ 85006, USA",,,(480) 721-2295,,coffee shop,"Phoenix, USA",google_maps
Mis Raices Cafe,"1325 Grand Ave Suite 3, Phoenix, AZ 85007, USA",,misraicescafeaz@gmail.com,(602) 675-2228,http://misraicescafe.com/,coffee shop,"Phoenix, USA",google_maps
A Flourshop,"803 N 7th St Suite 102, Phoenix, AZ 85006, USA",,info@aflourshop.com,(602) 274-2253,http://www.aflourshop.com/,coffee shop,"Phoenix, USA",google_maps
Nylon Coffee,"4 Everton Prk, #01-40, Singapore 080004",,,6220 2330,https://nylon.coffee/,coffee shop,Singapore,google_maps
Chye Seng Huat Hardware,"150 Tyrwhitt Rd, Singapore 207563",,,6299 4321,http://www.cshhcoffee.com/,coffee shop,Singapore,google_maps
Tiong Hoe Specialty Coffee,"170 Stirling Rd, #01-1133, Singapore 140170",,,8958 1133,http://www.tionghoe.com/,coffee shop,Singapore,google_maps
Asylum Coffeehouse,"311 Jln Besar, Singapore 208970",,,8921 9875,https://www.asylumcoffeehouse.com/,coffee shop,Singapore,google_maps
Apartment Coffee,"139 Selegie Rd, #01-01, Singapore 188309",,,,http://apartmentcoffee.co/,coffee roastery,Singapore,google_maps
Heap Seng Leong Coffeeshop,"10 N Bridge Rd, #01-5109, Singapore 190010",,,6292 2368,,coffee shop,Singapore,google_maps
ASK Coffee Roastery Singapore,"32 Seah St, Singapore 188388",,speedy3dcreations@gmail.com,8884 9186,https://www.speedy3dcreations.com/,coffee roastery,Singapore,google_maps
Zerah Coffee Roasters,"465 N Bridge Rd, #02-5063, Singapore 191465",,,,http://zerahcoffeeroasters.com/,coffee shop,Singapore,google_maps
Kurasu Singapore,"261 Waterloo St, #01-24, Singapore 180261",,,,http://www.kurasu.sg/,coffee shop,Singapore,google_maps
Maxi Coffee Bar,"64 Club St, Back Entrance, Singapore 069438",,hello@maxicoffeebar.com,9776 7400,http://maxicoffeebar.com/,coffee shop,Singapore,google_maps
% Arabica Singapore Arab Street,"56 Arab St, Singapore 199753",,,9680 5288,https://www.instagram.com/arabicasg/,coffee shop,Singapore,google_maps
Kings Cart Coffee Factory,"328 Joo Chiat Rd, #01-05, Singapore 427585",,,8814 8445,https://www.kingscartcoffee.com/joo-chiat-menu,coffee roastery,Singapore,google_maps
Cowpresso Coffee Roasters Singapore,"21 Lor Kilat, #01-07, Singapore 598123",,,8550 8143,https://cowpressocoffee.sg/,coffee roastery,Singapore,google_maps
Alchemist Khong Guan Building,"2 MacTaggart Rd, #01-01 Khong Guan Building, Singapore 368078",,,,https://alchemist.global/,coffee shop,Singapore,google_maps
Baristart Coffee Singapore (Tras Street),"65 Tras St, Singapore 079004",,,8299 7365,http://www.baristartcoffee.sg/,coffee shop,Singapore,google_maps
The Wired Monkey SG (The Hole),"5 Amoy St, Singapore 049948",Our Expert Team,,9069 4569,https://thewiredmonkeysg.com/,coffee stand,Singapore,google_maps
The Coffee Code Singapore,"37 Neil Rd, Singapore 088822",,,,https://www.instagram.com/thecoffeecodesingapore/,coffee shop,Singapore,google_maps
Yahava KoffeeWorks (Singapore),"50 Tagore Ln, #B1-02, Singapore 787494",,,6554 7080,http://www.yahava.sg/,coffee shop,Singapore,google_maps
Diggy Doo's Coffee,"3/2 Bridge St, Sydney NSW 2000, Australia",,,0433 465 609,https://diggydooscoffee.square.site/,coffee roastery,"Sydney, Australia",google_maps
JOE BLACK CAFE,"27 Commonwealth St, Sydney NSW 2000, Australia",,,(02) 8097 8646,https://www.joeblackcafe.com.au/,coffee shop,"Sydney, Australia",google_maps
Single O Surry Hills,"60/64 Reservoir St, Surry Hills NSW 2010, Australia",,,(02) 9211 0665,https://singleo.com.au/,coffee shop,"Sydney, Australia",google_maps
Kingswood Coffee - World Square,"395 Pitt St, Sydney NSW 2000, Australia",,,0447 777 567,https://www.kingswoodcoffee.online/,coffee shop,"Sydney, Australia",google_maps
Dutch Smuggler Coffee Brewers,"200 George St, Sydney NSW 2000, Australia",,,,http://www.dutchsmuggler.com.au/,coffee roastery,"Sydney, Australia",google_maps
La Famiglia Cafe,"284 Pitt St, Sydney NSW 2000, Australia",,,(02) 8065 9449,https://www.lafamigliacafe.com.au/,coffee shop,"Sydney, Australia",google_maps
The Grounds of the City,"Shop RG 12/500 George St, Sydney NSW 2000, Australia",The Grounds Events,,(02) 9699 2225,https://thegrounds.com.au/dine-in/the-city,cafe,"Sydney, Australia",google_maps
Pablo & Rusty's Sydney CBD,"161 Castlereagh St, Sydney NSW 2000, Australia",,,,https://pabloandrustys.com.au/pages/locations,coffee shop,"Sydney, Australia",google_maps
The Rusty Rabbit,"252 Forbes St, Darlinghurst NSW 2010, Australia",,,0405 062 037,http://www.therustyrabbit.com.au/,coffee shop,"Sydney, Australia",google_maps
Social Brew Cafe,"224 Harris St, Pyrmont NSW 2009, Australia",,,(02) 9571 8792,http://www.socialbrewcafe.com.au/,coffee shop,"Sydney, Australia",google_maps
Coffee Pitt,"367 Pitt St, Sydney NSW 2000, Australia",,,,https://www.instagram.com/coffeepitt?igsh=MWFuaXo4NWx5OWVxNA%3D%3D&utm_source=qr,coffee shop,"Sydney, Australia",google_maps
The Rocks Cafe,"99 George St, The Rocks NSW 2000, Australia",,,(02) 9247 3089,http://www.therockscafe.com.au/,coffee shop,"Sydney, Australia",google_maps
Regiment specialty coffee,"333 George St, Sydney NSW 2000, Australia",,regiment2022@hotmail.com,(02) 9299 4001,https://www.regimentcbd.com.au/,cafe,"Sydney, Australia",google_maps
Marlowe's Way,"Tankstream Way, Sydney NSW 2000, Australia",,,0432 487 598,,cafe,"Sydney, Australia",google_maps
Cabrito Coffee Traders.,"10-14 Bulletin Pl, Sydney NSW 2000, Australia",,,,,coffee shop,"Sydney, Australia",google_maps
Coffee Lab,"R. Aspicuelta, 227 - Vila Madalena, São Paulo - SP, 05433-010, Brazil",,,(11) 99148-8052,http://coffeelab.com.br/,coffee shop,"São Paulo, Brazil",google_maps
89ºC Coffee Station,"Praça da Liberdade, 169 - Liberdade, São Paulo - SP, 01503-010, Brazil",,,(11) 3203-1108,https://www.89coffeestation.com.br/,coffee shop,"São Paulo, Brazil",google_maps
We Coffee Av. Paulista,"Av. Paulista, 1111 - Bela Vista, São Paulo - SP, 01311-200, Brazil",,,,https://wecoffee.com.br/,coffee shop,"São Paulo, Brazil",google_maps
Padaria Bella Paulista,"Rua Haddock Lobo, 354 - Cerqueira César, São Paulo - SP, 01414-000, Brazil",,sac@bellapaulista.com,(11) 3214-3347,https://padariabellapaulista.com.br/,coffee shop,"São Paulo, Brazil",google_maps
We Coffee,"R. dos Estudantes, 24 - Liberdade, São Paulo - SP, 01505-000, Brazil",,,,https://wecoffee.com.br/,coffee shop,"São Paulo, Brazil",google_maps
Santo Grão,"R. Oscar Freire, 413 - Cerqueira César, São Paulo - SP, 01426-001, Brazil",,,(11) 3062-9294,https://santograo.com.br/nossas-casas/,coffee shop,"São Paulo, Brazil",google_maps
Soul Café SP,"R. Augusta, 1524 - Loja 6 - Consolação, São Paulo - SP, 01304-001, Brazil",,,(11) 98544-4971,https://soulcafe.com.br/,coffee shop,"São Paulo, Brazil",google_maps
Por um Punhado de Dólares,"R. Nestor Pestana, 115 - Consolação, São Paulo - SP, 01303-010, Brazil",,,,,coffee shop,"São Paulo, Brazil",google_maps
Café Girondino,"R. Boa Vista, 365 - Centro Histórico de São Paulo, São Paulo - SP, 01014-001, Brazil",,,(11) 5043-3822,,coffee shop,"São Paulo, Brazil",google_maps
London Coffee Station,"Rua Jardim Ivone, 21 - Vila Mariana, São Paulo - SP, 04105-020, Brazil",,,(11) 93099-1094,http://www.londoncoffeestation.com.br/,coffee shop,"São Paulo, Brazil",google_maps
mug.sp - Avenida Paulista,"Av. Paulista, 1079 - Bela Vista, São Paulo - SP, 01311-200, Brazil",,,,http://www.mugsp.com.br/,coffee shop,"São Paulo, Brazil",google_maps
Urbe Cafe Bar,"R. Antônio Carlos, 404 - Consolação, São Paulo - SP, 01309-010, Brazil",,,(11) 99344-8165,http://www.urbecafe.com.br/,coffee shop,"São Paulo, Brazil",google_maps
We Coffee,"Alameda Lorena, 1682 - Jardim Paulista, São Paulo - SP, 01424-006, Brazil",,,,http://www.wecoffee.com.br/,coffee shop,"São Paulo, Brazil",google_maps
KOF - King of The Fork,"R. Artur de Azevedo, 1317 - Pinheiros, São Paulo - SP, 05404-013, Brazil",,,,http://www.kingofthefork.com.br/,coffee shop,"São Paulo, Brazil",google_maps
1908 Coffee Station,"Rua Coronel Oscar Porto, 840 - Paraíso, São Paulo - SP, 04003-004, Brazil",,,(11) 3887-1066,https://www.instagram.com/1908coffee.station?igsh=MXh4Nno3cTdrMmx5eQ==,coffee shop,"São Paulo, Brazil",google_maps
Um Coffee Co.,"R. Júlio Conceição, 553 - Bom Retiro, São Paulo - SP, 01126-001, Brazil",,,(11) 3229-3988,http://www.umcoffeeco.com.br/,cafe,"São Paulo, Brazil",google_maps
Kofi & Co - Café e Brunch,"Rua Alexandre Dumas, 1518 - Chácara Santo Antônio (Zona Sul), São Paulo - SP, 04717-003, Brazil",,,(11) 3624-4838,https://kofiandco.com.br/,cafeteria,"São Paulo, Brazil",google_maps
The Coffee,"R. dos Pinheiros, 466 - Pinheiros, São Paulo - SP, 05422-110, Brazil",,,(41) 99279-7895,https://thecoffee.jp/,coffee shop,"São Paulo, Brazil",google_maps
Santo Grão - Itaim,"Rua Pais de Araújo, 163 - Itaim Bibi, São Paulo - SP, 04531-090, Brazil",,,(11) 97599-1592,https://santograo.com.br/nossas-casas/,coffee shop,"São Paulo, Brazil",google_maps
Perseu Coffee House,"Alameda Santos, 2.159 - Cerqueira César, São Paulo - SP, 01419-002, Brazil",,,(11) 93067-0900,https://linktr.ee/perseucoffeehouse,coffee shop,"São Paulo, Brazil",google_maps
THE ROASTERY BY NOZY COFFEE,"Reveur Jingumae, 5-chōme-17-13 Jingūmae, Shibuya, Tokyo 150-0001, Japan",,,03-6450-5755,https://www.tysons.jp/roastery/,coffee shop,"Tokyo, Japan",google_maps
GLITCH COFFEE & ROASTERS,"Japan, 〒101-0054 Tokyo, Chiyoda City, Kanda Nishikichō, 3-chōme−１６ １階",,press@glitchcoffee.com,03-5244-5458,https://glitchcoffee.com/,coffee shop,"Tokyo, Japan",google_maps
Little Nap Coffee Stand,"5-chōme-65-4 Yoyogi, Shibuya, Tokyo 151-0053, Japan",,,03-3466-0074,https://littlenap.jp/,coffee stand,"Tokyo, Japan",google_maps
BONGENCOFFEE Ginza,"2-chōme-16-3 Ginza, Chuo City, Tokyo 104-0061, Japan",,,03-6264-3988,https://bongen-shirafushi-coffee.com/,coffee shop,"Tokyo, Japan",google_maps
KOFFEE MAMEYA,"4-chōme-15-3 Jingūmae, Shibuya, Tokyo 150-0001, Japan",,info@koffee-mameya.com,03-5413-9422,http://koffee-mameya.com/,coffee shop,"Tokyo, Japan",google_maps
Awakening Cafe,"Japan, 〒110-0014 Tokyo, Taito City, Kitaueno, 2-chōme−23−９ イチロービル 4階, Ichiro Building 4th floor",,,,https://www.instagram.com/awakeningcafetokyo/,coffee shop,"Tokyo, Japan",google_maps
Cafe de l'ambre,"8-chōme-10-15 Ginza, Chuo City, Tokyo 104-0061, Japan",,,03-3571-1551,http://www.cafedelambre.com/,coffee shop,"Tokyo, Japan",google_maps
CAFE REISSUE,"3-chōme-25-7 Jingūmae, Shibuya, Tokyo 150-0001, Japan",,reissue2015@outlook.jp,03-5785-3144,https://www.reissue.co.jp/,coffee shop,"Tokyo, Japan",google_maps
Turret Coffee Tsukiji,"2-chōme-12-6 Tsukiji, Chuo City, Tokyo 104-0045, Japan",,,080-3344-8819,http://instagram.com/turretcoffee,coffee shop,"Tokyo, Japan",google_maps
HEART'S LIGHT COFFEE,"Japan, 〒150-0045 Tokyo, Shibuya, Shinsenchō, 13−１３ ヒルズ渋谷 1階",,,,https://heartslightcoffee.stores.jp/,coffee shop,"Tokyo, Japan",google_maps
ABOUT LIFE COFFEE BREWERS,"Japan, 〒150-0043 Tokyo, Shibuya, Dōgenzaka, 1-chōme−19−８ 斉丸道玄坂ビル 2F",,,03-6809-0751,https://onibuscoffee.com/,coffee stand,"Tokyo, Japan",google_maps
Coffee Supreme Tokyo,"Japan, 〒150-0047 Tokyo, Shibuya, Kamiyamachō, 42−３ 1F",,,03-5738-7246,http://coffeesupreme.com/tokyo,coffee shop,"Tokyo, Japan",google_maps
Onibus Coffee,"2-chōme-14-1 Kamimeguro, Meguro City, Tokyo 153-0051, Japan",,,03-6412-8683,http://onibuscoffee.com/,coffee shop,"Tokyo, Japan",google_maps
The Coffee Counter Tokyo,"東神田イチオクビル 1階, 1-chōme-17-5 Higashikanda, Chiyoda City, Tokyo 101-0031, Japan",,,080-7433-5403,https://thecoffeecountertokyo.com/,coffee shop,"Tokyo, Japan",google_maps
FabCafe Tokyo,"Japan, 〒150-0043 Tokyo, Shibuya, Dōgenzaka, 1-chōme−22−７ 道玄坂ピア 1F",,,03-6416-9190,https://fabcafe.com/jp/tokyo/,coffee shop,"Tokyo, Japan",google_maps
Kayaba Coffee,"6-chōme-1-29 Yanaka, Taito City, Tokyo 110-0001, Japan",,,03-4361-3115,https://www.instagram.com/kayabacoffee/,coffee shop,"Tokyo, Japan",google_maps
Passage Coffee,"Japan, 〒108-0014 Tokyo, Minato City, Shiba, 5-chōme−14−１６ 大正堂ビル １Ｆ",,,03-6809-3353,http://passagecoffee.com/,coffee shop,"Tokyo, Japan",google_maps
Tokyo Little House,"3-chōme-6-12 Akasaka, Minato City, Tokyo 107-0052, Japan",,hello@littlehouse.tokyo,,http://littlehouse.tokyo/,coffee shop,"Tokyo, Japan",google_maps
Ken's Coffee Shop,"Japan, 〒104-0061 Tokyo, Chuo City, Ginza, 3-chōme−12−１９ 楽心ビル 2F",,,03-3248-5285,,coffee shop,"Tokyo, Japan",google_maps
Leaves Coffee Roasters,"1-chōme-8-8 Honjo, Sumida City, Tokyo 130-0004, Japan",,,03-5637-8718,https://leavescoffee.jp/,coffee roastery,"Tokyo, Japan",google_maps
Dineen Coffee Co.,"140 Yonge St, Toronto, ON M5C 1X6, Canada",,,(416) 900-0949,https://www.dineencoffee.com/,coffee shop,"Toronto, Canada",google_maps
NEO COFFEE BAR,"161 Frederick St Unit 100, Toronto, ON M5A 1J9, Canada",,,(647) 348-8811,https://www.neocoffeebar.com/location-frederick-x-king,coffee shop,"Toronto, Canada",google_maps
Library Coffee,"281 Dundas St W, Toronto, ON M5T 1G1, Canada",,,(647) 350-8839,http://librarycoffee.ca/,coffee shop,"Toronto, Canada",google_maps
Forget Me Not Coffee,"506 Adelaide St W, Toronto, ON M5V 1T5, Canada",,,(416) 848-0057,http://forgetmenotcoffee.ca/,cafe,"Toronto, Canada",google_maps
Cafe23,"728 Queen St W, Toronto, ON M6J 1E8, Canada",,,(514) 994-0465,https://instagram.com/cafe23coffeebar/,cafe,"Toronto, Canada",google_maps
Black wolf coffee,"717 Bay St., Toronto, ON M5G 2J9, Canada",,,,,coffee shop,"Toronto, Canada",google_maps
Fahrenheit Coffee,"120 Lombard St, Toronto, ON M5C 3H5, Canada",,,(647) 896-1774,http://www.fahrenheitcoffee.com/,coffee shop,"Toronto, Canada",google_maps
HotBlack Coffee,"245 Queen St W, Toronto, ON M5V 1Z4, Canada",,info@hotblack-coffee.com,,https://hotblack-coffee.com/,coffee shop,"Toronto, Canada",google_maps
Found Coffee | College,"324 College St, Toronto, ON M5T 1S3, Canada",,,(416) 516-9666,http://found.coffee/,coffee shop,"Toronto, Canada",google_maps
Nabulu Coffee,"6 St Joseph St, Toronto, ON M4Y 1J7, Canada",,,(647) 669-1372,http://www.nabulucoffee.ca/,coffee shop,"Toronto, Canada",google_maps
Versus Coffee,"70 Adelaide St E, Toronto, ON M5C 2R6, Canada",,,(647) 987-5470,https://versuscoffeebar.com/,coffee shop,"Toronto, Canada",google_maps
Balzac's Distillery District,"1 Trinity St, Toronto, ON M5A 3C4, Canada",,,(416) 207-1709,https://shop.balzacs.com/pages/distillery-district,coffee shop,"Toronto, Canada",google_maps
Carbonic Coffee (Baldwin),"37 Baldwin St, Toronto, ON M5T 1L1, Canada",,,(647) 352-8550,https://carboniccoffee.netlify.app/,cafe,"Toronto, Canada",google_maps
NEO COFFEE BAR KING X SPADINA,"61 Spadina Ave., Toronto, ON M5V 1K1, Canada",,,(437) 915-9155,https://www.neocoffeebar.com/location/king-x-spadina/,coffee shop,"Toronto, Canada",google_maps
Daily Dose Coffee Bar,"125 John St, Toronto, ON M5V 2E2, Canada",,info@dailydosecoffeebar.com,,https://www.dailydosecoffeebar.com/,coffee shop,"Toronto, Canada",google_maps
Rooster Coffee House,"479 Broadview Ave, Toronto, ON M4K 2N4, Canada",,,(647) 530-4779,http://www.roostercoffeehouse.com/,coffee shop,"Toronto, Canada",google_maps
Moonbean Coffee Company,"30 St Andrew St, Toronto, ON M5T 1K6, Canada",,,(416) 595-0327,http://www.moonbeancoffee.com/,coffee roastery,"Toronto, Canada",google_maps
NEO COFFEE BAR BAY X COLLEGE,"770 Bay St. Unit 3, Toronto, ON M5G 0A6, Canada",,,(647) 345-0770,https://www.neocoffeebar.com/location-bay-x-college,coffee shop,"Toronto, Canada",google_maps
Jimmy's Coffee,"84 Gerrard St W, Toronto, ON M5G 1Z4, Canada",,,(416) 792-1141,http://www.jimmyscoffee.ca/,coffee shop,"Toronto, Canada",google_maps
Revolver,"325 Cambie St., Vancouver, BC V6B 2N4, Canada",,,(604) 558-4444,http://revolvercoffee.ca/,coffee shop,"Vancouver, Canada",google_maps
Nemesis Coffee GNW,"555 Great Northern Wy, Vancouver, BC V5T 1E1, Canada",,,,https://www.nemesis.coffee/,cafe,"Vancouver, Canada",google_maps
Nemesis Coffee Gastown,"302 W Hastings St, Vancouver, BC V6B 2N4, Canada",,,,https://www.nemesis.coffee/,coffee shop,"Vancouver, Canada",google_maps
Guffo Café,"331 Howe St, Vancouver, BC V6C 3N2, Canada",,,(604) 620-3660,https://guffocafe.shop/,coffee shop,"Vancouver, Canada",google_maps
Timbertrain Coffee Roasters - Gastown,"311 W Cordova St, Vancouver, BC V6B 4K2, Canada",,,(236) 513-4377,https://timbertrain.ca/,cafe,"Vancouver, Canada",google_maps
Saunter Coffee,"321 W Pender St, Vancouver, BC V6B 1T3, Canada",,,,http://www.sauntercoffee.com/,coffee shop,"Vancouver, Canada",google_maps
"Perfecto Cafe, Bakery & Gelato (Davie)","605 Davie St, Vancouver, BC V6B 2G6, Canada",,,(604) 428-2112,https://www.perfectocafe.ca/,coffee shop,"Vancouver, Canada",google_maps
Breka Bakery & Café - Davie,"855 Davie St, Vancouver, BC V6Z 1B7, Canada",,,(604) 428-8080,https://www.breka.ca/,bakery,"Vancouver, Canada",google_maps
Breka Bakery & Café - Bute,"812 Bute St, Vancouver, BC V6E 1E5, Canada",,,(604) 620-8200,http://breka.ca/,bakery,"Vancouver, Canada",google_maps
Propaganda coffee,"209 E Pender St, Vancouver, BC V6A 2T4, Canada",,,,http://www.propagandacoffee.ca/,coffee shop,"Vancouver, Canada",google_maps
Estratto coffee,"336 W Pender St, Vancouver, BC V6B 1T1, Canada",,,(778) 668-3863,,coffee shop,"Vancouver, Canada",google_maps
Oidé Coffee,"1548 W 2nd Ave, Vancouver, BC V6J 3B1, Canada",,,,http://oideoide.com/,coffee shop,"Vancouver, Canada",google_maps
lovelarte,"345 Robson St #101, Vancouver, BC V6B 0H3, Canada",,,(604) 599-7856,http://www.lovelarte.com/,coffee roastery,"Vancouver, Canada",google_maps
Elysian Coffee Downtown,"1100 Burrard St Unit 102, Vancouver, BC V6Z 1Y7, Canada",,,(778) 379-1512,http://www.elysiancoffee.com/,coffee shop,"Vancouver, Canada",google_maps
Grounds for Coffee,"2565 Alma St, Vancouver, BC V6R 3R8, Canada",,,(604) 224-5282,http://www.groundsforcoffee.ca/,coffee shop,"Vancouver, Canada",google_maps
cafe & life co.,"511 W 7th Ave, Vancouver, BC V5Z 1B4, Canada",,,(604) 336-9888,https://www.cafeandlifeco.com/,coffee shop,"Vancouver, Canada",google_maps
