business_name,address,owner_name,email,phone,website,category,city,source
Hans Egstorf,"Spuistraat 274, 1012 VX Amsterdam, Netherlands",,info@hansegstorf.com,,https://www.hansegstorf.com/?utm_source=GMB&utm_medium=organic&utm_campaign,bakery,"Amsterdam, Netherlands",google_maps
Bakhuys Amsterdam,"Sarphatistraat 61, 1018 EX Amsterdam, Netherlands",,info@bakhuys-amsterdam.nl,020 370 4861,http://www.bakhuys-amsterdam.nl/,bakery,"Amsterdam, Netherlands",google_maps
Patisserie Holtkamp,"Vijzelgracht 15, 1017 HM Amsterdam, Netherlands",,info@patisserieholtkamp.nl,020 624 8757,https://www.patisserieholtkamp.nl/,pastry shop,"Amsterdam, Netherlands",google_maps
Le Fournil de Sébastien Amsterdam,"Olympiaplein 119, 1077 CW Amsterdam, Netherlands",,,020 672 4211,http://www.lefournil.nl/,bakery,"Amsterdam, Netherlands",google_maps
Rene's Croissanterie,"Damstraat 20, 1012 JM Amsterdam, Netherlands",,info@renescroissanterie.nl,020 638 8348,http://www.renescroissanterie.nl/,dessert shop,"Amsterdam, Netherlands",google_maps
Brothers Niemeijer,"Nieuwendijk 35, 1012 MA Amsterdam, Netherlands",,info@gebroedersniemeijer.nl,020 707 6752,http://www.gebroedersniemeijer.nl/,bakery,"Amsterdam, Netherlands",google_maps
Bakkerij Wolf - Wolvenstraat,"Wolvenstraat 22, 1016 EP Amsterdam, Netherlands",,info@bakkerijwolf.com,020 775 2497,https://bakkerijwolf.nl/,bakery,"Amsterdam, Netherlands",google_maps
SAINT-JEAN Bakery,"Lindengracht 158h, 1015 KK Amsterdam, Netherlands",,,,http://www.saintjean.nl/,pastry shop,"Amsterdam, Netherlands",google_maps
Stefs Bakery,"Nieuwe Spiegelstraat 62b, 1017 DH Amsterdam, Netherlands",,,020 845 4741,http://www.stefs-bakery.com/,bakery,"Amsterdam, Netherlands",google_maps
Rise Bakery,"Albert Cuypstraat 208H, 1073 BM Amsterdam, Netherlands",,info@risebakery.nl,,http://www.risebakeryamsterdam.com/,bakery,"Amsterdam, Netherlands",google_maps
De Laatste Kruimel,"Langebrugsteeg 4, 1012 GB Amsterdam, Netherlands",,delaatstekruimel@gmail.com,020 423 0499,https://delaatstekruimel.com/,bakery,"Amsterdam, Netherlands",google_maps
Lanskroon Bakery,"Singel 385, 1012 WL Amsterdam, Netherlands",,bestellingen@lanskroon.nl,020 623 7743,http://www.lanskroon.nl/,pastry shop,"Amsterdam, Netherlands",google_maps
Craft Coffee & Pastry Amsterdam,"Gerard Doustraat 103A, 1073 VS Amsterdam, Netherlands",,info@craft-amsterdam.nl,,http://www.craft-amsterdam.nl/,bakery,"Amsterdam, Netherlands",google_maps
Fort Negen,"Jan Evertsenstraat 31, 1057 BM Amsterdam, Netherlands",,,,https://www.fortnegen.nl/,bakery,"Amsterdam, Netherlands",google_maps
La Panetteria Amsterdam,"Rokin 118A, 1012 LB Amsterdam, Netherlands",,lapanetteriarokin@gmail.com,020 737 2433,http://www.lapanetteria.nl/,bakery,"Amsterdam, Netherlands",google_maps
Margo's Amsterdam,"Eerste Tuindwarsstraat 2A, 1015 RV Amsterdam, Netherlands",,hello@margosamsterdam.com,020 303 1424,http://www.margosamsterdam.com/,bakery,"Amsterdam, Netherlands",google_maps
Almond Bakery,"Eerste Laurierdwarsstraat 13HS, 1016 PV Amsterdam, Netherlands",,almond.bakery.ams@gmail.com,,https://www.almondbakery.nl/,pastry shop,"Amsterdam, Netherlands",google_maps
Petit Gateau,"Haarlemmerstraat 80, 1013 EV Amsterdam, Netherlands",,masterclass@petitgateau.nl,020 737 1585,https://petitgateau.nl/,pastry shop,"Amsterdam, Netherlands",google_maps
Brittons Bakery and Cakery,"Ferdinand Bolstraat 168H, 1072 LT Amsterdam, Netherlands",,info@brittons.nl,06 24376473,http://www.brittonsbakery.nl/,confectionery,"Amsterdam, Netherlands",google_maps
Sea Salt & Chocolate,"Sint Willibrordusstraat 58H, 1073 VD Amsterdam, Netherlands",,hello@seasaltandchocolate.nl,06 41489717,https://www.seasaltandchocolate.nl/,cake shop,"Amsterdam, Netherlands",google_maps
Sweet Hut Bakery & Cafe,"935 Peachtree St NE UNIT 935, Atlanta, GA 30309, USA",,event@sweethut.com,(404) 600-4800,http://www.sweethutbakery.com/,bakery,"Atlanta, USA",google_maps
Alon's Bakery & Market,"1394 N Highland Ave NE, Atlanta, GA 30306, USA",Alon View Here,orders@alons.com,(404) 872-6000,http://alons.com/,bakery,"Atlanta, USA",google_maps
Saint Germain Bakery at The Interlock,"1115 Howell Ml Rd Suite 372, Atlanta, GA 30318, USA",,,(770) 953-5644,https://www.stgermainatl.com/,bakery,"Atlanta, USA",google_maps
Sweet Red Peach,"1020 White St SW, Atlanta, GA 30310, USA",,,(404) 228-3190,https://www.sweetredpeach.com/,bakery,"Atlanta, USA",google_maps
Colette Bread and Bakeshop,"636 N Highland Ave NE, Atlanta, GA 30306, USA",,,,https://www.coletteatl.com/,bakery,"Atlanta, USA",google_maps
The Little Tart Bakeshop,"437 Memorial Dr SE, Atlanta, GA 30312, USA",,,(404) 348-4797,http://www.littletartatl.com/,bakery,"Atlanta, USA",google_maps
Five Daughters Bakery | Ponce City Market,"675 Ponce De Leon Ave NE, Atlanta, GA 30308, USA",,,(404) 963-1922,http://fivedaughtersbakery.com/,bakery,"Atlanta, USA",google_maps
Flour + Time Bakery,"1133 Huff Rd NW suite f, Atlanta, GA 30318, USA",,flourandtimebakery@gmail.com,(470) 368-6588,http://www.flourandtimebakery.com/,vegan restaurant,"Atlanta, USA",google_maps
Evergreen Butcher + Baker,"2011 Hosea L Williams Dr NE, Atlanta, GA 30317, USA",,info@evergreenbutcherandbaker.com,(404) 996-2442,http://evergreenbutcherandbaker.com/,bakery,"Atlanta, USA",google_maps
Hansel & Gretel Bakery Cafe,"130 Luckie St NW, Atlanta, GA 30303, USA",,,(404) 797-7422,https://hanselgretelbakerycafe.com/,bakery,"Atlanta, USA",google_maps
Sweet Red Peach,"57 Poplar St NW Suite R6, Atlanta, GA 30303, USA",,,(404) 963-1802,https://order.toasttab.com/online/sweet-red-peach-atl,bakery,"Atlanta, USA",google_maps
International Bakery,"2165 Cheshire Bridge Rd NE UNIT 5, Atlanta, GA 30324, USA",,,(404) 636-7580,https://www.facebook.com/pages/International-Bakery-Inc/116256051732963,bakery,"Atlanta, USA",google_maps
Little Tart Bakeshop,"68 Georgia Ave SE, Atlanta, GA 30312, USA",,,(404) 348-4797,http://littletartatl.com/,bakery,"Atlanta, USA",google_maps
Cinnaholic,"1230 Caroline St NE Ste B110, Atlanta, GA 30307, USA",,,(404) 343-0805,https://locations.cinnaholic.com/ll/us/ga/atlanta/3/,bakery,"Atlanta, USA",google_maps
The Little Tart Bakeshop,"99 Krog St NE, Atlanta, GA 30307, USA",,,(404) 348-4797,http://www.littletartatl.com/,bakery,"Atlanta, USA",google_maps
Rosetta Bakery,"Two Buckhead Plaza, 3050 Peachtree Rd NW Suite A - 120, Atlanta, GA 30305, USA",,,(404) 205-5588,https://www.rosettabakery.com/,bakery,"Atlanta, USA",google_maps
Paris Baguette,"4511 Olde Perimeter Way #800, Atlanta, GA 30346, USA",,,(470) 949-3878,https://parisbaguette.com/locations/ga/atlanta/4511-olde-perimeter-way/,bakery,"Atlanta, USA",google_maps
Sublime Doughnuts,"535 10th St NW, Atlanta, GA 30318, USA",Kamal Grant,,(404) 897-1801,http://www.sublimedoughnuts.com/,donut shop,"Atlanta, USA",google_maps
Flaky Not Flaky - Bake Shoppe and Chocolatarium,"Food Court, 303 Peachtree Center Ave NE, Atlanta, GA 30303, USA",,info@flakynotflaky.com,(770) 847-0427,http://www.flakynotflaky.com/,restaurant,"Atlanta, USA",google_maps
CEG Bakery,"2591 Piedmont Rd NE #1115, Atlanta, GA 30324, USA",,confiserieeg@gmail.com,(404) 462-1058,https://www.gourmetbakeryatlantaga.com/,bakery,"Atlanta, USA",google_maps
Bluebells Cakery - Kingsland,"361 New North Road, Kingsland, Auckland 1010, New Zealand",,orders@bluebellscakery.co.nz,09 377 3429,http://bluebellscakery.com/,cake shop,"Auckland, New Zealand",google_maps
The Bakers Cottage,"2 New Bond Street, Kingsland, Auckland 1021, New Zealand",,thebakerscottageltd@gmail.com,09 846 3299,https://thebakerscottage.co.nz/,bakery,"Auckland, New Zealand",google_maps
VANIYÉ Patisserie - Parnell,"1/7 Windsor Street, Parnell, Auckland 1052, New Zealand",,contact@vaniye.com,,https://www.vaniye.com/,cake shop,"Auckland, New Zealand",google_maps
Diehl's Bakery,"5/65 Hillside Road, Glenfield, Auckland 0627, New Zealand",,bakerydiehl@gmail.com,09 443 7992,https://www.diehlsbakery.com/,bakery,"Auckland, New Zealand",google_maps
Scratch Bakers,"5 Graham Street, Auckland CBD, Auckland 1010, New Zealand",,,09 307 2323,http://www.scratchbakers.co.nz/,cafe,"Auckland, New Zealand",google_maps
Mor Bakery,"158 Remuera Road, Remuera, Auckland 1050, New Zealand",,,,http://www.morbakery.co.nz/,bakery,"Auckland, New Zealand",google_maps
Levain,"224 White Swan Road, Blockhouse Bay, Auckland 1041, New Zealand",,,09 626 5940,,bakery,"Auckland, New Zealand",google_maps
La Voie Française,"4/875 Dominion Road, Mount Roskill, Auckland 1041, New Zealand",,,027 247 6705,https://m.facebook.com/LVFrancaise/,bakery,"Auckland, New Zealand",google_maps
Maison des Lys Pâtisserie (Grey Lynn),"567 Great North Road, Grey Lynn, Auckland 1021, New Zealand",,,,https://www.maisondeslys.co.nz/,pastry shop,"Auckland, New Zealand",google_maps
Richoux Patisserie,"119 Main Highway, Ellerslie, Auckland 1051, New Zealand",,,09 579 1815,,bakery,"Auckland, New Zealand",google_maps
Avi’s Pies and patisserie,"293/295 Great North Road, Grey Lynn, Auckland 1021, New Zealand",,,022 320 3899,https://www.ordermeal.co.nz/avis-pies-and-patisserie-auckland/,bakery,"Auckland, New Zealand",google_maps
Tart Bakery (Grey Lynn),"555 Great North Road, Grey Lynn, Auckland 1021, New Zealand",,,09 376 5535,https://www.tartbakery.co.nz/,bakery,"Auckland, New Zealand",google_maps
La Petite Fourchette,"g02/85 Daldy Street, Auckland CBD, Auckland 1010, New Zealand",,,09 869 3360,http://www.lapetitefourchette.co.nz/,pastry shop,"Auckland, New Zealand",google_maps
Wheatz Bakery,"13 Lorne Street, Auckland CBD, Auckland 1010, New Zealand",,,022 099 8272,,bakery,"Auckland, New Zealand",google_maps
Ano-ne Bread and Matcha,"187 Symonds Street, Eden Terrace, Auckland 1010, New Zealand",,,09 302 0027,https://mizubread.co.nz/,bakery,"Auckland, New Zealand",google_maps
Luna Bakehouse,"237 Broadway, Newmarket, Auckland 1023, New Zealand",,,,http://www.lunabakehousenz.com/,bakery,"Auckland, New Zealand",google_maps
Cinnamon Squared,"41 Victoria Street West, Auckland CBD, Auckland 1010, New Zealand",,,021 162 3144,,bakery,"Auckland, New Zealand",google_maps
Florets Bakery,"596 Great North Road, Grey Lynn, Auckland 1021, New Zealand",,maya@florets.nz,,https://florets.nz/,bakery,"Auckland, New Zealand",google_maps
Paris Mt Eden Bakery,"464 Mount Eden Road, Mount Eden, Auckland 1024, New Zealand",,,09 630 1426,https://www.facebook.com/parisbakerymteden/,bakery,"Auckland, New Zealand",google_maps
La Colmena,"Plaça de l'Àngel, 12, Ciutat Vella, 08002 Barcelona, Spain",,info@pastisserialacolmena.com,933 15 13 56,https://www.pastisserialacolmena.com/,pastry shop,"Barcelona, Spain",google_maps
Patisserie Hofmann,"Carrer dels Flassaders, 44, Ciutat Vella, 08003 Barcelona, Spain",,pastisseria@hofmann-bcn.com,932 68 82 21,http://hofmannpasteleria.com/,cake shop,"Barcelona, Spain",google_maps
Demasié,"Carrer de la Princesa, 28, Ciutat Vella, 08003 Barcelona, Spain",,info@demasie.es,932 69 11 80,http://cookiesdemasie.com/,pastry shop,"Barcelona, Spain",google_maps
Forn Mistral | Sant Antoni,"Rda. de Sant Antoni, 96, Ciutat Vella, 08001 Barcelona, Spain",,,933 01 80 37,http://www.fornmistral.com/,bakery,"Barcelona, Spain",google_maps
Baluard Barceloneta,"Carrer del Baluard, 38, Ciutat Vella, 08003 Barcelona, Spain",,,932 21 12 08,https://www.baluardbarceloneta.com/es?utm_source=GMB&utm_medium=WEB,bakery,"Barcelona, Spain",google_maps
Artesano Panadería y Pastelería,"Carrer de Sardenya, 443, local, Gràcia, 08025 Barcelona, Spain",,,617 11 00 14,https://www.artesanobcn.com/,bakery,"Barcelona, Spain",google_maps
Donatella Salento Bakery,"Carrer de Milans, 7, Ciutat Vella, 08002 Barcelona, Spain",,,,,bakery,"Barcelona, Spain",google_maps
Flor de Gràcia,"Carrer de Bruniquer, 9, Gràcia, 08012 Barcelona, Spain",,,607 01 33 00,https://www.instagram.com/flor.de.gracia/,bakery,"Barcelona, Spain",google_maps
Chök The Chocolate Kitchen,"Carrer de les Ramelleres, 26, Ciutat Vella, 08001 Barcelona, Spain",,urgell@chok.shop,936 81 78 49,https://www.chok.shop/,pastry shop,"Barcelona, Spain",google_maps
Villa Bakery,"Gran Via de les Corts Catalanes, 662, L 3, Eixample, 08010 Barcelona, Spain",,,663 86 76 53,,bakery,"Barcelona, Spain",google_maps
Pastisseria La Estrella,"Carrer Nou de la Rambla, 32, Ciutat Vella, 08001 Barcelona, Spain",,,623 93 03 89,https://pastisserialaestrella.com/,cake shop,"Barcelona, Spain",google_maps
Furnos,"Carrer de Marià Aguiló, 67, LOCAL, 2, Sant Martí, 08005 Barcelona, Spain",,,,https://www.furnos.es/,bakery,"Barcelona, Spain",google_maps
Origo Bakery,"Carrer de Milà i Fontanals, 9, Gràcia, 08012 Barcelona, Spain",,,644 52 20 40,https://www.origobakery.com/,bakery,"Barcelona, Spain",google_maps
Luiza’s Bakery,"Carrer de Cartagena, 174, Eixample, 08013 Barcelona, Spain",,,662 54 31 17,https://www.instagram.com/luizabakery/?hl=es,bakery,"Barcelona, Spain",google_maps
Origo Bakery,"Rda. de Sant Pau, 67, Eixample, 08015 Barcelona, Spain",,,684 77 20 23,https://www.origobakery.com/,bakery,"Barcelona, Spain",google_maps
Caelum,"Carrer de la Palla, 8, Ciutat Vella, 08002 Barcelona, Spain",,,933 02 69 93,https://www.instagram.com/caelumbcn/,cake shop,"Barcelona, Spain",google_maps
Obrador del Croissant,"Carrer de Cartagena, 326, Eixample, 08025 Barcelona, Spain",,,934 35 16 58,,bakery,"Barcelona, Spain",google_maps
La Pastisseria Barcelona,"Carrer d'Aragó, 228, Eixample, 08007 Barcelona, Spain",,info@website.com,934 51 84 01,https://www.lapastisseriabarcelona.com/,pastry shop,"Barcelona, Spain",google_maps
Jon Cake,"Carrer de Sant Pere Més Baix, 36, Ciutat Vella, 08003 Barcelona, Spain",,,938 39 34 13,https://www.joncake.es/en/info,cake shop,"Barcelona, Spain",google_maps
COOKONA,"Carrer del Rosselló, 160, Eixample, 08036 Barcelona, Spain",,sabrina@cookona.com,665 20 04 61,https://www.cookona.com/,pastry shop,"Barcelona, Spain",google_maps
Zeit für Brot,"Alte Schönhauser Str. 4, 10119 Berlin, Germany",,,030 28046780,https://zeitfuerbrot.com/,bakery,"Berlin, Germany",google_maps
Du Bonheur,"Brunnenstraße 39, 10115 Berlin, Germany",,,030 56591955,https://www.dubonheur.de/,pastry shop,"Berlin, Germany",google_maps
Café Bakery Süss,"Sonnenallee 5, 12047 Berlin, Germany",,,030 61288483,https://www.facebook.com/Cafe-B%C3%A4ckerei-S%C3%BCss-128955517179461,bakery,"Berlin, Germany",google_maps
Anjoy Pastry,"Karl-Liebknecht-Str. 23, 10178 Berlin, Germany",,,030 62860942,https://www.anjoypastry.de/,pastry shop,"Berlin, Germany",google_maps
Der Kuchenladen,"Kantstraße 138, 10623 Berlin, Germany",,post@derkuchenladen.de,030 31018424,https://derkuchenladen.de/,cake shop,"Berlin, Germany",google_maps
Albatross Bakery,"Graefestraße 66/67, 10967 Berlin, Germany",,,,http://albatrossberlin.com/,bakery,"Berlin, Germany",google_maps
Siebert Bakery,"Schönfließer Str. 12, 10439 Berlin, Germany",,info@baeckerei-siebert.de,030 4457576,http://www.baeckerei-siebert.de/,bakery,"Berlin, Germany",google_maps
Madame Paloma Bakehouse,"Colbestraße 3, 10247 Berlin, Germany",,,,https://madamepaloma.de/,bakery,"Berlin, Germany",google_maps
Les Pâtisseries de Sébastien,"Invalidenstraße 157, 10115 Berlin, Germany",,,0176 49556708,https://www.facebook.com/Les-Patisseries-de-Sebastien-239890682731104/,pastry shop,"Berlin, Germany",google_maps
Aux Merveilleux de Fred,"Olivaer Pl. 2, 10707 Berlin, Germany",,,030 89657184,http://www.auxmerveilleux.com/,pastry shop,"Berlin, Germany",google_maps
CANAL - Linienstraße,"Linienstraße 54, 10119 Berlin, Germany",,,,http://www.canal.berlin/,pastry shop,"Berlin, Germany",google_maps
Jute Bäckerei,"Schönhauser Allee 52A, 10437 Berlin, Germany",,,030 68006558,http://www.jute-bäckerei.de/,bakery,"Berlin, Germany",google_maps
FREA Bakery & Cafe,"Gartenstraße 9, 10115 Berlin, Germany",,,030 13897068,http://www.freabakery.de/,bakery,"Berlin, Germany",google_maps
Café Bakery Bonjour,"Markgrafenstraße 19, 10969 Berlin, Germany",,,030 60938245,,bakery,"Berlin, Germany",google_maps
CANAL - Sophienstraße,"Sophienstraße 5, 10178 Berlin, Germany",,,,https://www.canal.berlin/,pastry shop,"Berlin, Germany",google_maps
Krautzig,"Schönhauser Allee 126, 10437 Berlin, Germany",,,030 4485163,http://www.konditorei-krautzig.de/,bakery,"Berlin, Germany",google_maps
Café & Patisserie Lézard Berlin,"Bamberger Str. 49, 10779 Berlin, Germany",,info@lezardtorten.de,030 23621300,https://lezardtorten.de/,pastry shop,"Berlin, Germany",google_maps
tigertörtchen Café - Berlin Cupcakes,"Spandauer Str. 25, 10178 Berlin, Germany",,,030 67969051,https://www.tigertoertchen.de/,cafe,"Berlin, Germany",google_maps
Wiener Brot Wood Oven Bakery,"Tucholskystraße 31, 10117 Berlin, Germany",,,030 32516526,http://www.wienerbrot.de/,bakery,"Berlin, Germany",google_maps
The Sanctuary - Mitte,"Torstraße 175, 10115 Berlin, Germany",,,,http://thesanctuaryberlin.com/,bakery,"Berlin, Germany",google_maps
Les Amis Pastry Shop,"Cra, 16 #86A-05, Chapinero, Bogotá, Cundinamarca, Colombia",,,318 7647321,https://www.lesamisbizcocheria.com/,cafe,"Bogota, Colombia",google_maps
Castellana 104 - Panadería - Pastelería - Café,"Cra 19 #104-49, Bogotá, Colombia",,,320 4401151,http://www.castellana104.com/,bakery,"Bogota, Colombia",google_maps
Árbol del Pan,"Cl. 66 Bis #4-63, Chapinero, Bogotá, Cundinamarca, Colombia",,,312 7039828,,bakery,"Bogota, Colombia",google_maps
Brot,"Cl. 81 #7-93, Bogotá, Colombia",,,7037304,http://www.brot.com.co/,bakery,"Bogota, Colombia",google_maps
Brot Apice 97,"Cra. 11B # 97, 56, Chapinero, Bogotá, Cundinamarca, Colombia",,,(601) 3001776,http://www.brot.com.co/,bakery,"Bogota, Colombia",google_maps
Hornitos Quinta Paredes,"Av. La Esperanza #43A – 90, Teusaquillo, Bogotá, Cundinamarca, Colombia",,,(601) 7561515,https://hornitos.co/,bakery,"Bogota, Colombia",google_maps
"Florida, Bakery and Coffee shop","Cra. 7 #21-46, Bogotá, Colombia",,,313 3937874,https://www.pasteleriaflorida.com.co/,bakery,"Bogota, Colombia",google_maps
Best Bread De Colombia - Fondant Cakes,"Cl. 148 #19-20, Bogotá, Colombia",,,(601) 6152803,http://www.elmejorpandecolombia.com/,bakery,"Bogota, Colombia",google_maps
Mi Rincón Francés,"Cl 12c #3/64, La Candelaria, Bogotá, Cundinamarca, Colombia",,,313 2234346,,bakery,"Bogota, Colombia",google_maps
Philippe - Pastelería Light,"Cl. 109 #17 - 10, Bogotá, Colombia",,,(601) 2131366,https://www.philippe.com.co/,bakery,"Bogota, Colombia",google_maps
Bealé Pâtisserie,"Cra. 12 #70a-20, Bogotá, Colombia",,contacto@beale.com.co,301 3997944,http://www.beale.com.co/,dog cafe,"Bogota, Colombia",google_maps
Roca Pan y Helado Artesanal,"Cl. 68 #6-96, Chapinero, Bogotá, Cundinamarca, Colombia",,,311 8850495,https://linktr.ee/rocapanyhelado,bakery,"Bogota, Colombia",google_maps
Jacques,"Cl. 109 #15-48, Bogotá, Colombia",,,6205747,https://www.instagram.com/jacquesoficiall?igsh=MW9ieTFzbGxyZzVpbw==,bakery,"Bogota, Colombia",google_maps
Mistral,"C. 56A #4-09, Bogotá, Colombia",,,316 0182684,http://www.mistralencasa.com/,french restaurant,"Bogota, Colombia",google_maps
Hornitos Av. El Dorado,"Av. El Dorado #78-20, Engativá, Bogotá, Cundinamarca, Colombia",,,(601) 7561515,https://www.hornitos.co/,bakery,"Bogota, Colombia",google_maps
Bastille,"Cl. 12b #6-58, Bogotá, Colombia",,,319 5400547,https://instagram.com/bastille.pasteleria?igshid=YmMyMTA2M2Y=,bakery,"Bogota, Colombia",google_maps
Dolce Citta,"Ac. 24 #47A-48, Teusaquillo, Bogotá, Cundinamarca, Colombia",,dolcecittabog@gmail.com,310 2240314,https://www.dolcecitta.com/,bakery,"Bogota, Colombia",google_maps
Muffins y Panes,"Cra. 53 #103B-01, Suba, Bogotá, Colombia",,,(601) 6232140,,bakery,"Bogota, Colombia",google_maps
Rabbit French Bakery,"Cra. 7c Bis #139-65, Usaquén, Bogotá, Colombia",,,300 5691717,,wholesaler,"Bogota, Colombia",google_maps
Dalu Bakery,"Transversal 24# #53d-51, Teusaquillo, Bogotá, Cundinamarca, Colombia",,,322 8824335,,coffee shop,"Bogota, Colombia",google_maps
Bova's Bakery,"134 Salem St, Boston, MA 02113, USA",,info@bovabakeryboston.net,(617) 523-5601,http://bovabakeryboston.net/,bakery,"Boston, USA",google_maps
Mike's Pastry,"300 Hanover St, Boston, MA 02113, USA",,,(617) 742-3050,http://www.mikespastry.com/,pastry shop,"Boston, USA",google_maps
Bakey,"151 Tremont St, Boston, MA 02111, USA",,,(617) 670-0114,https://www.bakeybabka.com/,bakery,"Boston, USA",google_maps
Modern Pastry Shop,"257 Hanover St, Boston, MA 02113, USA",,,(617) 523-3783,https://www.modernpastry.com/,pastry shop,"Boston, USA",google_maps
Flour Bakery + Cafe,"1595 Washington St, Boston, MA 02118, USA",Of Operations Learn,,(617) 267-4300,http://www.flourbakery.com/,bakery,"Boston, USA",google_maps
Levain Bakery,"180 Newbury St, Boston, MA 02116, USA",,,(617) 390-7799,https://levainbakery.com/pages/boston,bakery,"Boston, USA",google_maps
Flour Bakery + Cafe,"131 Clarendon St, Boston, MA 02116, USA",Of Operations Learn,,(617) 437-7700,http://www.flourbakery.com/,bakery,"Boston, USA",google_maps
Parziale's Bakery,"80 Prince St, Boston, MA 02113, USA",,parzbakery@gmail.com,(617) 523-6368,http://www.parzialesbakery.com/,bakery,"Boston, USA",google_maps
Flour Bakery + Cafe,"12 Farnsworth St, Boston, MA 02210, USA",Of Operations Learn,,(617) 338-4333,http://www.flourbakery.com/,bakery,"Boston, USA",google_maps
Tatte Bakery & Cafe | Charles St,"70 Charles St, Boston, MA 02114, USA",,,(617) 723-5555,https://tattebakery.com/,cafe,"Boston, USA",google_maps
South End Buttery,"314 Shawmut Ave, Boston, MA 02118, USA",,,(617) 482-1015,https://www.southendbuttery.com/,american restaurant,"Boston, USA",google_maps
Tatte Bakery & Cafe | Back Bay,"399 Boylston St, Boston, MA 02116, USA",,,(617) 366-1555,https://tattebakery.com/,cafe,"Boston, USA",google_maps
Tous les Jours,"152 Harvard Ave, Allston, MA 02134, USA",,,(617) 787-1069,http://www.tljus.com/,bakery,"Boston, USA",google_maps
Tatte Bakery & Cafe | Emerson,"80 Boylston St, Boston, MA 02116, USA",,,(857) 277-1751,https://tattebakery.com/,cafe,"Boston, USA",google_maps
Lolly's Bakery,"158 Bennington St, East Boston, MA 02128, USA",,,(617) 567-9461,https://lollysbakeries.com/,bakery,"Boston, USA",google_maps
Levain Bakery,"107 Seaport Blvd, Boston, MA 02210, USA",,,(617) 925-7959,https://levainbakery.com/pages/seaport-boston-ma,bakery,"Boston, USA",google_maps
Tatte Bakery & Cafe | Summer St,"125 Summer St, Boston, MA 02111, USA",,,(617) 488-9525,https://tattebakery.com/,israeli restaurant,"Boston, USA",google_maps
Colette Bakery,"517 Columbus Ave, Boston, MA 02118, USA",,,(857) 449-6121,https://www.colettebakery.com/locations-and-hours,bakery,"Boston, USA",google_maps
Tatte Bakery & Cafe | One Boston Place,"201 Washington St, Boston, MA 02111, USA",,,(617) 904-9030,https://tattebakery.com/,cafe,"Boston, USA",google_maps
Bricco Panetteria,"241 Hanover St, Boston, MA 02113, USA",,,(617) 248-9859,https://www.briccosalumeria.com/panetteria/,bakery,"Boston, USA",google_maps
Daniel Bakery,"Honduras 3714, C1180 Cdad. Autónoma de Buenos Aires, Argentina",,,,https://instagram.com/danielbakery,bakery,"Buenos Aires, Argentina",google_maps
Confitería La Ideal,"Suipacha 384, C1008AAF Cdad. Autónoma de Buenos Aires, Argentina",,,011 15-6801-1519,https://laideal.ar/,cafe,"Buenos Aires, Argentina",google_maps
ANDRA Bakery,"Vicente López 2238, C1128ACJ Cdad. Autónoma de Buenos Aires, Argentina",,,011 4311-3332,https://instagram.com/andrabakery?igshid=YmMyMTA2M2Y=,pastry shop,"Buenos Aires, Argentina",google_maps
Cocu Boulangerie,"Malabia 1510, C1414 Cdad. Autónoma de Buenos Aires, Argentina",,,011 15-3026-6000,https://www.instagram.com/cocuboulangerie/,cafe,"Buenos Aires, Argentina",google_maps
Amayta Pâtisserie,"Juncal 1207, C1001 Cdad. Autónoma de Buenos Aires, Argentina",,,,https://www.instagram.com/amayta.patisserie/,cafe,"Buenos Aires, Argentina",google_maps
Malcriada BAKERY DE BARRIO,"Dr. Emilio Ravignani 1338, C1414 Cdad. Autónoma de Buenos Aires, Argentina",,,,http://www.instagram.com/malcriada.arg,pastry shop,"Buenos Aires, Argentina",google_maps
Salvaje Bakery,"Av. Dorrego 1829, C1414 Cdad. Autónoma de Buenos Aires, Argentina",,,011 2474-3573,https://www.instagram.com/salvajebakery/?hl=en,cafe,"Buenos Aires, Argentina",google_maps
OBRADOR de Panes & Galletas,"Chile 524, C1098 Cdad. Autónoma de Buenos Aires, Argentina",,,,https://www.instagram.com/obradordepanes/,bakery,"Buenos Aires, Argentina",google_maps
Le Moulin de la Fleur,"Vicente López 1699, C1019 Cdad. Autónoma de Buenos Aires, Argentina",,,011 4811-3372,https://www.instagram.com/lemoulindelafleur?igsh=MXVjbDh5NmpuMWc4NQ==,french restaurant,"Buenos Aires, Argentina",google_maps
Co-Pain,"Juan B. Ambrosetti 901, C1414 Cdad. Autónoma de Buenos Aires, Argentina",,,,,bakery,"Buenos Aires, Argentina",google_maps
Buenos Aires Bakery,"Av. Gral. Las Heras 3501, C1425 Cdad. Autónoma de Buenos Aires, Argentina",,fo@buenosairesbakery.com.ar,011 4807-9507,http://www.buenosairesbakery.com.ar/,bakery,"Buenos Aires, Argentina",google_maps
Bakery NTRA. Ms. DEL VALLE,"Av. Córdoba 3249, C1187 Cdad. Autónoma de Buenos Aires, Argentina",,,011 4962-4757,https://www.facebook.com/nsdelvalle.panaderia/?locale=es_LA,bakery,"Buenos Aires, Argentina",google_maps
La Pâtisserie @recoleta,"Posadas 1232, C1011 Cdad. Autónoma de Buenos Aires, Argentina",,,011 4819-1129,https://sofitel.mesa.express/,pastry shop,"Buenos Aires, Argentina",google_maps
Baker House pastry boutique,"Molina 1412, C1408FUH Cdad. Autónoma de Buenos Aires, Argentina",,,,,pastry shop,"Buenos Aires, Argentina",google_maps
Galia Bakehouse,"Malabia 2317, C1425 Cdad. Autónoma de Buenos Aires, Argentina",,,011 2579-3235,http://linktr.ee/cafegalia,bakery,"Buenos Aires, Argentina",google_maps
Jason Bakery,"83 Main Rd, Green Point, Cape Town, 8005, South Africa",,,021 433 0538,http://www.jasonbakery.com/,bakery,"Cape Town, South Africa",google_maps
Charly's Bakery,"36-38 Canterbury St, District Six, Cape Town, 8001, South Africa",,,021 461 5181,http://www.charlysbakery.co.za/,bakery,"Cape Town, South Africa",google_maps
Tessa's Bakery,"Milpark Centre, Jasmin Rd, Milnerton, Cape Town, 7441, South Africa",,order@tessasbakery.co.za,021 551 6107,http://www.tessasbakery.co.za/,bakery,"Cape Town, South Africa",google_maps
MARTINS,"43 Main Rd, Diep River, Cape Town, 7800, South Africa",,,021 712 8555,https://martinsbakery.co.za/,bakery,"Cape Town, South Africa",google_maps
Wembley Bakery,"23 Belgravia Rd, Belgravia, Cape Town, 7764, South Africa",,contact@archi.com,021 697 1434,https://wembley.co.za/confectioners/,bakery,"Cape Town, South Africa",google_maps
Classic Bakery,"212 Thornton Rd, Crawford, Cape Town, 7780, South Africa",,classicbaker@mweb.co.za,021 696 9437,http://www.classicbakery.co.za/,bakery,"Cape Town, South Africa",google_maps
PARIS CAPE TOWN,"343 Main Rd, Sea Point, Cape Town, 8005, South Africa",,,076 138 2335,https://www.instagram.com/paris_cape_town/,bakery,"Cape Town, South Africa",google_maps
Sweet LionHeart,"Unit 14, Sweet LionHeart, Wembley Square, Roodehek St, Gardens, Cape Town, 8001, South Africa",,,,http://sweetlionheart.com/,cake shop,"Cape Town, South Africa",google_maps
Woodstock Bakery,"15 Brickfield Rd, Woodstock, Cape Town, 7925, South Africa",,,074 797 7324,,bakery,"Cape Town, South Africa",google_maps
Coimbra Bakery,"152 Imam Haron Rd, Claremont, Cape Town, 7780, South Africa",,,021 683 3083,https://www.coimbrabakery.co.za/,bakery,"Cape Town, South Africa",google_maps
Oswalds Bakery,"28 Union St, Gardens, Cape Town, 8001, South Africa",,,064 028 3554,https://www.facebook.com/Oswalds-Bakery-103364138281097,bakery,"Cape Town, South Africa",google_maps
Limnos Bakers,"Entrance B, Sovereign Quay, 34 Somerset Rd, Green Point, Cape Town, 8001, South Africa",,info@limnosbakers.co.za,021 425 1456,http://www.limnosbakers.co.za/,bakery,"Cape Town, South Africa",google_maps
The Cinnamon Club,"8 The Courtyard Street, West Beach, Cape Town, 7441, South Africa",,,074 834 3479,https://cinnamonclub.co.za/,cake shop,"Cape Town, South Africa",google_maps
CAFE CHIFFON,"SHOGF007, Old Cape Quarter, 72 Waterkant St, Green Point, Cape Town, 8001, South Africa",,,068 035 5552,https://www.instagram.com/cafechiffon.cpt/,cafe,"Cape Town, South Africa",google_maps
Vovo Telo Bakery & Café V&A Waterfront,"Shop 2, V&A Waterfront, The Wine Centre, Dock Rd, Victoria & Alfred Waterfront, Cape Town, 8001, South Africa",,,063 688 2745,https://vovotelo.co.za/,cafe,"Cape Town, South Africa",google_maps
Hmmm,"Glynn St, Gardens, Cape Town, 8000, South Africa",,info@hmmmbakery.co.za,021 462 1950,http://www.hmmmbakery.co.za/,bakery,"Cape Town, South Africa",google_maps
Crumb Cakes,"Studio G06, Salt Circle, 374 Albert Rd, Woodstock, Cape Town, 7915, South Africa",,hello@crumb.co.za,078 634 8325,https://www.crumb.co.za/,bakery,"Cape Town, South Africa",google_maps
Bentleys Bread Co.,"Block B, The Boulevard Office Park, 1 Searle St, Woodstock, Cape Town, 7925, South Africa",,,021 007 0990,,coffee shop,"Cape Town, South Africa",google_maps
New York Bagels,"44 Harrington St, District Six, Cape Town, 8001, South Africa",,,082 697 6061,https://www.facebook.com/NYBCT/,bagel shop,"Cape Town, South Africa",google_maps
Magnolia Bakery - Chicago,"108 N State St, Chicago, IL 60602, USA",Magnolia Bakery,hello@magnoliabakery.com,(312) 346-7777,http://www.magnoliabakery.com/,bakery,"Chicago, USA",google_maps
Levain Bakery,"408 N Clark St, Chicago, IL 60654, USA",,,(872) 395-5573,https://levainbakery.com/pages/river-north-chicago,bakery,"Chicago, USA",google_maps
Jennivee's Bakery & Cafe,"2925 N Halsted St, Chicago, IL 60657, USA",,,(773) 941-7200,http://www.jenniveesbakery.com/,bakery,"Chicago, USA",google_maps
Levain Bakery,"840 W Randolph St, Chicago, IL 60607, USA",,,(312) 300-0654,https://levainbakery.com/pages/west-loop,bakery,"Chicago, USA",google_maps
Sweet Mandy B's Bakery,"1208 W Webster Ave, Chicago, IL 60614, USA",,,(773) 244-1174,http://www.sweetmandybs.com/,bakery,"Chicago, USA",google_maps
Weber's Bakery,"7055 W Archer Ave, Chicago, IL 60638, USA",,info@webersbakery.com,(773) 586-1234,http://www.webersbakery.com/,bakery,"Chicago, USA",google_maps
Tous Les Jours,"2144 S Archer Ave unit a, Chicago, IL 60616, USA",,,(312) 225-8488,http://www.tljus.com/,bakery,"Chicago, USA",google_maps
Roeser's Bakery,"3216 W North Ave, Chicago, IL 60647, USA",,info@roeserscakes.com,(773) 489-6900,https://www.roeserscakes.com/,bakery,"Chicago, USA",google_maps
Sugar Moon,"3612 W Wrightwood Ave, Chicago, IL 60647, USA",,sugarmoonchicago@gmail.com,,http://sugarmoonchicago.com/,bakery,"Chicago, USA",google_maps
The Bakehouse Chicago,"2009 W Roscoe St, Chicago, IL 60618, USA",,info@thebakehousechicago.com,(773) 800-6296,http://www.thebakehousechicago.com/,cafe,"Chicago, USA",google_maps
Lutz Bakery,"2458 W Montrose Ave, Chicago, IL 60618, USA",,info.lutzbakery@gmail.com,(773) 478-7785,http://www.chicago-bakery.com/,bakery,"Chicago, USA",google_maps
Wake N Bakery Chicago Downtown,"38 E Ontario St, Chicago, IL 60611, USA",Up Pre,admin@wakenbakery.com,(312) 405-3608,http://wakenbakery.net/,coffee shop,"Chicago, USA",google_maps
Lost Larson (Andersonville),"5318 N Clark St, Chicago, IL 60640, USA",,,(773) 944-0587,http://lostlarson.com/,bakery,"Chicago, USA",google_maps
Alliance Bakery — Division,"1736 W Division St, Chicago, IL 60622, USA",,info@alliancebakery.com,(312) 363-3015,http://www.alliancebakery.com/,bakery,"Chicago, USA",google_maps
D'Amato's Bakery,"1124 W Grand Ave, Chicago, IL 60642, USA",,,(312) 733-5456,https://damatoschicago.com/,bakery,"Chicago, USA",google_maps
Le French Patisserie,"505 N Jean Baptiste Pointe du Sable Lake Shore Dr, Chicago, IL 60611, USA",,,(312) 392-2292,,bakery,"Chicago, USA",google_maps
Tous Les Jours,"1726 W Division St, Chicago, IL 60622, USA",,,(773) 697-8227,https://tljus.com/stores/chicago-1726-west-division-st?utm_source=google&utm_medium=gbp&utm_campaign=division-st-chicago,bakery,"Chicago, USA",google_maps
Paris Baguette,"325 E Illinois St, Chicago, IL 60611, USA",,,(312) 809-0212,https://parisbaguette.com/locations/il/chicago/325-e-illinois-street/,bakery,"Chicago, USA",google_maps
defloured: A Gluten Free Bakery,"1477 W Balmoral Ave, Chicago, IL 60640, USA",,info@deflouredbakery.com,(773) 234-5733,http://deflouredbakery.com/,bakery,"Chicago, USA",google_maps
Bittersweet Pastry Shop & Cafe,"1114 W Belmont Ave, Chicago, IL 60657, USA",,info@bittersweetpastry.com,(773) 929-1100,https://bittersweetpastry.com/,pastry shop,"Chicago, USA",google_maps
Wenger's,"Shop No: A, 16 Near Road, Inner Cir, Block A, Connaught Place, New Delhi, Delhi 110001, India",,,093541 34477,http://www.wengers.in/,bakery,"Delhi, India",google_maps
The Big Chill Cakery,"3-b, 68 A, Khan Market, Rabindra Nagar, New Delhi, Delhi 110003, India",,,011 4004 1500,,bakery,"Delhi, India",google_maps
Tuileries patisserie - Premium Cakes in Delhi,"A 28, Industrial Area Phase I, Block A, Naraina Industrial Area Phase 1, Naraina, New Delhi, Delhi, 110028, India",,,096506 13045,https://tuileriespatisserie.in/,pastry shop,"Delhi, India",google_maps
Defence Bakery Since 1962 Def Col,"Shop 34, Market, Block A, Defence Colony, New Delhi, Delhi 110024, India",,operations@defencebakery.in,011 4669 8829,http://www.defencebakery.in/,bakery,"Delhi, India",google_maps
Puri Bakers – Top Bakery in Paschim Vihar| Affordable bakery in Delhi | Paschim Vihar,"A3, 264, opposite ICICI Bank, Police Colony, A 3 Block, Paschim Vihar, New Delhi, Delhi, 110063, India",,,011 4735 4687,,bakery,"Delhi, India",google_maps
Maxim's Bakers & Confectioners,"HS -3, Kailash Colony Market, Greater Kailash-1, Greater Kailash, New Delhi, Delhi 110048, India",,,088104 34557,,bakery,"Delhi, India",google_maps
Risata Bakery & Patisserie,"349, GH 14, Block GH 14, Paschim Vihar, New Delhi, Delhi, 110087, India",,,098738 22738,,bakery,"Delhi, India",google_maps
Fronbis Biscuit & More by Frontier - Bakery in Punjabi Bagh | Eggless Premium Biscuits Brand in Delhi,"Plot no. 42, Club Rd, West Punjabi Bagh, Punjabi Bagh, Delhi, 110026, India",,connect@frontierbiscuit.com,081305 90636,https://frontierbiscuit.com/,bakery,"Delhi, India",google_maps
Demould Bakery| Best Cakes & Hampers in West Delhi,"Shop No 4, C8/1, Pocket 8, Sector 7, Rohini, New Delhi, Delhi, 110085, India",,,084479 25925,http://demould.in/,bakery,"Delhi, India",google_maps
Mr. Crust Bakers,"B-29b, Vijay Nagar Marg, opposite Mother Dairy, Block B, Vijay Nagar, New Delhi, Delhi, 110033, India",,,097110 71071,http://mrcrust.co/,bakery,"Delhi, India",google_maps
Puri Bakers,"17, Shyamji Krishna Varma Marg, Engineers Enclave, Harsh Vihar, Pitampura, Delhi, 110034, India",,,011 4558 9556,,bakery,"Delhi, India",google_maps
Bread & More,"C/21, Cross Rd 7, Block C, Vasant Vihar, New Delhi, Delhi 110057, India",,,011 4100 4855,,bakery,"Delhi, India",google_maps
Bakery Wala The Cake Shop,"B-6/151, Shiva Rd, C Block, Sector 8B, Sector 8, Rohini, New Delhi, Delhi, 110085, India",,,097189 49000,,bakery,"Delhi, India",google_maps
NIK BAKER'S,"plot no 39, Club Rd, NEAR ANDHRA BANK, West Punjabi Bagh, Punjabi Bagh, Delhi, 110026, India",,customercare@nikbakers.com,011 4573 3232,http://www.nikbakers.com/,bakery,"Delhi, India",google_maps
Ever Bake,"BN-2 Shalimar Bagh West Local Shopping Centre, Block BR, West Shalimar Bagh, Shalimar Bagh, New Delhi, Delhi, 110088, India",,,093506 05566,,cake shop,"Delhi, India",google_maps
Delhi Baking Company,"Asset Area 4, Aerocity, Indira Gandhi International Airport, Aerocity, New Delhi, Delhi 110037, India",,,011 4521 2127,https://promos.marriott.com/DELAP/marriott-on-wheels,tea house,"Delhi, India",google_maps
The Fairy Bake,"306 Lodhi Road Complex-1, Lodhi Rd, opposite Sai Baba Mandir, Pragati Vihar, New Delhi, Delhi 110003, India",,,095609 63517,,bakery,"Delhi, India",google_maps
Cookies & Crumbs by Devaagya,"Apna Ghar Society, Sant Nagar, Rani Bagh, Pitampura, New Delhi, Delhi, 110034, India",,,076782 62077,https://instagram.com/cookiesandcrumbsbydc?utm_medium=copy_link,bakery,"Delhi, India",google_maps
Cake Emporium,"WZ-790A, Rani Bagh Rd, Rishi Nagar, Pitampura, New Delhi, Delhi, 110034, India",,,097170 20568,,bakery,"Delhi, India",google_maps
"Theobroma Bakery and Cake Shop - Punjabi Bagh, New Delhi","Property No. 17, Upper Ground Floor, Adarsh Bhawan Building Society, Main, Club Rd, Punjabi Bagh, New Delhi, Delhi, 110026, India",,contact@theobroma.in,081828 81881,https://order.theobroma.in/order/theobroma-punjabi-bagh-delhi-ncr,cake shop,"Delhi, India",google_maps
Bakerist,Al Khail Rd - Hadaeq Sheikh Mohammed Bin Rashid - Dubai - United Arab Emirates,,,054 266 2529,https://linktr.ee/bakerist_uae?utm_source=linktree_profile_share&ltsid=4613d6f6-97cb-4144-9b91-56036ba9d4c3,restaurant,"Dubai, UAE",google_maps
"Risen Café and Artisanal Bakery, Dubai Marina",Millennium Place Marina Hotel Area - Ground Floor - Marsa Dubai - Dubai Marina - Dubai - United Arab Emirates,,,04 550 8112,https://risendubai.com/location/dubai-marina/?utm_source=listings&utm_medium=organic&utm_content=ws,cafe,"Dubai, UAE",google_maps
Artisan Bakers - Umm Suqeim,3 Umm Suqeim St - Umm Suqeim Third - Umm Suqeim 3 - Dubai - United Arab Emirates,,,04 329 6249,https://artisanbakers.ae/,cake shop,"Dubai, UAE",google_maps
Bageri Form,Building 4 - Zaa'beel Second - Dubai Design District - Dubai - United Arab Emirates,,hello@bageriform.com,04 570 8777,https://www.bageriform.com/,bakery,"Dubai, UAE",google_maps
Tout De Sweet,"Wasl Square, Bloc 4 - Shop 14 - 14 Al Wasl Rd - Al Safa 1 - Al Safa - Dubai - United Arab Emirates",,,050 882 7171,,pastry shop,"Dubai, UAE",google_maps
French Bakery | Birthday Cakes | Cake Shop,Behind Shangrila Hotel - شارع المركز المالي - Al Satwa - Al Safa - Dubai - United Arab Emirates,,,055 759 8696,http://www.frenchbakery.cafe/,bakery,"Dubai, UAE",google_maps
Milk Bakery,6796+67 Wasl 51 building - Al Wasl Rd - Al Wasl - Jumeirah 1 - Dubai - United Arab Emirates,,,04 344 5444,http://milkbar.ae/,bakery,"Dubai, UAE",google_maps
Home Bakery Dubai Mall,The Dubai Mall Fashion Avenue - 1st Floor - Burj Khalifa - Downtown Dubai - Dubai - United Arab Emirates,,,04 388 8558,http://www.homebakery.ae/,cafe,"Dubai, UAE",google_maps
Hampstead Bakery and Cafe,"Downtown Kitchens Shop No FV-BF-FH-26, Ground Floor - Fountain Views - بوليفارد الشيخ محمد بن راشد - برج خليفة - وسط مدينة دبي - دبي - United Arab Emirates",,info@thehampsteadbakery.com,050 583 0155,https://www.thehampsteadbakery.com/,bakery,"Dubai, UAE",google_maps
Ladurée,"Fashion Avenue 1st Floor, The Dubai Mall - Financial Ctr St - Burj Khalifa - Downtown Dubai - Dubai - United Arab Emirates",,,04 339 8520,https://www.laduree.ae/,cake shop,"Dubai, UAE",google_maps
Magnolia Bakery,"Dubai Festival City, Ground Floor, Festival Square - Al Kheeran - Dubai Festival City - Dubai - United Arab Emirates",,,04 288 1539,https://www.altayer.com/en/retail/hospitality/magnolia-bakery/,american restaurant,"Dubai, UAE",google_maps
MUUNS Cakes and Bakery,Building 4 - Khalid Bin Al Waleed Rd - near York International Hotel - Bur Dubai - Al Souq Al Kabeer - Dubai - United Arab Emirates,,,056 740 2246,https://muuns.ae/,cake shop,"Dubai, UAE",google_maps
Bake N More Café & Factory,Al QuozAl - 12 27th St - Al Qouz Ind.third - Al Quoz - Dubai - United Arab Emirates,,info@bakenmore.ae,050 780 0813,https://www.bakenmore.ae/,bakery,"Dubai, UAE",google_maps
BABA ROMA,Burj Khalifa - Downtown Dubai - Dubai - United Arab Emirates,,,04 553 6904,http://www.babaroma.com/,cafe,"Dubai, UAE",google_maps
Butter & Bread - BurJuman Mall,"Burjuman Mall - Ground floor, Shop # 13E - Al Mankhool - Dubai - United Arab Emirates",,,054 510 9588,https://www.instagram.com/butterbread_bakery/,bakery,"Dubai, UAE",google_maps
Bread Ahead Bakery | Mall Of Emirates,Mall of The Emirates - Sheikh Zayed Rd - Al Barsha First - Floor 1 - Dubai - United Arab Emirates,The Team Read,admin@breadahead.com,04 344 8895,http://www.breadahead.com/,bakery,"Dubai, UAE",google_maps
"Risen Café and Artisanal Bakery, Barsha Heights",Grand Heights Hotel Apartments - Ground Floor - Al Thanyah First - Barsha Heights - Dubai - United Arab Emirates,,,04 879 1630,https://risendubai.com/location/barsha-heights/?utm_source=listings&utm_medium=organic&utm_content=ws,cafe,"Dubai, UAE",google_maps
"Habib Bakery- Al Karama, Dubai",33 6A St - Al Karama - Dubai - United Arab Emirates,,info@habibbakery.ae,056 255 5377,http://www.habibbakery.ae/,bakery,"Dubai, UAE",google_maps
Magnolia Bakery,"Lower Ground,Dubai Mall - Financial Ctr St - Burj Khalifa - Downtown Dubai - Dubai - United Arab Emirates",,,04 350 5440,https://www.altayer.com/en/retail/hospitality/magnolia-bakery/,bakery,"Dubai, UAE",google_maps
Bread 41,"41 Pearse St, Dublin 2, D02 H308, Ireland",,,,https://www.bread41.ie/,bakery,"Dublin, Ireland",google_maps
Russell Street Bakery,"Unit 2, Behan Square, Russell St, Dublin, D01 HX78, Ireland",,,,https://www.instagram.com/russellst.bakery/,bakery,"Dublin, Ireland",google_maps
The Bakery Temple Bar,"8 Essex St W, Temple Bar, Dublin, Ireland",,,(01) 672 9882,https://www.facebook.com/thebakerydublin/,bakery,"Dublin, Ireland",google_maps
Mannings Bakery,"39/40 Thomas St, The Liberties, Dublin 8, Ireland",,enquiries@manningsbakeryshops.ie,(01) 454 2114,http://www.manningsbakeryshops.ie/,bakery,"Dublin, Ireland",google_maps
Green Door Bakery,"91 Manor St, Stoneybatter, Dublin 7, D07 RK80, Ireland",,,089 474 9792,https://www.facebook.com/The-Green-Door-Bakery-744301338928173/,bakery,"Dublin, Ireland",google_maps
Hansel and Gretel Bakery & Patisserie,"20 Clare St, Dublin 2, D02 TD45, Ireland",,,(01) 678 7896,https://www.facebook.com/HanselandGretelBakeryPatisserie/,bakery,"Dublin, Ireland",google_maps
il Valentino Bakery & Cafe,"5, Gallery Quay, Grand Canal Dock, Dublin 2, D02 N265, Ireland",,,(01) 633 1100,http://www.ilvalentino.ie/,bakery,"Dublin, Ireland",google_maps
Bakeology Treats (Argentinian Bakery),"43 Meath St, The Liberties, Dublin, D08 VF76, Ireland",,,,,bakery,"Dublin, Ireland",google_maps
Mandy's Bakery,"55 Dorset Street Upper, Rotunda, Dublin 1, D01 R6P5, Ireland",,,,https://www.mandysbakery.ie/,bakery,"Dublin, Ireland",google_maps
The Bretzel Bakery & Cafe,"1A Lennox St, Portobello, Dublin, D08 RK23, Ireland",,orders@bretzel.ie,087 380 0211,http://www.bretzel.ie/,bakery,"Dublin, Ireland",google_maps
SugarLoaf Bakery and Pastry Shop,"79-80 Dorset Street Lower, Phibsborough, Dublin 1, D01 NX33, Ireland",,,(01) 578 9722,https://sugarloafbakery.flipdish.menu/order#/restaurant/39632/collection/64298,bakery,"Dublin, Ireland",google_maps
The Bakehouse Dublin,"6 Bachelors Walk, North City, Dublin 1, D01 C953, Ireland",,,(01) 873 4279,http://www.bakehousedublin.ie/,cafe,"Dublin, Ireland",google_maps
Parnell Street Bakery,"147 Parnell St, Rotunda, Dublin 1, D01 V4A8, Ireland",,,,https://www.parnellstreetbakery.ie/?utm_source=GBP.website&utm_medium=GBP&utm_campaign=br3943-website,bakery,"Dublin, Ireland",google_maps
Ella's Heaven Cafe & Bakery,"95A Talbot St, North City, Dublin, D01 HR68, Ireland",,,(01) 557 3224,https://ellasheavencafebakery.ie/,cafe,"Dublin, Ireland",google_maps
Ladurée,"William St S, Dublin, D02 K339, Ireland",,,,https://ladureeireland.com/,restaurant,"Dublin, Ireland",google_maps
Ann's Bakery,"41 Mary St, North City, Dublin 1, D01 AP11, Ireland",,,(01) 872 7759,,restaurant,"Dublin, Ireland",google_maps
Caketopia,"16 Norseman Pl, Stoneybatter, Dublin 7, D07 VY64, Ireland",,,085 767 5898,http://www.caketopia.ie/,cake shop,"Dublin, Ireland",google_maps
The Corner Bakery,"15-17, Terenure Rd N, Terenure, Dublin, D6W HK15, Ireland",,info@cornerbakery.ie,(01) 490 6210,https://www.cornerbakery.ie/,bakery,"Dublin, Ireland",google_maps
The Wooden Whisk,"94 Talbot St, North City, Dublin 1, D01 E2N3, Ireland",,,(01) 878 2858,http://www.bakedonline.ie/,cafe,"Dublin, Ireland",google_maps
The Cake Cafe,"The Daintree Building, 8 Pleasants Pl, Saint Kevin's, Dublin, Ireland",,thecakecafe@gmail.com,(01) 478 9394,https://www.cakecafe.ie/,cafe,"Dublin, Ireland",google_maps
Tasty Buns,"67 Bread St, Edinburgh EH3 9AH, UK",,,,https://www.facebook.com/TastyBunsBakeryEdinburgh/,cake shop,"Edinburgh, UK",google_maps
Lannan Bakery & Pantry,"29-35 Hamilton Pl, Edinburgh EH3 5BA, UK",,,,http://www.lannanbakery.com/,bakery,"Edinburgh, UK",google_maps
Sugar Daddy’s Bakery,"8 Roseneath St, Marchmont Cres, Edinburgh EH9 1JH, UK",,hello@youneedcake.co.uk,0131 228 3791,https://www.youneedcake.co.uk/,bakery,"Edinburgh, UK",google_maps
Preacher's Patisserie,"24-26 Lady Lawson St, Edinburgh EH3 9DS, UK",,,07810 898476,,cafe,"Edinburgh, UK",google_maps
The Wee Boulangerie,"67 Clerk St, Edinburgh EH8 9JG, UK",,,0131 629 3134,http://theweeboulangerie.co.uk/,bakery,"Edinburgh, UK",google_maps
Razz Patisserie,"57A Home St, Edinburgh EH3 9JP, UK",,,0131 228 4185,https://instagram.com/razzpatisserie?igshid=MzRlODBiNWFlZA==,persian restaurant,"Edinburgh, UK",google_maps
Krema Bakehouse,"21 Leith Walk, Edinburgh EH6 8LN, UK",,,,https://www.kremabakehouse.co.uk/,bakery,"Edinburgh, UK",google_maps
Think Pastry,"80 Montrose Terrace, Edinburgh EH7 5DP, UK",,,0131 283 0349,https://www.facebook.com/pages/category/Cafe/Think-Pastry-346495282640433/,bakery,"Edinburgh, UK",google_maps
101 Bakery,"101 Newington Rd, Edinburgh EH9 1QW, UK",,,,https://www.101bakery.com/,bakery,"Edinburgh, UK",google_maps
Twelve Triangles,"90 Brunswick St, Edinburgh EH7 5HU, UK",,,0131 629 4664,https://twelvetriangles.co.uk/,bakery,"Edinburgh, UK",google_maps
The Pastry Section,"86 Raeburn Pl, Edinburgh EH4 1HH, UK",,info@pastrysection.com,0131 332 9779,http://www.pastrysection.com/,cafe,"Edinburgh, UK",google_maps
Mòr Bakehouse,"2 Hunter Square, Edinburgh EH1 1QW, UK",,,,https://www.morbakehouse.co.uk/,bakery,"Edinburgh, UK",google_maps
Greek Artisan Pastries,"23 Bread St, Edinburgh EH3 9AL, UK",,info@aristonfoodsltd.co.uk,0131 466 1691,http://www.aristonfoodsltd.co.uk/,bakery,"Edinburgh, UK",google_maps
Boxwood Tam Bakery,"52 Queen Charlotte St, Leith, Edinburgh EH6 7EX, UK",,,,,bakery,"Edinburgh, UK",google_maps
Mario Patisserie,"27 Henderson Gardens, Leith, Edinburgh EH6 6BX, UK",,,07377 809181,http://mario-patisserie.co.uk/,pastry shop,"Edinburgh, UK",google_maps
Sicilian Pastry Shop,"14-16 Albert St, Edinburgh EH7 5LG, UK",Francesco Asiatico,thesicilianpastryshop@yahoo.co.uk,0131 554 7417,https://www.thesicilianpastryshoplimited.co.uk/,pastry shop,"Edinburgh, UK",google_maps
The Bearded Baker,"46 Rodney St, Edinburgh EH7 4DX, UK",,,0131 241 4096,https://www.thebeardedbaker.co.uk/,bakery,"Edinburgh, UK",google_maps
L'Angelou,"88 Northfield Broadway, Edinburgh EH8 7RU, UK",,,07548 956821,https://angeloupatisserie.com/,bakery,"Edinburgh, UK",google_maps
The Piemaker,"38 South Bridge, Edinburgh EH1 1LL, UK",,piemaker38@gmail.com,0131 531 5795,http://www.thepiemaker.co.uk/,coffee shop,"Edinburgh, UK",google_maps
La Barantine Victoria,"89 W Bow, Edinburgh EH1 2JP, UK",,contact.labarantine@gmail.com,0131 226 4927,http://www.labarantine.com/,coffee shop,"Edinburgh, UK",google_maps
Bakehouse,"44 Hankow Rd, Tsim Sha Tsui, Hong Kong",,pr@bakehouse.hk,,http://www.bakehouse.hk/,bakery,Hong Kong,google_maps
The Mandarin Cake Shop,"M/F, Mandarin Oriental Hong Kong, 5 Connaught Rd Central, Central, Hong Kong",Gallery Gift Offers,mohkg-reservations@mohg.com,2825 4008,https://www.mandarinoriental.com/en/hong-kong/victoria-harbour/dine/the-mandarin-cake-shop?src=loc.yext.mohkg.ggl,bakery,Hong Kong,google_maps
Vission Bakery,"LGF, 7 Staunton St, Central, Hong Kong",,,5545 6787,https://www.vissionbakery.com/,bakery,Hong Kong,google_maps
Marouf & Puff Bake,"G/F, 3-3A Humphreys Ave, Tsim Sha Tsui, Hong Kong",,,,,bakery,Hong Kong,google_maps
Tai Cheong Bakery,"35號 Lyndhurst Terrace, Central, Hong Kong",,,8300 8301,http://www.taoheung.com.hk/,bakery,Hong Kong,google_maps
Miam Bakery,"73 Third St, Sai Ying Pun, Hong Kong",,,5592 5507,http://miambakeryhk.store/,bakery,Hong Kong,google_maps
Sugar Brothers hk,"Shop 4 and 5, Ground Floor, Madera Residences, 19 Cheong Lok St, Jordan, Hong Kong",,,5541 6897,https://www.facebook.com/sugarbrotherhk,cake shop,Hong Kong,google_maps
Plumcot,"G/F, 10A Sun Chun St, Tai Hang, Hong Kong",,,2573 6293,http://www.plumcot.co/,bakery,Hong Kong,google_maps
FRENCHIES,"39 Hollywood Rd, Central, Hong Kong",,info@frenchiesbake.com,,http://www.frenchiesbake.com/,bakery,Hong Kong,google_maps
Sour Dough,"Shop Nos. 2-3, G/F, Keen Hung Commercial Building, 80 Queen's Rd E, Wan Chai, Hong Kong",,,2571 8873,http://www.sourdoughcafehk.com/,bakery,Hong Kong,google_maps
Butterfly Patisserie,"18 Salisbury Road Rosewood Hong Kong, Victoria Dockside, Tsim Sha Tsui, Hong Kong",,hongkong.onlineshop@rosewoodhotels.com,3891 8818,https://www.rosewoodhkshop.com/,cake shop,Hong Kong,google_maps
Mayse Artisan Bakery,"G/F No, 64 Sam Wo Rd, Tai Mei Tuk Tsuen, Hong Kong",,,9855 6159,,bakery,Hong Kong,google_maps
Kadorar Bakery,"1 Man Yuen St, Jordan, Hong Kong",,,2682 8019,,bakery,Hong Kong,google_maps
Freshfresh Bakery,"154 Wan Chai Rd, Wan Chai, Hong Kong",,,2886 3396,https://freshfreshcookies.boutir.com/,bakery,Hong Kong,google_maps
Tartes & Pop,"2 Morrison St, Sheung Wan, Hong Kong",,hello@tartes-pop.com,6597 6667,http://www.tartes-pop.com/,cake shop,Hong Kong,google_maps
Maison Kayser (Tsim Sha Tsui),"8 Minden Ave, Tsim Sha Tsui, Hong Kong",,,2869 6122,https://www.maison-kayser.com.hk/,bakery,Hong Kong,google_maps
El Bolillo Bakery,"2517 Airline Dr, Houston, TX 77009, USA",,,(713) 861-8885,http://www.elbolillo.com/,bakery,"Houston, USA",google_maps
Paris Baguette,"9110 Bellaire Blvd C, Houston, TX 77036, USA",,,(832) 834-3118,https://parisbaguette.com/locations/tx/houston/9110-bellaire-boulevard/,bakery,"Houston, USA",google_maps
Love Croissants,"2808 Caroline St, Houston, TX 77004, USA",,,(469) 854-0356,https://lovecroissants.com/,bakery,"Houston, USA",google_maps
Dessert Gallery Bakery & Cafe,"3600 Kirby Dr # D, Houston, TX 77098, USA",,,(713) 522-9999,https://dessertgallery.com/,dessert shop,"Houston, USA",google_maps
El Bolillo,"2421 S Wayside Dr, Houston, TX 77023, USA",,,(713) 921-3500,https://www.elbolillo.com/,bakery,"Houston, USA",google_maps
French Gourmet Bakery,"2250 Westheimer Rd, Houston, TX 77098, USA",,sales@fgbakery.com,(713) 524-3744,https://fgbakery.com/,bakery,"Houston, USA",google_maps
Magnol French Baking,"1500 N Post Oak Rd, Houston, TX 77055, USA",,otto@magnolhtx.co,(281) 846-6661,http://www.magnolfrenchbaking.com/,bakery,"Houston, USA",google_maps
Common Bond Bistro & Bakery,"1706 Westheimer Rd, Houston, TX 77006, USA",,,(713) 529-3535,http://www.commonbondcafe.com/,bakery,"Houston, USA",google_maps
Mademoiselle Louise,"1725 Main St #1, Houston, TX 77002, USA",,contact@mademoisellelouise.com,(346) 980-8763,http://mademoisellelouise.com/,bakery,"Houston, USA",google_maps
Paris Baguette,"23119 Colonial Pkwy Ste B-5, Katy, TX 77449, USA",,,(832) 437-8161,https://parisbaguette.com/locations/tx/katy/23119-colonial-parkway/,bakery,"Houston, USA",google_maps
Bouchée Patisserie,"1600 W Loop S, Houston, TX 77027, USA",,hotelreservations@thepostoak.com,(346) 227-5131,http://www.thepostoakhotel.com/restaurants/bouchee-patisserie/,bakery,"Houston, USA",google_maps
"The Baker's Son - Houston, TX","8025 Main St suite a, Houston, TX 77025, USA",,kvalerio@thebakersonusa.com,(832) 474-9688,https://thebakersonusa.com/,bakery,"Houston, USA",google_maps
Artisan Bread Gallery,"11411 Windfern Rd Suite#350, Houston, TX 77064, USA",,,(346) 718-3277,,bakery,"Houston, USA",google_maps
La Hacienda Bakery,"180 Uvalde Rd, Houston, TX 77015, USA",,lahaciendabakery@hotmail.com,(713) 453-6465,https://www.lahaciendabakery.com/,bakery,"Houston, USA",google_maps
La Plume Bakery & Cafe,"11660 Westheimer Rd Suite 107-A, Houston, TX 77077, USA",,,(832) 328-5175,http://laplumebakery.com/,bakery,"Houston, USA",google_maps
Croissant-Brioche,"2435 Rice Boulevard, Houston, TX 77005, USA",,,(713) 526-9188,,bakery,"Houston, USA",google_maps
Shakkar,"401 Franklin St, Houston, TX 77201, USA",Maham Qureshi,shakkarcroissanterie@gmail.com,(713) 980-8822,https://www.shakkar.co/,bakery,"Houston, USA",google_maps
85°C Bakery Cafe - Houston (Bellaire),"9750 Bellaire Blvd #168, Houston, TX 77036, USA",Our Chefs Milestones,,(832) 831-2458,http://www.85cbakerycafe.com/,bakery,"Houston, USA",google_maps
Red Dessert Dive,"1045 Studewood St, Houston, TX 77008, USA",,orders@reddessertdive.com,(832) 649-2977,http://reddessertdive.com/,bakery,"Houston, USA",google_maps
Moeller's,"4201 Bellaire Blvd, Houston, TX 77025, USA",,,(713) 667-0983,http://moellersbakery.com/,bakery,"Houston, USA",google_maps
Levain Boulangerie & Patisserie,"7, Jalan Delima, Imbi, 55100 Kuala Lumpur, Wilayah Persekutuan Kuala Lumpur, Malaysia",,enquiry@levain.com.my,03-2142 6611,http://www.levain.com.my/,bakery,"Kuala Lumpur, Malaysia",google_maps
"KLCG Confectionery & Bakery, Jalan Ampang","204A, Jln Ampang, Kampung Datuk Keramat, 50450 Kuala Lumpur, Wilayah Persekutuan Kuala Lumpur, Malaysia",,,012-389 3907,http://klcg.online/,bakery,"Kuala Lumpur, Malaysia",google_maps
Kenny Hills Bakers @ Ampang,"241-B Lorong Nibong, Off, Jln Ampang, Wilayah Persekutuan, 50450 Kuala Lumpur, Wilayah Persekutuan Kuala Lumpur, Malaysia",,,03-4265 2020,http://kennyhillsbakers.com/,cafe,"Kuala Lumpur, Malaysia",google_maps
Croisserie Artisan Bakery @ Damansara Heights,"Plaza Damansara, 33, Jalan Medan Setia 1, Bukit Damansara, 50490 Kuala Lumpur, Federal Territory of Kuala Lumpur, Malaysia",,,012-564 4154,https://croisserie.com.my/,bakery,"Kuala Lumpur, Malaysia",google_maps
Kenny Hills Bakers @ Bukit Tunku,"Lot B-2, Taman Tunku, Off, Jln Langgak Tunku, Bukit Tunku, 50480 Kuala Lumpur, Wilayah Persekutuan Kuala Lumpur, Malaysia",,,03-6206 4111,https://www.kennyhillsbakers.com/,cafe,"Kuala Lumpur, Malaysia",google_maps
Kenny Hills Bakers @ TTDI,"Lot G-2, The Greens Terrace, Jalan Wan Kadir 3, Taman Tun Dr Ismail, 60000 Kuala Lumpur, Wilayah Persekutuan Kuala Lumpur, Malaysia",,,03-2703 7030,https://www.kennyhillsbakers.com/,cafe,"Kuala Lumpur, Malaysia",google_maps
"Orito , Hartamas, KL","B-0-5, Plaza Damas, 3, Jalan Sri Hartamas 1, Bukit Damansara, 50480 Kuala Lumpur, Federal Territory of Kuala Lumpur, Malaysia",,,012-382 6878,http://www.orito.com.my/,bakery,"Kuala Lumpur, Malaysia",google_maps
"KLCG Confectionery & Bakery, Medan Pasar","2, Medan Pasar, City Centre, 50050 Kuala Lumpur, Wilayah Persekutuan Kuala Lumpur, Malaysia",,,012-689 6298,https://klcg.online/,bakery,"Kuala Lumpur, Malaysia",google_maps
Paul Restaurant • Pavilion Kuala Lumpur,"Lot 2 . 09 . 02, 168, Bukit Bintang Rd, Bukit Bintang, 55100 Kuala Lumpur, Federal Territory of Kuala Lumpur, Malaysia",,,03-2145 6000,http://www.paul-malaysia.com/,bakery,"Kuala Lumpur, Malaysia",google_maps
Verrona Hills Bread & Pâtisserie - Pavilion Damansara Heights,"Lot 1.07, Level 1, Pavilion Damansara Height, Jalan Damanlela, Damansara Town Centre, 50490 Kuala Lumpur, Federal Territory of Kuala Lumpur, Malaysia",,,011-1119 6363,https://www.instagram.com/verronabread.msia/,bakery,"Kuala Lumpur, Malaysia",google_maps
Koko Bread @ Razak City Residences,"Block C-G-5, Residensi Bandar Razak, 1, Jln Razak Mansion, Sungai Besi, 57100 Kuala Lumpur, Wilayah Persekutuan Kuala Lumpur, Malaysia",,,012-320 9389,,bakery,"Kuala Lumpur, Malaysia",google_maps
Der Backmeister @TTDI - Your German Bakery,"40, Persiaran Zaaba, Taman Tun Dr Ismail, 60000 Kuala Lumpur, Wilayah Persekutuan Kuala Lumpur, Malaysia",,,03-2856 0613,https://www.derbackmeister.com/,bakery,"Kuala Lumpur, Malaysia",google_maps
The Bread Shop,"11, Jalan Setiakasih 5, Bukit Damansara, 50490 Kuala Lumpur, Wilayah Persekutuan Kuala Lumpur, Malaysia",,,03-2093 8734,https://www.facebook.com/thebreadshopdamansara/,bakery,"Kuala Lumpur, Malaysia",google_maps
Bray Bakery HQ,"Bray Bakery, #G-02, Menara See Hoy Chan, 374, Taman U Thant, 50400 Kuala Lumpur, Wilayah Persekutuan Kuala Lumpur, Malaysia",,,012-582 2519,https://www.braybakery.my/,bakery,"Kuala Lumpur, Malaysia",google_maps
一日山品 Something Bakery (KL Branch),"1st Floor, 111-4, Jalan Petaling, City Centre, 50000 Kuala Lumpur, Wilayah Persekutuan Kuala Lumpur, Malaysia",,,010-877 9090,https://www.facebook.com/profile.php?id=100064233576018&mibextid=kFxxJD,cake shop,"Kuala Lumpur, Malaysia",google_maps
Bricks and Bread KL,"20, Jalan Kamunting, Chow Kit, 50300 Kuala Lumpur, Wilayah Persekutuan Kuala Lumpur, Malaysia",,,012-381 3237,http://www.instagram.com/bricksandbread.kl,restaurant,"Kuala Lumpur, Malaysia",google_maps
Christine's Bakery @The Exchange TRX,"L2.70.0, L2.71.0, L2.72.0, Level 2, The Exchange TRX, Persiaran TRX, Tun Razak Exchange, 55188 Kuala Lumpur, Wilayah Persekutuan Kuala Lumpur, Malaysia",,hello@christinebakery.my,,https://christinebakery.my/,cafe,"Kuala Lumpur, Malaysia",google_maps
TK Bakery • Pudu 棠记兄弟 • 半山芭,"8-10, Lorong Brunei 3, Pudu, 55100 Kuala Lumpur, Wilayah Persekutuan Kuala Lumpur, Malaysia",,,012-591 0279,http://www.tk2you.com/,pastry shop,"Kuala Lumpur, Malaysia",google_maps
Doña Bakehouse Kuala Lumpur,"L1-01, TSLAW TOWER, 39, Jalan Kamuning, Imbi, 55100 Kuala Lumpur, Wilayah Persekutuan Kuala Lumpur, Malaysia",,connect@donabakehouse.com,018-782 8782,https://donabakehouse.com/,restaurant,"Kuala Lumpur, Malaysia",google_maps
Tommy Le Baker,"No 82, Zhongshan Building, 80, Jalan Rotan, Kampung Attap, 50460 Kuala Lumpur, Wilayah Persekutuan Kuala Lumpur, Malaysia",,,010-266 4878,http://tommylebaker.oddle.me/,bakery,"Kuala Lumpur, Malaysia",google_maps
Manteigaria,"Rua do Loreto 2, 1200-108 Lisboa, Portugal",,info@manteigaria.com,21 347 1492,https://manteigaria.com/,bakery,"Lisbon, Portugal",google_maps
Pastéis de Belém,"R. de Belém 84 92, 1300-085 Lisboa, Portugal",,pasteisdebelem@pasteisdebelem.pt,21 363 7423,https://pasteisdebelem.pt/,pastry shop,"Lisbon, Portugal",google_maps
Alfama Doce,"R. da Regueira 39, 1100-435 Lisboa, Portugal",,,933 143 460,,pastry shop,"Lisbon, Portugal",google_maps
Santo António,"R. do Milagre de Santo António 10, 1100-351 Lisboa, Portugal",,,21 887 1717,,pastry shop,"Lisbon, Portugal",google_maps
Fora Artisan Pastry,"Calçada de São Vicente 95, 1100-568 Lisboa, Portugal",,,,,brunch restaurant,"Lisbon, Portugal",google_maps
Confeitaria Nacional,"Praça da Figueira 18B, 1100-241 Lisboa, Portugal",Balthazar Roiz Castanheiro,,21 342 4470,https://confeitarianacional.com/,pastry shop,"Lisbon, Portugal",google_maps
Fábrica da Nata - Pastéis de Nata,"Praça dos Restauradores 62 -68, 1250-110 Lisboa, Portugal",,,21 132 5435,https://fabricadanata.pt/,pastry shop,"Lisbon, Portugal",google_maps
Lully 1661 Anjos - Artisanal Bakery,"Rua do Forno do Tijolo 46, 1170-134 Lisboa, Portugal",,,961 816 221,https://www.instagram.com/lully1661_lisboa/,bakery,"Lisbon, Portugal",google_maps
Camões,"Rua do Loreto 63 65, 1200-241 Lisboa, Portugal",,camoespastelaria@gmail.com,21 342 7065,https://pastelariacamoes.eatbu.com/?fbclid=IwZXh0bgNhZW0CMTEAAR1nSMRnlbtebmCBh8hMrxoGDTDU6DxBiE3TWgzvlbYtKBPZ0BQcT61TIYg_aem_6xPZQ_TBD1MGgW0HTc-4tg&lang=pt,pastry shop,"Lisbon, Portugal",google_maps
Bike Bakery Lisboa,"Rua dos Cordoeiros 14, 1200-128 Lisboa, Portugal",,,937 939 898,,bakery,"Lisbon, Portugal",google_maps
Versailles,"Av. da República 15 A, 1050-185 Lisboa, Portugal",,,21 354 6340,http://grupoversailles.pt/,pastry shop,"Lisbon, Portugal",google_maps
La Boulangerie,"R. do Olival 42, 1200-742 Lisboa, Portugal",,info@laboulangerie.pt,21 395 1208,https://laboulangerie.pt/,restaurant,"Lisbon, Portugal",google_maps
Pastelaria Doce Mila,"B. dos Cavaleiros 15, 1100-131 Lisboa, Portugal",,,21 885 3183,http://www.facebook.com/pastelariadocemila,bakery,"Lisbon, Portugal",google_maps
Maison Luce,"R. Carlos Alberto da Mota Pinto 9, 1250-252 Lisboa, Portugal",,amoreiras@maison-luce.pt,21 192 7894,https://maison-luce.pt/,bakery,"Lisbon, Portugal",google_maps
Castro - Atelier de Pastéis de Nata,"R. Garrett 38, 1200-204 Lisboa, Portugal",,castro@castropasteisdenata.pt,,https://castropasteisdenata.pt/,pastry shop,"Lisbon, Portugal",google_maps
Fábrica da Nata,"R. Augusta nº 275 A, 1100-052 Lisboa, Portugal",,,,https://fabricadanata.pt/,pastry shop,"Lisbon, Portugal",google_maps
Chiado Caffe,"Rua do Loreto 45 47, 1200-471 Lisboa, Portugal",,,21 346 0828,https://www.chiadocaffe.pt/,pastry shop,"Lisbon, Portugal",google_maps
Ceres Boulangerie,"R de S. Bento 78, 1200-109 Lisboa, Portugal",,,21 395 1912,,bakery,"Lisbon, Portugal",google_maps
PAUL,"R. Augusta 142, 1100-054 Lisboa, Portugal",,info@paul.pt,,https://paul.pt/,bakery,"Lisbon, Portugal",google_maps
"Chestnut Bakery, Covent Garden","24 Floral St, London WC2E 9DS, UK",,,07351 141152,http://www.chestnutbakery.com/,bakery,"London, UK",google_maps
Arôme Bakery - Mercer Street,"9 Mercer St, London WC2H 9QJ, UK",,bonjour@aromebakery.co.uk,,https://aromebakery.co.uk/,bakery,"London, UK",google_maps
E5 Bakehouse,"396 Mentmore Terrace, London E8 3PH, UK",,info@e5bakehouse.com,020 8525 2890,http://e5bakehouse.com/,bakery,"London, UK",google_maps
Aux pains de papy,"279 Gray's Inn Rd, London WC1X 8QF, UK",,,07771 613779,http://www.auxpainsdepapy.co.uk/,bakery,"London, UK",google_maps
Miel Bakery,"60-61 Warren St, London W1T 5NU, UK",Shaheen Peerbhai,hello@mielbakery.co.uk,,http://mielbakery.co.uk/,bakery,"London, UK",google_maps
"Chestnut Bakery, Belgravia","17-21 Elizabeth St, London SW1W 9RP, UK",,,07351 141151,http://www.chestnutbakery.com/,bakery,"London, UK",google_maps
Bageriet,"24 Rose St, London WC2E 9EA, UK",,,020 7240 0000,http://www.bageriet.co.uk/,bakery,"London, UK",google_maps
Fortitude Bakehouse,"35 Colonnade, London WC1N 1JD, UK",,,020 7837 5456,http://www.fortitudebakehouse.com/,bakery,"London, UK",google_maps
L'ETO Soho,"155 Wardour St, London W1F 8WG, UK",,,020 7494 4991,http://www.letocaffe.co.uk/,cafe,"London, UK",google_maps
TOAD Bakery,"44 Peckham Rd, London SE5 8PX, UK",,,,http://www.toadbakery.com/,bakery,"London, UK",google_maps
Ole & Steen,"56, No 2 Haymarket, St James's Market, London SW1Y 4RP, UK",,,020 3828 8242,https://oleandsteen.co.uk/,bakery,"London, UK",google_maps
Chinatown Bakery,"7-9 Newport Pl, London WC2H 7JR, UK",,,020 7287 7995,https://chinatown.co.uk/en/bar-cafe/chinatown-bakery/,bakery,"London, UK",google_maps
Common Breads,"110 Buckingham Palace Rd, London SW1W 9SA, UK",,info@commonbreads.com,020 8017 3773,http://www.commonbreads.com/,bakery,"London, UK",google_maps
"Chestnut Bakery, Piccadilly","162 Piccadilly, London W1J 9ED, UK",,,07351 141153,https://www.chestnutbakery.com/,bakery,"London, UK",google_maps
Maison Bertaux,"28 Greek St, London W1D 5DQ, UK",,,020 7437 6007,http://www.maisonbertaux.com/,pastry shop,"London, UK",google_maps
Fabrique,"8 Earlham St, London WC2H 9RY, UK",,info@fabrique.co.uk,,http://fabrique.co.uk/,bakery,"London, UK",google_maps
GAIL's Bakery Soho,"128 Wardour St, London W1F 8ZL, UK",,,020 7287 1324,https://gails.com/pages/soho,bakery,"London, UK",google_maps
Lever & Bloom Coffee,"222 Shaftesbury Ave, London WC2H 8EB, UK",,hello@leverandbloomcoffee.co.uk,,https://www.leverandbloomcoffee.co.uk/,bakery,"London, UK",google_maps
Ole & Steen,"Unit 8, 67-69 Charing Cross Rd, London WC2H 0AN, UK",,,020 3772 2920,https://oleandsteen.co.uk/,bakery,"London, UK",google_maps
Artelice Pâtisserie,"11301 W Olympic Blvd UNIT 123, Los Angeles, CA 90064, USA",,,(424) 293-8846,https://www.artelicela.com/,dessert shop,"Los Angeles, USA",google_maps
Pitchoun!,"545 S Olive St, Los Angeles, CA 90013, USA",,sales@pitchounbakery.com,(213) 689-3240,http://www.pitchounbakery.com/,bakery,"Los Angeles, USA",google_maps
Bakery LA,"10759 W Pico Blvd, Los Angeles, CA 90064, USA",,bakerylagroup@gmail.com,(424) 208-3835,http://bakery.la/,bakery,"Los Angeles, USA",google_maps
Cake Monkey Bakery,"7807 Beverly Blvd, Los Angeles, CA 90036, USA",,info@cakemonkey.com,(323) 932-1142,http://www.cakemonkey.com/,bakery,"Los Angeles, USA",google_maps
Phoenix Bakery,"969 N Broadway, Los Angeles, CA 90012, USA",,phoenixbakery@gmail.com,(213) 628-4642,http://www.phoenixbakeryinc.com/,bakery,"Los Angeles, USA",google_maps
Marigold Bakeshop,"8647 W Pico Blvd, Los Angeles, CA 90035, USA",,info@marigoldbakeshop.com,(424) 204-9250,http://www.marigoldbakeshop.com/,bakery,"Los Angeles, USA",google_maps
Bread Lounge,"700 S Santa Fe Ave, Los Angeles, CA 90021, USA",,office@breadlounge.com,(213) 327-0782,https://breadlounge.com/,bakery,"Los Angeles, USA",google_maps
Proof Bakery,"3156 Glendale Blvd, Los Angeles, CA 90039, USA",,orders@proofbakeryla.com,(323) 664-8633,http://proofbakery.com/,bakery,"Los Angeles, USA",google_maps
La Monarca Bakery & Cafe,"6091 Sunset Blvd, Los Angeles, CA 90028, USA",,,(323) 463-0933,http://www.lamonarcabakery.com/,bakery,"Los Angeles, USA",google_maps
Angel Maid Bakery,"4542 S Centinela Ave, Los Angeles, CA 90066, USA",,,(310) 915-2078,https://www.angelmaidbakery.com/,bakery,"Los Angeles, USA",google_maps
Tous les Jours Bakery & Cafe Little Tokyo,"404 E 2nd St, Los Angeles, CA 90012, USA",,,(213) 444-8255,http://www.tljus.com/,bakery,"Los Angeles, USA",google_maps
Pacific French Bakery,"4152 W Washington Blvd, Los Angeles, CA 90018, USA",,sales@pacificfrenchbakery.com,(323) 735-1700,http://www.pacificfrenchbakery.com/,bakery,"Los Angeles, USA",google_maps
the Village Bakery and Cafe,"3119 Los Feliz Blvd, Los Angeles, CA 90039, USA",,,(323) 662-8600,https://www.thevillagebakeryandcafe.com/,bakery,"Los Angeles, USA",google_maps
Ludivine Paris Bakery,"10509 W Pico Blvd, Los Angeles, CA 90064, USA",,info@ludivineparis.com,(424) 832-7166,https://ludivineparis.com/,bakery,"Los Angeles, USA",google_maps
Gourmet LA Bakery,"548 S Broadway, Los Angeles, CA 90013, USA",,,(213) 623-4244,,bakery,"Los Angeles, USA",google_maps
Sonora Bakery,"4484 Whittier Blvd, Los Angeles, CA 90022, USA",,,(323) 269-2253,http://sonorabakery.com/,bakery,"Los Angeles, USA",google_maps
Paris Baguette,"404 W 8th St, Los Angeles, CA 90015, USA",,,(213) 947-9997,https://parisbaguette.com/locations/ca/los-angeles/404-west-8th-street/,bakery,"Los Angeles, USA",google_maps
Copenhagen Pastry,"11113 Washington Blvd, Culver City, CA 90232, USA",,,(310) 839-8900,http://www.copenhagenpastry.com/,bakery,"Los Angeles, USA",google_maps
Pollen Bakery,"Cotton Field Wharf, 8 New Union St, Manchester M4 6FQ, UK",,,0161 273 3171,http://pollenbakery.com/,bakery,"Manchester, UK",google_maps
Alex's Bakery,"225 Deansgate, Manchester M3 4EN, UK",,,0800 975 0280,https://www.alexsbakery.co.uk/,cake shop,"Manchester, UK",google_maps
Companio Bakery,"35 Radium St, Ancoats, Manchester M4 6AD, UK",,,,http://www.companiobakery.co.uk/,bakery,"Manchester, UK",google_maps
The Flat Baker,"97 Jersey St, Ancoats, Manchester M4 6JG, UK",,,,http://www.theflatbaker.co.uk/,bakery,"Manchester, UK",google_maps
Companio Bakery NQ,"Unit 1, 60 Spear St, Manchester M1 1AW, UK",,,,https://companiobakery.co.uk/,bakery,"Manchester, UK",google_maps
Gooey Bakery + Café,"103 High St, Manchester M4 1HQ, UK",,,07399 775196,http://gooeybakery.co.uk/,cafe,"Manchester, UK",google_maps
Pollen Bakery - KAMPUS,"42 Aytoun St, Manchester M1 3GL, UK",,,,http://pollenbakery.co.uk/,bakery,"Manchester, UK",google_maps
Wong Wong Bakery,"32 Princess St, Manchester M1 4LB, UK",,,07400 222888,http://www.wongwongbakery.com/,bakery,"Manchester, UK",google_maps
Sy cake,"1 Dagenham Rd, Manchester M14 5ED, UK",,,0161 373 6141,,bakery,"Manchester, UK",google_maps
La Chouquette Didsbury,"812a Wilmslow Rd, Didsbury, Manchester M20 6UH, UK",,,0161 448 7030,https://www.facebook.com/lachouquettebakery/,bakery,"Manchester, UK",google_maps
Holy Grain Sourdough Bakery,"253 Deansgate Great Northern Mews, Manchester M3 4EN, UK",,,07938 455609,https://www.thegreatnorthern.com/unit/holy-grain/,bakery,"Manchester, UK",google_maps
Long Boi's Bakehouse,"40 Forest Range, Manchester M19 2HP, UK",,hello@longboisbakehouse.com,,http://www.longboisbakehouse.com/,bakery,"Manchester, UK",google_maps
Cake Box Stockport Road Manchester,"620-622 Stockport Rd, Longsight, Manchester M13 0SH, UK",,hello@cakebox.com,0161 224 4666,https://www.cakebox.com/?utm_medium=organic&utm_campaign=yext&utm_content=CBS00165,cake shop,"Manchester, UK",google_maps
GAIL's Bakery King Street,"16, 18 King St, Manchester M2 6AG, UK",,,0161 348 8784,https://gails.com/pages/king-street,bakery,"Manchester, UK",google_maps
Siop Shop,"53 Tib St, Manchester M4 1LS, UK",,,0161 834 4416,http://siopshop.co/,cafe,"Manchester, UK",google_maps
Insomnia Cookies,"6 Cross Street The, St Ann's Square, Manchester M2 7DH, UK",,,0161 938 5644,https://insomniacookies.com/uk,bakery,"Manchester, UK",google_maps
The Bakery MCR,"73 Lever St, Manchester M1 1FL, UK",,,07555 723820,http://thebakerymcr.com/,cake shop,"Manchester, UK",google_maps
Cake Box - Arndale Centre,"Manchester Arndale, Manchester M4 3AD, UK",,,0161 399 1060,https://www.eggfreecake.co.uk/cakes.html,cake shop,"Manchester, UK",google_maps
Levenshulme Bakery,"842 Stockport Rd, Levenshulme, Manchester M19 3AW, UK",,,0161 879 6356,https://levenshulmebakery.shop/,middle eastern restaurant,"Manchester, UK",google_maps
Becky's Kitchen,"1061 P.Ocampo St., Malate, Manila, 1004 Metro Manila, Philippines",,,(02) 8523 4245,http://facebook.com/beckyskitchenmanila,cake shop,"Manila, Philippines",google_maps
Dylan Patisserie Makati,"116 Jupiter, Makati City, 1209 Metro Manila, Philippines",,info@dylanpatisserie.com,0917 877 2999,https://www.dylanpatisserie.com/,breakfast restaurant,"Manila, Philippines",google_maps
Salazar Bakery,"783 Ongpin St, Binondo, Manila, 1006 Metro Manila, Philippines",,,(02) 8733 1392,https://www.facebook.com/Salazar-Bakery-Since-1947-195125480509500/,bakery,"Manila, Philippines",google_maps
"The Aristocrat Bakeshop - Roxas Blvd, Manila","432 San Andres St, Malate, Manila, 1004 Metro Manila, Philippines",,,0968 326 2331,https://www.facebook.com/AristocratBakeshop/,bakery,"Manila, Philippines",google_maps
Bake House Manila,"30th Street, corner 5th Ave, Taguig, 1634 Metro Manila, Philippines",,,(02) 8820 0888,https://www.shangri-la.com/manila/shangrilaatthefort/dining/restaurants/bake-house/,bakery,"Manila, Philippines",google_maps
Mae-San Quality Bakery Corp.,"1641 Fugoso St, Santa Cruz, Manila, 1008 Metro Manila, Philippines",,,(02) 8735 1123,https://www.facebook.com/maesan.bakery,bakery,"Manila, Philippines",google_maps
Tinapayan Festival Bakeshoppe,"corner Dapitan St, Sampaloc, Manila, 1008 Metro Manila, Philippines",,,,,bakery,"Manila, Philippines",google_maps
Herran Bakery,"1986 Pedro Gil St, Santa Ana, Manila, 1009 Metro Manila, Philippines",,,(02) 8563 5144,,bakery,"Manila, Philippines",google_maps
Kings Bakeshop | Masangkay,"1429 Masangkay St, Santa Cruz, Manila, 1003 Metro Manila, Philippines",,,(02) 8330 4678,https://www.facebook.com/kingsbakeshopPH/,bakery,"Manila, Philippines",google_maps
Marland Cakes And Pastries,"701T Alonzo St, Santa Cruz, Manila, 1000 Metro Manila, Philippines",,,(02) 8733 0975,,bakery,"Manila, Philippines",google_maps
Hizon's Cakes and Pastries,"1197 J Bocobo, cor Arquiza St, Ermita, Manila, 1000 Metro Manila, Philippines",,,0916 507 6723,https://www.facebook.com/pages/Hizons-Cakes-Pastries/1857161234608472,bakery,"Manila, Philippines",google_maps
The Tattooed Baker,"Kalayaan Building Salcedo, Corner Dela Rosa Street, San Lorenzo, Legazpi Village, Makati City, Metro Manila, Philippines",,headoffice@taocorp.com.ph,0917 809 3354,https://www.taocommunity.com/tao-community/tao-food/tattooed-baker/?_tao_loader=4,bakery,"Manila, Philippines",google_maps
Bakebe S'Maison,"Unit 124, 126, 127a, S Maison, Coral Way Conrad Hotel Manila, Mall of Asia Complex, Barangay 76, Pasay City, 1300 Metro Manila, Philippines",,,0936 957 9045,https://bakebe.com/tl/homepage-ph/,bakery,"Manila, Philippines",google_maps
Boulangerie22 - Dapitan UST,"1427 Dapitan St, Sampaloc, Manila, 1015 Metro Manila, Philippines",,,0985 555 4461,https://boulangerie22.ph/,bakery,"Manila, Philippines",google_maps
Eng Ho Bakeshop,"628-630 Alonzo St, Santa Cruz, Manila, 1008 Metro Manila, Philippines",,,(02) 7001 5469,,bakery,"Manila, Philippines",google_maps
Bakers' Fair - Oroquieta,"1016-1020, 1016-1020 Oroquieta Rd, Santa Cruz, Manila, 1003 Metro Manila, Philippines",,info@bakersfair.com,(02) 8567 1234,http://www.bakersfair.com/,bakery,"Manila, Philippines",google_maps
Purple Oven at Sacred Heart,"Sacred Heart St, Makati City, Metro Manila, Philippines",,orderonline@purpleoven.com.ph,(02) 8631 4221,http://www.purpleoven.com.ph/,bakery,"Manila, Philippines",google_maps
Bread Talk,"HXHM+2JM, Pedro Gil St, Ermita, Manila, 1000 Metro Manila, Philippines",,makeyourday@breadtalk.com.ph,0927 800 8798,http://www.breadtalk.com.ph/,bakery,"Manila, Philippines",google_maps
Lord Stow's Bakery - Ongpin,"Imperial Sky Garden Condo Corporation, Ongpin St, Binondo, Manila, 1006 Metro Manila, Philippines",,,(02) 8247 3305,,bakery,"Manila, Philippines",google_maps
Bakemono Bakers,"273 Little Lonsdale St, Melbourne VIC 3000, Australia",,,,http://bakemonobakers.com.au/,bakery,"Melbourne, Australia",google_maps
Le Petit Gateau,"458 Little Collins St, Melbourne VIC 3000, Australia",,city@club.racv.com.au,(03) 9944 8893,https://www.racv.com.au/travel-leisure/racv-club/city-club/food-drink/le-petit-gateau.html?cmpid=gp:rcc,pastry shop,"Melbourne, Australia",google_maps
Bread Club,"558 Queensberry St, North Melbourne VIC 3051, Australia",,baked@breadclub.com.au,(03) 8528 8993,https://cookaborough.com/bread-club,bakery,"Melbourne, Australia",google_maps
Lune Croissanterie Melbourne CBD on Russell,"16/161 Collins St, Melbourne VIC 3000, Australia",Joined Lune,,,https://www.lunecroissanterie.com/,bakery,"Melbourne, Australia",google_maps
Agathé Pâtisserie,"Shop 64/322 Coventry St, South Melbourne VIC 3205, Australia",,,,,pastry shop,"Melbourne, Australia",google_maps
Publique Bakery,"18 Blender La, Melbourne VIC 3000, Australia",,,,https://www.publiquebakery.com/,pastry shop,"Melbourne, Australia",google_maps
Candied Bakery,"136 Hall St, Spotswood VIC 3015, Australia",,hello@candiedbakery.com.au,0497 103 428,http://candiedbakery.com.au/,bakery,"Melbourne, Australia",google_maps
The South Melbourne Bakery,"356 Clarendon St, South Melbourne VIC 3205, Australia",,,(03) 9696 3142,,bakery,"Melbourne, Australia",google_maps
Calle Bakery,"649 Rathdowne St, Carlton North VIC 3054, Australia",,,(03) 9348 4680,https://calle.com.au/,bakery,"Melbourne, Australia",google_maps
Kudo,"8 Little Collins St, Melbourne VIC 3000, Australia",,orders@kudobakery.com.au,,https://kudobakery.com.au/,bakery,"Melbourne, Australia",google_maps
Q Le BAKER,"163 Commercial Rd, South Yarra VIC 3141, Australia",,,(03) 9973 3069,http://qlebaker.com.au/,bakery,"Melbourne, Australia",google_maps
Tivoli Road Bakery,"3 Tivoli Rd, South Yarra VIC 3141, Australia",,info@tivoliroad.com.au,(03) 9041 1424,http://www.tivoliroad.com.au/,bakery,"Melbourne, Australia",google_maps
Brunetti Oro Flinders Lane,"250 Flinders Ln, Melbourne VIC 3000, Australia",,yuri@brunettioro.com,(03) 9069 3169,https://brunettioro.com.au/?utm_source=local&utm_medium=organic&utm_campaign=gmb-listing_flinderslane,italian restaurant,"Melbourne, Australia",google_maps
Laurent Bakery Little Collins Street,"306 Little Collins St, Melbourne VIC 3006, Australia",,,(03) 9654 1011,http://www.laurent.com.au/,bakery,"Melbourne, Australia",google_maps
#1000 Bread,"315 Swanston St, Melbourne VIC 3000, Australia",,,,https://1000bread.com/,bakery,"Melbourne, Australia",google_maps
Baker Bleu,"119/121 Hawthorn Rd, Caulfield North VIC 3161, Australia",,,(03) 7064 5125,https://bakerbleu.com.au/,bakery,"Melbourne, Australia",google_maps
Loafer Bread,"146 Scotchmer St, Fitzroy North VIC 3068, Australia",,,(03) 9489 0766,http://loaferbread.com/,bakery,"Melbourne, Australia",google_maps
Gordon St Bakery,"142 Gordon St, Footscray VIC 3011, Australia",,gordonstbakery@gmail.com,,http://gordonstbakery.com/,bakery,"Melbourne, Australia",google_maps
A1 Bakery,"643-645 Sydney Rd, Brunswick VIC 3056, Australia",,brunswick@a1bakery.com.au,(03) 9386 0440,http://www.a1bakery.com.au/,bakery,"Melbourne, Australia",google_maps
Publique Bakery QVM,"91-93 Victoria St, Melbourne VIC 3000, Australia",,,0433 430 493,https://www.publiquebakery.com/,bakery,"Melbourne, Australia",google_maps
Panadería Rosetta,"Colima 179, Roma Nte., Cuauhtémoc, 06700 Ciudad de México, CDMX, Mexico",,,55 5207 2976,,bakery,"Mexico City, Mexico",google_maps
Pastelería Ideal,"República de Uruguay 74, Centro Histórico de la Cdad. de México, Centro, Cuauhtémoc, 06000 Ciudad de México, CDMX, Mexico",,,55 5512 2522,http://www.pasteleriaideal.com.mx/,bakery,"Mexico City, Mexico",google_maps
Pastelería Ideal,"16 de Septiembre 18, Centro Histórico de la Cdad. de México, Centro, Cuauhtémoc, 06000 Cuauhtémoc, CDMX, Mexico",,,55 5130 2970,https://www.pasteleriaideal.com/,bakery,"Mexico City, Mexico",google_maps
Pastelería Madrid S.A. de C.V.,"C. 5 de Febrero 25, Centro Histórico de la Cdad. de México, Centro, Cuauhtémoc, 06000 Ciudad de México, CDMX, Mexico",,,55 5518 2950,,cake shop,"Mexico City, Mexico",google_maps
Panadería Rosetta Puebla,"Puebla 242, Roma Nte., Cuauhtémoc, 06700 Ciudad de México, CDMX, Mexico",,,55 5925 7836,,bakery,"Mexico City, Mexico",google_maps
ODETTE CONDESA,"Pl. Popocatépetl 35, Hipódromo, Cuauhtémoc, 06100 Ciudad de México, CDMX, Mexico",,,55 9039 9028,http://odette.com.mx/,bakery,"Mexico City, Mexico",google_maps
PASTELERIA SUIZA,"Parque España 7, Roma Nte., Cuauhtémoc, 06140 Ciudad de México, CDMX, Mexico",,,55 5211 0904,http://www.pasteleriasuiza.mx/,bakery,"Mexico City, Mexico",google_maps
Bakers,"Durango 342, Roma Nte., Cuauhtémoc, 06700 Ciudad de México, CDMX, Mexico",,,55 7155 9976,,bakery,"Mexico City, Mexico",google_maps
Ficelle,"Av. Tamaulipas 39b, Colonia Condesa, Cuauhtémoc, 06140 Ciudad de México, CDMX, Mexico",,chouquettedf@gmail.com,55 5256 4488,http://ficelle-mx.com/,bakery,"Mexico City, Mexico",google_maps
La Bohême,"C. Querétaro 219, Roma Nte., Cuauhtémoc, 06700 Ciudad de México, CDMX, Mexico",,contacto@laboheme.com.mx,55 6363 3248,http://www.laboheme.com.mx/,bakery,"Mexico City, Mexico",google_maps
Baking Story,"Praga 58, Juárez, Cuauhtémoc, 06600 Ciudad de México, CDMX, Mexico",,,55 2305 9227,http://www.instagram.com/bakingstory.mx,bakery,"Mexico City, Mexico",google_maps
Vulevú Bakery,"Córdoba 234, Roma Nte., Cuauhtémoc, 06700 Ciudad de México, CDMX, Mexico",,,55 9362 4826,https://vulevubakery.com/,bakery,"Mexico City, Mexico",google_maps
Emmer Panadería,"Campeche 280, Hipódromo, Cuauhtémoc, 06100 Ciudad de México, CDMX, Mexico",,,55 2124 5218,https://instagram.com/emmerpanaderia?igshid=MTIzZWQxMDU=,bakery,"Mexico City, Mexico",google_maps
Mignon Pâtisserie,"Río Nazas 100, Cuauhtémoc, 06500 Ciudad de México, CDMX, Mexico",,,55 1756 0436,https://www.instagram.com/mignon_patisserie/,coffee shop,"Mexico City, Mexico",google_maps
Esperanza,"Calz México-Tacuba 11, Agricultura, Cuauhtémoc, 11360 Ciudad de México, CDMX, Mexico",,,55 6285 0465,,pastry shop,"Mexico City, Mexico",google_maps
CASA 1900 PAN & CAFÉ,"Durango 216, Roma Nte., Cuauhtémoc, 06700 Ciudad de México, CDMX, Mexico",,,55 5511 9111,http://casa1900.mx/,bakery,"Mexico City, Mexico",google_maps
Café Nin,"Havre 73, Juárez, Cuauhtémoc, 06600 Ciudad de México, CDMX, Mexico",,,55 9155 4805,http://www.cafenin.com.mx/,coffee shop,"Mexico City, Mexico",google_maps
Banu Bakery | Panadería & Café,"Aguascalientes 206, Colonia Condesa, Cuauhtémoc, 06100 Ciudad de México, CDMX, Mexico",,pedidos@banu.mx,,https://www.banubakery.com/,bakery,"Mexico City, Mexico",google_maps
Pastelería y Panadería Lecaroz La Vasconia,"C. de Tacuba 73, Centro Histórico de la Cdad. de México, Centro, Cuauhtémoc, 06020 Ciudad de México, CDMX, Mexico",,,55 5521 0659,http://www.lecaroz.com/,pastry shop,"Mexico City, Mexico",google_maps
Mamá Carmela,"Calle Juan Escutia 24, Colonia Condesa, Cuauhtémoc, 06140 Ciudad de México, CDMX, Mexico",,,55 7378 8957,,bakery,"Mexico City, Mexico",google_maps
Frudeco Bakery,"8212 NE 2nd Ave, Miami, FL 33138, USA",,info@frudeco.com,(786) 569-4450,https://www.frudeco.com/,bakery,"Miami, USA",google_maps
Bobe Kitchen & Bakery,"236 NE 4th St, Miami, FL 33132, USA",,,(786) 794-3686,https://bobekitchen.com/,israeli restaurant,"Miami, USA",google_maps
Zak the Baker,"295 NW 26th St, Miami, FL 33127, USA",,info@zakthebaker.com,(786) 294-0876,http://zakthebaker.com/,bakery,"Miami, USA",google_maps
Paolo Fontanot Bakery & Cafe,"488 NE 18th St Suite Cu01, Miami, FL 33132, USA",,info@paolofontanot.com,(786) 522-2310,https://paolofontanot.com/,bakery,"Miami, USA",google_maps
Pinecrest Bakery - Miami River,"1401 NW 7th St, Miami, FL 33125, USA",,sunset@pinecrestbakery.com,(305) 707-0095,https://pinecrestbakery.com/,bakery,"Miami, USA",google_maps
dbakers Sweet Studio,"3501 NE 2nd Ave, Miami, FL 33137, USA",,,(786) 310-8763,https://dbakers.us/,bakery,"Miami, USA",google_maps
Party Cake Bakery,"1356 SW 8th St, Miami, FL 33135, USA",,,(786) 558-7141,https://www.partycakebakery.com/,bakery,"Miami, USA",google_maps
Dulce de Leche Bakery Miami,"3500 N Miami Ave, Miami, FL 33127, USA",,,(305) 615-4441,https://www.dulcedelechebakery.com/,restaurant,"Miami, USA",google_maps
Majestic Portuguese Bakehouse,"3340 Coral Wy, Miami, FL 33145, USA",,quart@mikado-themes.com,(786) 294-0833,http://www.majesticbakehouse.com/,bakery,"Miami, USA",google_maps
Ficelle Bakery,"1440 NW N River Dr, Miami, FL 33125, USA",,,(786) 688-3626,https://ficellebakeryusa.com/,bakery,"Miami, USA",google_maps
Rosetta Bakery,"824 S Miami Ave, Miami, FL 33130, USA",,,(786) 805-6861,https://www.rosettabakery.com/,bakery,"Miami, USA",google_maps
Marie Blachère Bakery & Café,"3421 NE 1st Ave, Miami, FL 33137, USA",,,(305) 522-6200,https://www.marieblachereus.com/,bakery,"Miami, USA",google_maps
El Brazo Fuerte Bakery,"1697 SW 32nd Ave, Miami, FL 33145, USA",,,(305) 444-7720,http://ebfbakery.com/,bakery,"Miami, USA",google_maps
Stivaly's Cakes,"6047 SW 8th St, West Miami, FL 33144, USA",,,(786) 683-7953,http://www.stivalycakes.com/,cake shop,"Miami, USA",google_maps
Cake Emporio,"1248 SW 57th Ave, West Miami, FL 33144, USA",,,(786) 823-1049,http://www.cakesbyemporio.com/,cake shop,"Miami, USA",google_maps
Mamma Leone Bakery,"210 NE 82nd St, Miami, FL 33138, USA",,,(305) 960-7161,http://mammaleonefood.com/,bakery,"Miami, USA",google_maps
Cakeology,"31 NW 9th St, Miami, FL 33136, USA",,erika@cakeology.miami,(305) 916-9405,https://www.cakeology.miami/,cake shop,"Miami, USA",google_maps
La Industria Bakery & Cafe,"401 Biscayne Blvd, Miami, FL 33132, USA",,info@laindustriabakery.com,(786) 803-8333,https://www.laindustriabakery.com/,brunch restaurant,"Miami, USA",google_maps
French Bakery,"14453 S Dixie Hwy, Miami, FL 33176, USA",,bakerydefrance@bellsouth.net,(305) 256-9700,https://www.delicesdefrancebakery.com/,bakery,"Miami, USA",google_maps
Boulangerie Cheskie,"272 Rue Bernard O, Montréal, QC H2V 1T4, Canada",,,(514) 271-2253,https://m.facebook.com/pages/Cheskies/133884676726138,bakery,"Montreal, Canada",google_maps
Kouing Amann Bakery,"316 Avenue du Mont-Royal E, Montréal, QC H2T 1P7, Canada",,,(514) 845-8813,https://www.aukouingamann.com/,pastry shop,"Montreal, Canada",google_maps
Duc de Lorraine,"5002 Chem. de la Côte-des-Neiges, Montréal, QC H3V 1G6, Canada",,,(514) 731-4128,http://www.ducdelorraine.ca/,bistro,"Montreal, Canada",google_maps
Pâtisserie Mahrouse,"9705 Bd de l'Acadie, Montréal, QC H4N 2W2, Canada",,info@mahrouse.ca,(514) 279-1629,https://www.mahrouse.ca/,pastry shop,"Montreal, Canada",google_maps
Pâtisserie Mahrouse Centre-Ville,"1053 Rue de la Montagne, Montréal, QC H3G 0B9, Canada",,,(514) 279-1629,https://mahrouse.ca/,pastry shop,"Montreal, Canada",google_maps
Boulangerie Le Toledo,"351 Avenue du Mont-Royal E, Montréal, QC H2T 1R1, Canada",,commandes@letoledo.com,(514) 840-0999,https://www.letoledo.com/,bakery,"Montreal, Canada",google_maps
La Cave à Manger BOULANGERIE Vieux-Montréal,"386 Rue Saint-Paul E, Montréal, QC H2Y 1H3, Canada",,,(514) 419-2355,http://lacaveamanger.ca/,bakery,"Montreal, Canada",google_maps
Guillaume,"5170 Boul. Saint-Laurent, Montréal, QC H2T 1R8, Canada",,info.boulangerie.guillaume@gmail.com,(514) 507-3199,https://www.guillau.me/,bakery,"Montreal, Canada",google_maps
Pâtisserie Afroditi,"756 Rue Saint-Roch, Montréal, QC H3N 1L3, Canada",,,(514) 274-5302,http://www.afroditi.ca/,bakery,"Montreal, Canada",google_maps
Pâtisserie Ol' Sweet,"767 Rue Rachel E, Montréal, QC H2J 2H4, Canada",,contact@olsweet.com,(438) 380-5454,http://www.olsweet.com/,pastry shop,"Montreal, Canada",google_maps
Boulangerie Jarry,"380 Rue Jarry E, Montréal, QC H2P 1T9, Canada",,,(514) 644-3133,http://boulangeriejarry.com/,bakery,"Montreal, Canada",google_maps
Mamie Clafoutis,"3660 R. Saint-Denis, Montréal, QC H2X 3L7, Canada",,,(438) 380-5624,http://www.mamieclafoutis.com/saint-denis/,bakery,"Montreal, Canada",google_maps
Pâtisserie Harmonie,"85 Rue De la Gauchetière O, Montréal, QC H2Z 1K1, Canada",,,(514) 875-1328,,bakery,"Montreal, Canada",google_maps
Ô Petit Paris Mont-Royal,"1592 Avenue du Mont-Royal E, Montréal, QC H2J 1Z2, Canada",,,(514) 528-6488,https://opetitparis.com/,bakery,"Montreal, Canada",google_maps
Bernice,"5135 R. Notre Dame O o, Montreal, QC H4C 1T4, Canada",,bonjour@bernicebakery.com,(514) 931-8444,http://berniceboulangerie.com/,bakery,"Montreal, Canada",google_maps
Louise Boulangerie,"6835 Boul. Saint-Laurent, Montréal, QC H2S 3C8, Canada",,info@boulangerielouise.ca,(514) 543-7246,https://www.boulangerielouise.ca/,bakery,"Montreal, Canada",google_maps
La Bête à Pain (Griffintown),"195 Rue Young, Montréal, QC H3C 2E9, Canada",,,(514) 509-8937,https://www.labeteapain.com/,bakery,"Montreal, Canada",google_maps
Boulangerie Mr Jreech,"1461 Rue Stanley Métro Level, Exit Stanley, Montreal, QC H3A 1P4, Canada",,,(514) 210-8265,https://boulangeriemrjreech.ca/,bakery,"Montreal, Canada",google_maps
Pasticceria Alati-Caserta,"277 Rue Dante, Montréal, QC H2S 1E7, Canada",,info@alaticaserta.com,(514) 271-3013,http://www.alaticaserta.com/,dessert shop,"Montreal, Canada",google_maps
Hof Kelsten,"4524 Boul. Saint-Laurent, Montréal, QC H2T 1R3, Canada",,,(514) 649-7991,http://hofkelsten.com/,bakery,"Montreal, Canada",google_maps
City Bakery,"204, Dr Annie Besant Rd, Worli Naka, BDD Chawls Worli, Worli, Mumbai, Maharashtra 400018, India",,,088791 59569,,bakery,"Mumbai, India",google_maps
Harley's Ivory Lounge - Kala Ghoda BSE,"20, Ambalal Doshi Marg, Kala Ghoda, Fort, Mumbai, Maharashtra 400001, India",,care@harleys.com,080830 98888,https://www.harleys.com/,pastry shop,"Mumbai, India",google_maps
Yazdani Restaurant & Bakery,"11A, Cawasji Patel St, Kala Ghoda, Fort, Mumbai, Maharashtra 400001, India",,,,,bakery,"Mumbai, India",google_maps
Baked In Bombay By Bread Boulevard,"Shop No, 61, Waroda Rd, Ranwar, Bandra West, Mumbai, Maharashtra 400050, India",,,070454 47099,,cafe,"Mumbai, India",google_maps
J Hearsch & Co.,"90 A, Hill Rd, next to Holy Family Hospital, Bandra West, Mumbai, Maharashtra 400050, India",,,091525 90746,,bakery,"Mumbai, India",google_maps
The Cookie Dough Cafe,"Ground Floor 1 , Parmeshwar Premises Vibgyor School Road, Chincholi Bunder Rd, off New Link Road, next to Hunky Dory, Malad, Mindspace, Malad West, Mumbai, Maharashtra 400064, India",,owner@cookiedoughcafe.in,091672 91009,https://cookiedoughcafe.in/,bakery,"Mumbai, India",google_maps
The Rolling Pin in Quattro,"12, Janta Industrial Estate, Senapati Bapat Marg, opposite Phoenix, Lower, Parel, Mumbai, Maharashtra 400013, India",,,022 4610 4612,https://www.therollingpin.in/,vegetarian restaurant,"Mumbai, India",google_maps
TwentySeven Bakehouse,"Shop No. 3, Glamour Glen, Building Housing Society, Videocon Icon, Dr Ambedkar Rd, Bandra West, Mumbai, Maharashtra 400050, India",,,093725 15271,,bakery,"Mumbai, India",google_maps
Bombay Baking Company,"Jw Marriott, Juhu Tara Rd, Juhu Tara, Juhu, Mumbai, Maharashtra 400049, India",,,022 6693 3344,https://www.marriott.com/en-us/hotels/bomjw-jw-marriott-mumbai-juhu/dining/,bakery,"Mumbai, India",google_maps
Deliciae by Bunty Mahajan,"Shop No 11, Gasper Enclave, St. John`s Road and, Pali Rd, Bandra West, Mumbai, Maharashtra 400050, India",,info@deliciaecakes.com,090290 23000,https://www.deliciaecakes.com/,cake shop,"Mumbai, India",google_maps
Miss Baker Mamta,"Transit Camps, 309/ B wing, Golibar Rd, Khar, shivalik ventures, Golibar, Santacruz East, Mumbai, Maharashtra 400051, India",,,085919 61364,http://www.missbakermamta.com/,bakery,"Mumbai, India",google_maps
National Bakery,"118, Bazar Rd, Santosh Nagar, Bandra West, Mumbai, Maharashtra 400050, India",,msranilsa@gmail.com,,http://nationalbakery1.website3.me/,bakery,"Mumbai, India",google_maps
"Kyani & Co. | Legendary Irani Restaurant, Bakers","Jer Mahal Building, 657, Jagannath Shankar Seth Rd, opp. Metro Inox Theatre, Marine Lines East, Dhobi Talao, Estate, Marine Lines, Mumbai, Maharashtra 400002, India",,,089286 16793,,persian restaurant,"Mumbai, India",google_maps
"VANILLA BEANS - Gourmet Cakes, Desserts & Hampers","Aradhana Building, off Station Road, Patkar Blocks, Bandra West, Mumbai, Maharashtra 400050, India",,,097731 55903,http://www.vanillabeanscakes.com/,bakery,"Mumbai, India",google_maps
Happy Cakes Shop Nairobi,"Kingsway Nairobi Centre - Along, Muindi Mbingu St, Nairobi, Kenya",,orders@happycakesbakery.co.ke,0793 544431,https://happycakesbakery.co.ke/,cake shop,"Nairobi, Kenya",google_maps
Nillavee Cakes & Pastries,"Nairobi, Kenya",,info@nillavee.co.ke,0723 174434,https://nillavee.co.ke/,cake shop,"Nairobi, Kenya",google_maps
BBROOD Kenya - Magadi Road,"Box 15808 - 00509, Galleria, Beltop Plaza, Magadi Road, Nairobi, Kenya",,info-ke@bbrood.com,0700 185566,https://bbrood.co.ke/,bakery,"Nairobi, Kenya",google_maps
Le Grenier À Pain,"9 Riverside Building, Ground Floor, 9 Riverside Dr, Nairobi, Kenya",,,0799 848118,http://www.legrenierapain.co.ke/,restaurant,"Nairobi, Kenya",google_maps
Cake City Westlands,"Ground Floor Gallant Mall, Parklands Road, Opposite Mayfair Suites, Westlands Rd, Nairobi, Kenya",,,0748 186486,http://cakecity.co.ke/,cake shop,"Nairobi, Kenya",google_maps
Cake City CBD,"Kenyatta Avenue, Ground Floor Avenue House, Nairobi, Kenya",,,0700 050505,http://www.cakecity.co.ke/,cake shop,"Nairobi, Kenya",google_maps
Tiramisu Bakery Kenya,"Limuru Rd, Nairobi, Kenya",,,0748 027315,https://www.tiramisubakery.co.ke/,bakery,"Nairobi, Kenya",google_maps
Black Forest Cake House,"Banda St, Nairobi, Kenya",Our Confectioners The,isimbah@blackforesthouse.co.ke,0794 263423,https://www.blackforesthouse.co.ke/,bakery,"Nairobi, Kenya",google_maps
Valentine Cake House - Head Office,"Room 318, Old Mutual Building, 3rd Floor Kimathi St, Nairobi, Kenya",,valentinecakehouse@gmail.com,0722 794414,http://www.valentinecakehouse.co.ke/,bakery,"Nairobi, Kenya",google_maps
Frenchmaid Bakery,"Fifth Parklands Ave, Nairobi, Kenya",,,0723 826120,,bakery,"Nairobi, Kenya",google_maps
Super Fresh Cakes Bakers,"Kenya Builders, Taj Mall Airport North Road, Nairobi, Kenya",Richie K,info@superfreshcakes.co.ke,0710 529399,https://superfreshcakes.co.ke/,cake shop,"Nairobi, Kenya",google_maps
Kate’s bakers,"Vumira House, Mchumbi Rd, Nairobi, Kenya",,,0722 288092,,bakery,"Nairobi, Kenya",google_maps
The Tipsy Bakery,"Shopping Center, Nairobi, Kenya",,,0757 309509,https://thetipsybakery.africa.restaurant/,bakery,"Nairobi, Kenya",google_maps
Kilimani Bakeries,"Kilimani Road, off Elgeyo Marakwet road, Elysee Plaza, Kilimani Road, Nairobi, North, Kenya",,info@kilimanibakeries.co.ke,0722 761231,https://www.kilimanibakeries.co.ke/,bakery,"Nairobi, Kenya",google_maps
Cake and Crunch,"Pangani, Mweni Road, Opp Don Bosco Secondary Schoo, Nairobi, Kenya",,,0700 199599,,cake shop,"Nairobi, Kenya",google_maps
Bakes-by-MK,"Ronald Ngala St, Nairobi, Kenya",,,0112 331072,,bakery,"Nairobi, Kenya",google_maps
Cakes & Cakes Bakery Kilimani,"Suite B2, PQ4V+PHF meters from Four Points By Sheraton Hotel, Starwood, 100 Argwings Kodhek Rd, Nairobi, Kenya",,,0715 533144,http://www.cakes.co.ke/,bakery,"Nairobi, Kenya",google_maps
Krumble Fresh Cakes Kenya,"Semco Industrial Park, Nairobi, Kenya",,,0717 268284,,cake shop,"Nairobi, Kenya",google_maps
Cakes And Muffin House,"Ngong Road Cakes and muffins house, Nairobi, Kenya",,info@cakesandmuffins.co.ke,0724 693103,http://www.cakesandmuffins.co.ke/,restaurant,"Nairobi, Kenya",google_maps
"Windmill Bakery, Cafe And Snack Bar","Parklands Rd, Nairobi, Kenya",,,0787 636062,,bakery,"Nairobi, Kenya",google_maps
Boulangerie Utopie,"20 Rue Jean-Pierre Timbaud, 75011 Paris, France",,,09 82 50 74 48,https://boulangerieutopie.com/,bakery,"Paris, France",google_maps
Du Pain et des Idées,"34 Rue Yves Toudic, 75010 Paris, France",,,01 42 40 44 52,http://dupainetdesidees.com/,bakery,"Paris, France",google_maps
BO&MIE,"18 R. de Turbigo, 75002 Paris, France",,info@boetmie.com,09 80 53 79 53,https://www.boetmie.com/,bakery,"Paris, France",google_maps
A. Lacroix Pâtissier,"11 Quai de Montebello, 75005 Paris, France",,alacroixpatisserie@gmail.com,01 74 64 14 86,http://www.alacroixparis.com/,ice cream shop,"Paris, France",google_maps
Aux Merveilleux de Fred,"24 Rue du Pont Louis-Philippe, 75004 Paris, France",,,01 57 40 98 43,https://www.auxmerveilleux.fr/,pastry shop,"Paris, France",google_maps
La Pâtisserie Cyril Lignac,"24 Rue Paul Bert, 75011 Paris, France",,,01 55 87 21 40,https://lapatisseriecyrillignac.com/fr/,pastry shop,"Paris, France",google_maps
Stohrer,"51 Rue Montorgueil, 75002 Paris, France",,,01 42 33 38 20,https://stohrer.fr/,catering service,"Paris, France",google_maps
Gem la Pâtisserie Paris,"1 Rue de Marivaux, 75002 Paris, France",,,01 88 48 09 91,http://www.gemlapatisserie.fr/,pastry shop,"Paris, France",google_maps
Besties Bakery,"11 Rue Auber, 75009 Paris, France",,commande.paris@bestiesbakery.fr,09 78 80 45 15,https://bestiesbakery.fr/paris/,tea house,"Paris, France",google_maps
Pain Pain,"88 R. des Martyrs, 75018 Paris, France",,,,http://www.pain-pain.fr/,bakery,"Paris, France",google_maps
Aki Boulangerie,"16 Rue Sainte-Anne, 75001 Paris, France",,,,https://www.akiparis.fr/,bakery,"Paris, France",google_maps
Boulangerie Poilâne,"8 Rue du Cherche-Midi, 75006 Paris, France",,,01 45 48 42 59,http://www.poilane.com/,bakery,"Paris, France",google_maps
Brigat',"6 Rue du Pas de la Mule, 75003 Paris, France",,,01 57 40 83 85,http://brigat.paris/,pastry shop,"Paris, France",google_maps
Wonderland Patisserie,"208 Av. du Maine, 75014 Paris, France",,wonderland.patisserie.paris@outlook.fr,01 45 43 17 83,https://www.wonderland-patisserie-paris.com/,pastry shop,"Paris, France",google_maps
Bontemps La Pâtisserie,"57 Rue de Bretagne, 75003 Paris, France",,,01 42 74 10 68,http://www.bontemps.paris/,pastry shop,"Paris, France",google_maps
Pain de Sucre,"14 Rue Rambuteau, 75003 Paris, France",,,01 45 74 68 92,http://www.patisseriepaindesucre.com/,catering service,"Paris, France",google_maps
Leonie Bakery,"15 Av. Trudaine, 75009 Paris, France",,bonjour@leoniebakery.com,01 40 38 00 55,http://www.leoniebakery.com/,bakery,"Paris, France",google_maps
Boulangerie Chambelland,"14 Rue Ternaux, 75011 Paris, France",,,01 43 55 07 30,https://chambelland.com/,bakery,"Paris, France",google_maps
UNION BOULANGERIE PARIS 9,"2 Rue Bleue, 75009 Paris, France",,,,https://www.instagram.com/union_boulangerie/?hl=fr,bakery,"Paris, France",google_maps
Le Levain Roma,"Via Luigi Santini, 22, 00153 Roma RM, Italy",,,327 294 1753,https://www.lelevainroma.it/,bakery,"Rome, Italy",google_maps
Antico Forno Roscioli,"Via dei Chiavari, 34, 00186 Roma RM, Italy",,,06 686 4045,http://www.anticofornoroscioli.it/,bakery,"Rome, Italy",google_maps
Regoli Pasticceria,"Via dello Statuto, 60, 00185 Roma RM, Italy",,,06 487 2812,http://www.pasticceriaregoli.com/,pastry shop,"Rome, Italy",google_maps
L' Antico Forno Di Fontana Di Trevi,"Via delle Muratte, 8, 00187 Roma RM, Italy",,,06 679 2866,http://www.anticoforno.it/,bakery,"Rome, Italy",google_maps
Pasticceria Barberini,"Via Marmorata, 41, 00153 Roma RM, Italy",,info@pasticceriabarberini.it,06 5725 0431,http://www.pasticceriabarberini.it/,pastry shop,"Rome, Italy",google_maps
Bakery Roscioli Pietro,"Via Buonarroti, 46/48, 00185 Roma RM, Italy",,info@fornoroscioliesquilino.it,06 446 7146,https://www.fornoroscioliesquilino.it/,bakery,"Rome, Italy",google_maps
Forno Monteforte,"Via del Pellegrino, 129, 00186 Roma RM, Italy",,info@fornomonteforte.com,06 2539 9550,https://fornomonteforte.com/,bakery,"Rome, Italy",google_maps
Antico Forno Serpenti,"Via dei Serpenti, 122/123, 00184 Roma RM, Italy",,,06 4542 7920,http://www.anticofornoaiserpenti.it/,pizza restaurant,"Rome, Italy",google_maps
Biscottificio Artigiano Innocenti,"Via della Luce, 21, 00153 Roma RM, Italy",,biscottificioinnocenti@gmail.com,06 580 3926,http://biscottificioartigianoinnocenti.wordpress.com/,cake shop,"Rome, Italy",google_maps
Forno Conti & Co.,"Via Giusti, 18, 00185 Roma RM, Italy",,,06 275 7595,https://fornoconti.co/,bakery,"Rome, Italy",google_maps
The baker of Sardinia,"Via delle Carrozze, 85, 00187 Roma RM, Italy",,,06 8438 2865,,bakery,"Rome, Italy",google_maps
Pasticceria Bompiani,"Largo Benedetto Bompiani, 8, 00147 Roma RM, Italy",,info@pasticceriawaltermusco.it,06 512 4103,http://www.pasticceriawaltermusco.it/,pastry shop,"Rome, Italy",google_maps
I Dolci di Nonna Vincenza,"Via dell'Arco del Monte, 98/A/B/98/A/B, 00186 Roma RM, Italy",,,06 9259 4322,,pastry shop,"Rome, Italy",google_maps
Riccardo Taliani Banqueting,"Via Genova, 26, 00184 Roma RM, Italy",,,327 899 3543,https://talianiroma.it/,coffee shop,"Rome, Italy",google_maps
La Pasticciera,"Via Varese, 43, 00185 Roma RM, Italy",,info@lapasticciera.it,06 8308 2160,http://lapasticciera.it/,pastry shop,"Rome, Italy",google_maps
Baker Boss,"Via di S. Giovanni in Laterano, 64/66, 00184 Roma RM, Italy",Giulia Moretti,,06 7720 3081,http://bakerboss.it/,bakery,"Rome, Italy",google_maps
Pasticceria Leonardo Roma,"Via di Santa Maria dell'Anima, 52, 00186 Roma RM, Italy",,,06 6921 6790,https://www.instagram.com/pasticcerialeonardo52/,dessert shop,"Rome, Italy",google_maps
Il Fornaio,"Via Dei Baullari, 00186 Roma RM, Italy",,,,,bakery,"Rome, Italy",google_maps
Charlotte Pasticceria,"Via Vercelli, 12, 00182 Roma RM, Italy",,,06 2539 9727,http://www.charlotteroma.it/,pastry shop,"Rome, Italy",google_maps
Napoleoni Gluten Free - Rome,"Via Appia Nuova, 590, 00179 Roma RM, Italy",,senzaglutine@cavalieri.it,06 780 4727,http://www.napoleoniglutenfree.it/,pastry shop,"Rome, Italy",google_maps
Arsicault Bakery,"397 Arguello Blvd, San Francisco, CA 94118, USA",,,(415) 750-9460,https://arsicault-bakery.com/,bakery,"San Francisco, USA",google_maps
Jane The Bakery,"1881 Geary Blvd, San Francisco, CA 94115, USA",,,(415) 658-7971,https://www.itsjane.com/location/jane-the-bakery/,bakery,"San Francisco, USA",google_maps
Tartine Bakery,"600 Guerrero St, San Francisco, CA 94110, USA",,,(415) 487-2600,http://www.tartinebakery.com/,bakery,"San Francisco, USA",google_maps
Schubert's Bakery,"521 Clement St, San Francisco, CA 94118, USA",,,(415) 752-1580,http://www.schuberts-bakery.com/,bakery,"San Francisco, USA",google_maps
b. patisserie,"2821 California St, San Francisco, CA 94115, USA",,,(415) 440-1700,http://bpatisserie.com/,pastry shop,"San Francisco, USA",google_maps
Boudin Bakery,"160 Jefferson St, San Francisco, CA 94133, USA",,info@bistroboudin.com,(415) 351-5561,https://www.bistroboudin.com/,restaurant,"San Francisco, USA",google_maps
LOQUAT,"198 Gough St, San Francisco, CA 94102, USA",,,(415) 932-6816,http://loquatsf.com/,bakery,"San Francisco, USA",google_maps
Neighbor Bakehouse,"2343 3rd St UNIT 100, San Francisco, CA 94107, USA",,,(415) 814-2544,,bakery,"San Francisco, USA",google_maps
Maison Nico,"710 Montgomery St, San Francisco, CA 94111, USA",,info@maisonnico.com,(415) 359-1000,http://maisonnico.com/,cafe,"San Francisco, USA",google_maps
Craftsman and Wolves Valencia,"746 Valencia St, San Francisco, CA 94110, USA",,hello@craftsman-wolves.com,(415) 913-7713,http://www.craftsman-wolves.com/,pastry shop,"San Francisco, USA",google_maps
Stella Pastry,"446 Columbus Ave, San Francisco, CA 94133, USA",,,(415) 986-2914,,pastry shop,"San Francisco, USA",google_maps
Cinderella Bakery & Cafe,"436 Balboa St, San Francisco, CA 94118, USA",,order@cinderellabakery.com,(415) 751-9690,https://cinderellabakery.com/,bakery,"San Francisco, USA",google_maps
Arizmendi Bakery,"1331 9th Ave, San Francisco, CA 94122, USA",,info@arizmendibakery.com,(415) 566-3117,http://www.arizmendibakery.com/,bakery,"San Francisco, USA",google_maps
Butter & Crumble,"271 Francisco St, San Francisco, CA 94133, USA",,salina@butterandcrumble.com,(415) 874-9484,https://butterandcrumble.com/,bakery,"San Francisco, USA",google_maps
Thorough Bread & Pastry,"248 Church St, San Francisco, CA 94114, USA",,thoroughbreadandpastry@gmail.com,(415) 558-0690,https://www.thoroughbreadandpastry.com/,bakery,"San Francisco, USA",google_maps
Arsicault Bakery,"87 McAllister St, San Francisco, CA 94102, USA",,,(415) 926-5155,https://arsicault-bakery.com/,bakery,"San Francisco, USA",google_maps
Boho Petite,"2146 Chestnut St, San Francisco, CA 94123, USA",,,(415) 655-9559,https://www.bohopetitesf.com/,bakery,"San Francisco, USA",google_maps
Noe Valley Bakery,"4073 24th St, San Francisco, CA 94114, USA",,,(415) 550-1405,https://noevalleybakery.com/,bakery,"San Francisco, USA",google_maps
ONE65 Patisserie & Boutique,"165 O'Farrell St 1st Floor, San Francisco, CA 94102, USA",,,(415) 814-8888,https://one65sf.com/,breakfast restaurant,"San Francisco, USA",google_maps
jina bakes,"1581 Webster St #150, San Francisco, CA 94115, USA",,,,https://jinabakes.com/,bakery,"San Francisco, USA",google_maps
Boston Bakery,"R. Clodomiro Amazonas, 816 - Vila Nova Conceição, São Paulo - SP, 04537-002, Brazil",,contato@bostonbakery.com.br,(11) 3040-4393,http://www.bostonbakery.com.br/,bakery,"Sao Paulo, Brazil",google_maps
My Baker,"R. Pedroso Alvarenga, 655 - Itaim Bibi, São Paulo - SP, 04531-011, Brazil",,,(11) 97838-6335,http://www.mybaker.com.br/,bakery,"Sao Paulo, Brazil",google_maps
Le Blé - Casa de Pães,"R. Pará, 252 - Higienópolis, São Paulo - SP, 01243-020, Brazil",,,(11) 3663-4626,http://www.leblecasadepaes.com.br/,bakery,"Sao Paulo, Brazil",google_maps
Carlo's Bakery,"R. Bela Cintra, 2182 - Cerqueira César, São Paulo - SP, 01415-002, Brazil",,,(11) 95318-0674,http://carlosbakery.com.br/,pastry shop,"Sao Paulo, Brazil",google_maps
Basilicata - Panetteria Mercato Cucina,"R. Treze de Maio, 596 - Bela Vista, São Paulo - SP, 01327-000, Brazil",,comercial@basilicata.com.br,(11) 3289-3111,http://www.basilicata.com.br/,bakery,"Sao Paulo, Brazil",google_maps
Padaria Galeria dos Pães,"R. Estados Unidos, 1645 - Jardim America, São Paulo - SP, 01427-002, Brazil",,galeria@galeriadospaes.com.br,(11) 3064-5900,http://galeriadospaes.com.br/,bakery,"Sao Paulo, Brazil",google_maps
Beth Bakery,"Rua Paula Ney, 298 - Vila Mariana, São Paulo - SP, 04107-020, Brazil",,pedidos@bethbakery.com.br,(11) 94183-5634,http://www.bethbakery.com.br/,bakery,"Sao Paulo, Brazil",google_maps
Fabrique Pão e Café,"R. Itacolomi, 612 - Higienópolis, São Paulo - SP, 05041-000, Brazil",,,(11) 4801-4318,https://www.instagram.com/fabriquepaes/,bakery,"Sao Paulo, Brazil",google_maps
Cepam,"R. Ibitirama, 1409 - Vila Prudente, São Paulo - SP, 03133-200, Brazil",,cepam@cepam.com.br,(11) 4750-1306,http://www.cepam.com.br/,bakery,"Sao Paulo, Brazil",google_maps
Requinte Pães e Doces,"Av. Amador Bueno da Veiga, 1312 - Vila Centenario, São Paulo - SP, 03635-000, Brazil",,,(11) 2958-6965,http://www.requinte.com.br/,bakery,"Sao Paulo, Brazil",google_maps
Confeitaria Paris,"R. Vaz Muniz, 776 - Água Fria, São Paulo - SP, 02337-000, Brazil",,contato@confeitariaparis.com.br,(11) 2203-1755,https://www.confeitariaparis.com.br/,bakery,"Sao Paulo, Brazil",google_maps
A Fornada Padaria Jardins,"Alameda Min. Rocha Azevedo, 1153 - Jardim Paulista, São Paulo - SP, 01410-003, Brazil",,contato@afornadapadaria.com.br,(11) 2476-6603,http://www.afornadapadaria.com.br/,bakery,"Sao Paulo, Brazil",google_maps
Panadero - Padaria Artesanal,"Rua Amália de Noronha, 251 - Pinheiros, São Paulo - SP, 05410-010, Brazil",,,(11) 98396-9530,https://panaderopao.com/,bakery,"Sao Paulo, Brazil",google_maps
Bakery São Domingos,"R. São Domingos, 330 - Bela Vista, São Paulo - SP, 01326-000, Brazil",,contato@paoitalianosaodomingos.com.br,(11) 3104-7600,http://www.paoitalianosaodomingos.com.br/,bakery,"Sao Paulo, Brazil",google_maps
Bellapan Bakery,"Rua Prates, 563 - Bom Retiro, São Paulo - SP, 01121-000, Brazil",,,(11) 3227-1694,,bakery,"Sao Paulo, Brazil",google_maps
Bakebun Cinnamon Roll Cookies e Café Especial Bela Vista,"R. Herculano de Freitas, 300 - Bela Vista, São Paulo - SP, 01308-020, Brazil",,,(11) 94273-9459,http://www.bakebun.com.br/,coffee shop,"Sao Paulo, Brazil",google_maps
Brioche Brasil,"R. das Perdizes, 25a - Barra Funda, São Paulo - SP, 01156-030, Brazil",,,,https://www.instagram.com/briochebrasil?igsh=MTBjZzh6cnJtcmtsMg==,bakery,"Sao Paulo, Brazil",google_maps
Padaria Santa Tereza,"Praça Dr. João Mendes, 150 - Centro Histórico de São Paulo, São Paulo - SP, 01501-000, Brazil",,,(11) 3111-1030,https://www.instagram.com/padariasantatereza?igsh=MWJudnUxNWprNHAwMQ==,bakery,"Sao Paulo, Brazil",google_maps
Delícias Colméia,"Alameda Lorena, 805 - Jardins, São Paulo - SP, 01424-005, Brazil",,,(11) 3083-6676,,bakery,"Sao Paulo, Brazil",google_maps
Le Panier,"1902 Pike Pl, Seattle, WA 98101, USA",,info@lepanier.com,(206) 441-3669,https://www.lepanier.com/,bakery,"Seattle, USA",google_maps
Byen Bakeri,"15 Nickerson St, Seattle, WA 98109, USA",,byenbakeri15@gmail.com,(206) 218-1000,http://www.byenbakeri.com/,bakery,"Seattle, USA",google_maps
Bakery Nouveau,"4737 California Ave SW, Seattle, WA 98116, USA",,,(206) 923-0534,http://bakerynouveau.com/,bakery,"Seattle, USA",google_maps
La Parisienne French Bakery,"2507 4th Ave, Seattle, WA 98121, USA",,laparisienne.seattle@gmail.com,(206) 728-1874,http://www.laparisienneseattle.com/,bakery,"Seattle, USA",google_maps
Bakery Nouveau,"137 15th Ave E, Seattle, WA 98112, USA",,,(206) 858-6957,http://www.bakerynouveau.com/,bakery,"Seattle, USA",google_maps
Sugar Bakery,"110 Republican St, Seattle, WA 98109, USA",,quynh@sugarbakerycafe.com,(206) 695-2518,https://sugarbakerycafe.com/,bakery,"Seattle, USA",google_maps
Temple Pastries,"2524 S Jackson St #104, Seattle, WA 98144, USA",,,,http://templepastries.com/,bakery,"Seattle, USA",google_maps
Cakes of Paradise Bakery,"6322 6th Ave S, Seattle, WA 98108, USA",,aloha@cakesofparadise206.com,(206) 763-1151,http://www.cakesofparadise206.com/,bakery,"Seattle, USA",google_maps
Mitten Sweets & Coffee,"509 13th Ave, Seattle, WA 98122, USA",,,(206) 402-6504,http://mittensweetsandcoffee.com/,bakery,"Seattle, USA",google_maps
Fuji Bakery-Elliott/Interbay,"1030 Elliott Ave W, Seattle, WA 98119, USA",,,(206) 216-3616,http://www.fujibakeryinc.com/,bakery,"Seattle, USA",google_maps
Fuji Bakery-ID/King St,"526 S King St #2834, Seattle, WA 98104, USA",,,(206) 623-4050,http://fujibakeryinc.com/,bakery,"Seattle, USA",google_maps
Sea Wolf Bakers,"3617 Stone Way N Suite 101, Seattle, WA 98103, USA",,seawolfbakers@gmail.com,(206) 360-0001,http://www.seawolfbakers.com/,bakery,"Seattle, USA",google_maps
Macrina Bakery & Cafe,"2408 1st Ave, Seattle, WA 98121, USA",Our Team Back,contactus@macrinabakery.com,(206) 448-4032,http://macrinabakery.com/,bakery,"Seattle, USA",google_maps
Dahlia Bakery,"2001 4th Ave, Seattle, WA 98121, USA",,,(206) 441-4540,https://www.dahliabakery.com/?utm_source=gbp&utm_medium=organic&utm_campaign=fm,bakery,"Seattle, USA",google_maps
Tous Les Jours,"101 Terry Ave N, Seattle, WA 98109, USA",,,(206) 457-5096,http://tljus.com/stores/seattle-101-terry-ave-n?utm_source=google&utm_medium=gbp&utm_campaign=seattle-terry,bakery,"Seattle, USA",google_maps
Bake Shop,"221 1st Ave W #100, Seattle, WA 98119, USA",,,(206) 922-3667,http://bakeshopseattle.com/,bakery,"Seattle, USA",google_maps
Moonrise Bakery,"1805 Queen Anne Ave N, Seattle, WA 98109, USA",,,(206) 623-7383,http://www.moonrise-bakery.com/,bakery,"Seattle, USA",google_maps
Freya Bakery & Cafe,"1426 Western Ave, Seattle, WA 98101, USA",,,(206) 402-5530,https://www.freyabakery.com/,bakery,"Seattle, USA",google_maps
Larsen's Bakery,"8000 24th Ave NW, Seattle, WA 98117, USA",,cs@larsensbakery.com,(206) 782-8285,http://www.larsensbakery.com/,bakery,"Seattle, USA",google_maps
Mother Dough Bakery,"3 Jln Kledek, Singapore 199259",,bulkorder@motherdough.com.sg,6909 6604,https://www.motherdough.com.sg/,bakery,Singapore,google_maps
Tiong Bahru Bakery,"56 Eng Hoon St, #01-70, Singapore 160056",,,6220 3430,http://www.tiongbahrubakery.com/,cafe,Singapore,google_maps
Konditori Artisan Bakes & Pastries,"33 Bussorah St, Singapore 199451",,,6209 8580,http://www.konditori.sg/,bakery,Singapore,google_maps
Tiong Bahru Bakery,"70 River Valley Rd, #01-05 Foothills Fort Canning, Singapore 179037",,,6877 4865,https://www.tiongbahrubakery.com/,cafe,Singapore,google_maps
Creme Maison Bakery,"25 Playfair Rd, #04-01, Singapore 367990",,,8281 7688,http://crememaison.com/,bakery,Singapore,google_maps
Bakery Brera & Fine Foods,"#01-05, 8 Empress Rd, Singapore 260008",,,8413 6569,https://www.bakerybrera.com/,bakery,Singapore,google_maps
Bread & Butter By XY,"138 Robinson Rd, #01-04 Oxley Tower, Singapore 068906",,,8044 9405,http://www.breadandbutterbyxy.com/,bakery,Singapore,google_maps
The French American Bakery,"49 Haji Ln, Singapore 189242",,hello@tfab.sg,,http://www.tfab.sg/,bakery,Singapore,google_maps
Pantler (Japanese French cakes pastries),"474 River Valley Rd, Singapore 248359",,,6221 6223,http://shop.pantler.com.sg/,cake shop,Singapore,google_maps
Baker's Bench Bakery,"6 Bukit Pasoh Rd, Singapore 089820",,hello@bakersbenchbakery.com,9457 1593,http://www.bakersbenchbakery.com/,bakery,Singapore,google_maps
La Levain,"23 Hamilton Rd, Singapore 209193",The Chef,,9822 3924,http://lalevain.com/,cafe,Singapore,google_maps
The Bakehaus,"130 Owen Rd, Singapore 218934",,thebakehaus.sg@gmail.com,8202 8208,http://thebakehaus.sg/,bakery,Singapore,google_maps
nesuto @ Tanjong Pagar,"53 Tras St, #01-01, Singapore 078992",,sales.enquiries@dear-nesuto.com,6980 5977,http://www.dear-nesuto.com/,pastry shop,Singapore,google_maps
Sing Hon Loong Bakery,"4 Whampoa Dr, Singapore 327715",,,6256 0878,https://www.facebook.com/singhonloong/,bakery,Singapore,google_maps
Take A Bake,"505B Bishan St.11, #01-420, Singapore 572505",,,8843 0085,http://pieceofcake.sg/,bakery,Singapore,google_maps
Bob the Baker Boy,"218 Pandan Lp, Xpace@218 05-06, Singapore 128408",,,8862 3327,https://bobthebakerboy.com/,cake shop,Singapore,google_maps
Baker's Brew @ Upper Thomson,"246H Upper Thomson Rd, Singapore 574370",,enquiries@bakersbrew.com,6493 2246,https://www.bakersbrew.com/,cake shop,Singapore,google_maps
Tiong Bahru Bakery,"43 Jln Merah Saga, #01-74, Singapore 278115",,,6877 4868,https://www.tiongbahrubakery.com/,cafe,Singapore,google_maps
Woodlands Sourdough,"183 Upper Thomson Rd, #01-03, Singapore 574332",,,,http://facebook.com/WoodlandsSD/,bakery,Singapore,google_maps
Banksia Bakehouse,"225 George St, Tenancy 4 Grosvenor Place, Sydney NSW 2000, Australia",,,0401 588 491,http://www.banksia.sydney/,bakery,"Sydney, Australia",google_maps
Flour and Stone,"53 Riley St, Woolloomooloo NSW 2011, Australia",,,(02) 8068 8818,https://flourandstone.com.au/,bakery,"Sydney, Australia",google_maps
Bourke Street Bakery Surry Hills,"633 Bourke St, Surry Hills NSW 2010, Australia",,info@bourkestreetbakery.com.au,(02) 9699 1011,http://www.bourkestreetbakery.com.au/,bakery,"Sydney, Australia",google_maps
Lode Pies & Pastries Surry Hills,"487 Crown St, Surry Hills NSW 2010, Australia",,,,http://www.lodepies.com/,bakery,"Sydney, Australia",google_maps
A.P House (A.P Bakery),"L2/80 Commonwealth St, Surry Hills NSW 2010, Australia",,hello@apbakery.com.au,,http://www.apbakery.com.au/,bakery,"Sydney, Australia",google_maps
La Renaissance Patisserie and Cafe,"47 Argyle St, The Rocks NSW 2000, Australia",,,(02) 9241 4878,http://www.larenaissance.com.au/,pastry shop,"Sydney, Australia",google_maps
Black Star Pastry Sydney CBD,"Shop 26, Ground Floor/500 George St, Sydney NSW 2000, Australia",,,(02) 9557 8656,http://blackstarpastry.com/,cafe,"Sydney, Australia",google_maps
Wholegreen Bakery & Cafe Sydney City,"257 Clarence St, Sydney NSW 2000, Australia",,orders@wholegreenbakery.com.au,(02) 9286 3963,http://www.wholegreenbakery.com.au/,brunch restaurant,"Sydney, Australia",google_maps
Pioik Bakery Pyrmont,"176-178 Harris St, Pyrmont NSW 2009, Australia",Our Bakers Bakery,,0414 336 143,http://pioikbakery.com.au/,bakery,"Sydney, Australia",google_maps
On Baked Croissant,"Shop1/68 Bay St, Ultimo NSW 2007, Australia",,,0420 983 936,https://www.instagram.com/onbaked_croissant,bakery,"Sydney, Australia",google_maps
Le MONDE Bakery-Cafe,"100 Bathurst St, Sydney NSW 2000, Australia",,,0431 192 504,http://www.lemondebakery.com.au/,bakery,"Sydney, Australia",google_maps
Lode Pies & Pastries Circular Quay,"Shop CQT.05B, 33 Pitt St, Sydney NSW 2000, Australia",,,,https://www.lodepies.com/,bakery,"Sydney, Australia",google_maps
Rollers Bakehouse,"19 Rialto Ln, Manly NSW 2095, Australia",,,,https://www.rollersbakehouse.com/,bakery,"Sydney, Australia",google_maps
Humble Bakery - Surry Hills,"Shop 2/50 Holt St, Surry Hills NSW 2010, Australia",,restaurant@humblesydney.com,(02) 9435 0801,https://www.humblesydney.com/,bakery,"Sydney, Australia",google_maps
Tenacious Bakehouse,"101 Oxford St, Darlinghurst NSW 2010, Australia",,hello@tenaciousbakehouse.com.au,,https://www.tenaciousbakehouse.com.au/,bakery,"Sydney, Australia",google_maps
Sweet Belem Cake Boutique,"35B New Canterbury Rd, Petersham NSW 2049, Australia",,sweetbelemcakes@gmail.com,0499 519 838,http://sweetbelem.com.au/,bakery,"Sydney, Australia",google_maps
Breadfern Bakery,"306-308 Chalmers St, Redfern NSW 2016, Australia",Michel Akolbi Breadfern,contact@breadfern.com.au,(02) 8065 3959,http://www.breadfern.com.au/,bakery,"Sydney, Australia",google_maps
Brickfields Chippendale,"206 Cleveland St, Chippendale NSW 2008, Australia",,,(02) 9698 7880,http://brickfields.com.au/,bakery,"Sydney, Australia",google_maps
Centre The Bakery,"Japan, 〒104-0061 Tokyo, Chuo City, Ginza, 1-chōme−2−１ 紺屋ビル 1F 東京高速道路",,,03-3562-1016,https://www.instagram.com/centre_the_bakery/,bakery,"Tokyo, Japan",google_maps
BOUL'ANGE Shinjuku Southern Terrace,"Shinjuku Southern Terrace, 2-chōme-2-1 Yoyogi, Shibuya, Tokyo 151-0053, Japan",,,03-5302-2282,https://www.flavorworks.co.jp/boulange,bakery,"Tokyo, Japan",google_maps
Katane Bakery,"1-chōme-7-5 Nishihara, Shibuya, Tokyo 151-0066, Japan",,,03-3466-9834,https://www.instagram.com/katanebakery/,bakery,"Tokyo, Japan",google_maps
MORETHAN BAKERY,"Japan, 〒160-0023 Tokyo, Shinjuku City, Nishishinjuku, 4-chōme−31−１ 1F",,,03-6276-7635,https://www.mothersgroup.jp/shop/morethan_bakery.html,bakery,"Tokyo, Japan",google_maps
365 Days,"1-chōme-2-8 Tomigaya, Shibuya, Tokyo 151-0063, Japan",,,03-6804-7357,http://ultrakitchen.jp/,bakery,"Tokyo, Japan",google_maps
THE CITY BAKERY GinzaNovo,"Japan, 〒104-0061 Tokyo, Chuo City, Ginza, 5-chōme−2−１ 東急プラザ銀座 地下 中央区銀座５丁目２−１ 銀座Novo２階",,,03-6264-5201,https://thecitybakery.jp/shop/ginza.html,bakery,"Tokyo, Japan",google_maps
THE STANDARD BAKERS TOKYO,"Japan, 〒100-0005 Tokyo, Chiyoda City, Marunouchi, 1-chōme−9−１ 東京駅構内 GRANSTA TOKYO１階",,,03-6665-7995,https://the-sbk.jp/tokyo/,bakery,"Tokyo, Japan",google_maps
Parklet Bakery,"Japan, 〒103-0024 Tokyo, Chuo City, Nihonbashikobunachō, 14−７ SOIL Nihonbashi１階",,info@parkletbakery.com,03-3527-2627,https://parkletbakery.com/,bakery,"Tokyo, Japan",google_maps
Tarui Bakery,"4-chōme-5-13 Yoyogi, Shibuya, Tokyo 151-0053, Japan",,,03-6276-7610,https://www.instagram.com/taruibakery?igsh=enBhYTFudmZkdGJs,bakery,"Tokyo, Japan",google_maps
MAISON KAYSER Tokyo Midtown Store,"Japan, 〒107-0052 Tokyo, Minato City, Akasaka, 9-chōme−7−４ 東京ミッドタウン ガレリア 地下１階",,,03-6804-6285,http://maisonkayser.co.jp/location/tokyo-midtown/,bakery,"Tokyo, Japan",google_maps
The Little BAKERY Tokyo,"6-chōme-13-6 Jingūmae, Shibuya, Tokyo 150-0001, Japan",,,03-6450-5707,https://goodtown.thebase.in/,bakery,"Tokyo, Japan",google_maps
Le Ressort,"Japan, 〒153-0041 Tokyo, Meguro City, Komaba, 3-chōme−11−６ 桑野ビル 1F",,,03-3467-1172,https://leressort.jp/,bakery,"Tokyo, Japan",google_maps
Bartizan Bread Factory,"Japan, 〒107-0062 Tokyo, Minato City, Minamiaoyama, 7-chōme−11−４ H.T南青山ビルディングⅢ1F",,bartizanfactory@global-dining.com,050-5444-9107,https://bartizan-factory.jp/,bakery,"Tokyo, Japan",google_maps
Bakery & Cafe Yamazaki,"1-chōme-1-17 Nishiasakusa, Taito City, Tokyo 111-0035, Japan",,,03-5830-6740,,bakery,"Tokyo, Japan",google_maps
Asakusa Kagetsudō Melon Bread,"2-chōme-7-13 Asakusa, Taito City, Tokyo 111-0032, Japan",,,03-3847-5251,http://www.asakusa-kagetudo.com/,bakery,"Tokyo, Japan",google_maps
THE CITY BAKERY Shinagawa,"Japan, 〒108-0075 Tokyo, Minato City, Kōnan, 2-chōme−18−１ アトレ品川 2F",,,03-6717-0960,https://thecitybakery.jp/shop/shinagawa.html,bakery,"Tokyo, Japan",google_maps
Green Thumb,"28-9 Sakuragaokachō, Shibuya, Tokyo 150-0031, Japan",,,03-6452-5611,http://greenthumb.tokyo/,bakery,"Tokyo, Japan",google_maps
BOUL'ANGE NIHONBASHI,"Japan, 〒103-0022 Tokyo, Chuo City, Nihonbashimuromachi, 1-chōme−5−５ COREDO Muromachi 3, B1",,,03-3277-6022,https://www.flavorworks.co.jp/boulange,bakery,"Tokyo, Japan",google_maps
Kandagawa Bakery,"1-chōme-11-14 Takada, Toshima City, Tokyo 171-0033, Japan",,kandagawa.bakery@gmail.com,070-6971-0731,http://www.kandagawabakery.com/,bakery,"Tokyo, Japan",google_maps
Levain,"2-chōme-43-13 Tomigaya, Shibuya, Tokyo 151-0063, Japan",,,03-3468-9669,https://www.instagram.com/levain_tokyo/,bakery,"Tokyo, Japan",google_maps
Forno Cultura,"609 King St W, Toronto, ON M5V 1M5, Canada",,,(416) 603-8305,https://fornocultura.com/,bakery,"Toronto, Canada",google_maps
Blackbird Baking Co. Kensington Market,"172 Baldwin St, Toronto, ON M5T 1L8, Canada",,,(416) 546-2280,http://blackbirdbakingco.com/,bakery,"Toronto, Canada",google_maps
Serano Bakery,"830 Pape Ave, East York, ON M4K 3T5, Canada",,info@seranobakery.com,(416) 462-2735,https://seranobakery.com/,bakery,"Toronto, Canada",google_maps
Aux Merveilleux de Fred,"224 Queen St W, Toronto, ON M5V 1Z6, Canada",,,(647) 812-5982,http://www.marvelousbyfred.ca/,pastry shop,"Toronto, Canada",google_maps
Blackbird Baking Co. Riverside,"635 Queen St E Unit 101, Toronto, ON M4M 1G4, Canada",,,(416) 465-0043,https://blackbirdbakingco.com/,bakery,"Toronto, Canada",google_maps
'Le Beau' Croissanterie,"665 Dundas St E, Toronto, ON M5A 0P4, Canada",,info@lebeaulab.com,,http://www.lebeaulab.com/,bakery,"Toronto, Canada",google_maps
Bakerbots Baking,"1242 Bloor St W, Toronto, ON M6H 1N5, Canada",,,(416) 901-3500,http://bakerbotsbaking.com/,bakery,"Toronto, Canada",google_maps
Petite Bouchée Patisserie,"28 Sousa Mendes St, Toronto, ON M6P 0B2, Canada",,,(416) 588-8882,https://www.instagram.com/petite__bouchee_patisserie/,pastry shop,"Toronto, Canada",google_maps
Butter Baker Market Café,"114 Dundas St W, Toronto, ON M5G 1C3, Canada",,,(416) 971-8686,http://www.butter-baker.com/,bakery,"Toronto, Canada",google_maps
Vanilla Bite Bakery,"389 Front St W, Toronto, ON M5V 3S8, Canada",,,(647) 249-7970,http://vanillabite.com/,bakery,"Toronto, Canada",google_maps
Harbord Bakery,"115 Harbord St, Toronto, ON M5S 1G7, Canada",,,(416) 922-5767,http://www.harbordbakery.ca/,bakery,"Toronto, Canada",google_maps
NUGATEAU PATISSERIE,"709 Queen St W, Toronto, ON M6J 1E6, Canada",,,,,cake shop,"Toronto, Canada",google_maps
L’Avenue Boulangerie,"1850 Avenue Rd, North York, ON M5M 3Z5, Canada",,info@lavenuebakery.com,(416) 886-0458,http://lavenuebakery.com/,bakery,"Toronto, Canada",google_maps
Gerrard St. Bakery,"635 Gerrard St E, Toronto, ON M4M 1Y2, Canada",,,(416) 465-4567,https://www.gerrardstreetbakery.com/,bakery,"Toronto, Canada",google_maps
Dessert Lady Cafe & Bakery,"1 Sultan St, Toronto, ON M5S 2B7, Canada",,info@dessertlady.ca,(416) 513-1118,https://www.dessertlady.ca/,bakery,"Toronto, Canada",google_maps
Paris Baguette,"2401 Yonge St, Toronto, ON M4P 3H1, Canada",,,(416) 322-3337,https://www.parisbaguette.ca/locations/on/toronto/2401-yonge-street,bakery,"Toronto, Canada",google_maps
Bake Code Croissanterie,"626 Yonge St, Toronto, ON M4Y 1Z8, Canada",,,(647) 343-6888,http://bakecode.com/,bakery,"Toronto, Canada",google_maps
Brick Street Bakery,"27 Trinity St, Toronto, ON M5A 3C4, Canada",,,(416) 214-4949,http://www.brickstreetbakery.com/,bakery,"Toronto, Canada",google_maps
Rustic Bakery,"318 Rustic Rd, North York, ON M6L 1W5, Canada",,rusticbakerycatering@gmail.com,(416) 245-1919,http://therusticbakery.ca/,bakery,"Toronto, Canada",google_maps
Bobbette & Belle Artisanal Pastries,"1121 Queen St E, Toronto, ON M4M 1K9, Canada",,,(416) 466-8800,http://www.bobbetteandbelle.com/,bakery,"Toronto, Canada",google_maps
Purebread Bakery + Coffee,"159 W Hastings St, Vancouver, BC V6B 1H5, Canada",,,(604) 563-8060,http://www.purebread.ca/,bakery,"Vancouver, Canada",google_maps
Melo Patisserie,"154 E 8th Ave, Vancouver, BC V5T 1R7, Canada",,,(604) 423-4520,https://www.melopatisserie.com/,bakery,"Vancouver, Canada",google_maps
Breka Bakery & Café - Bute,"812 Bute St, Vancouver, BC V6E 1E5, Canada",,,(604) 620-8200,http://breka.ca/,bakery,"Vancouver, Canada",google_maps
Breka Bakery & Cafe - Fraser,"6533 Fraser St, Vancouver, BC V5X 3T4, Canada",,,(604) 559-0900,http://www.breka.ca/,bakery,"Vancouver, Canada",google_maps
Beaucoup Bakery and Cafe,"2150 Fir St, Vancouver, BC V6J 3B5, Canada",,hello@beaucoupbakery.com,(604) 732-4222,http://www.beaucoupbakery.com/,bakery,"Vancouver, Canada",google_maps
Breka Bakery & Café - Davie,"855 Davie St, Vancouver, BC V6Z 1B7, Canada",,,(604) 428-8080,https://www.breka.ca/,bakery,"Vancouver, Canada",google_maps
Bisou Bakehouse,"1190 Bidwell St, Vancouver, BC V6G 2K6, Canada",,bidwell@bisoubakehouse.com,(604) 559-5657,http://www.bisoubakehouse.com/,bakery,"Vancouver, Canada",google_maps
Paris Baguette,"1150 Alberni St, Vancouver, BC V6E 4R6, Canada",,,(604) 565-6667,https://parisbaguette.ca/locations/bc/vancouver/1150-alberni-street,bakery,"Vancouver, Canada",google_maps
L'Atelier Patisserie,"599 E Broadway, Vancouver, BC V5T 0G8, Canada",,info@latelierpatisserie.com,(604) 329-6153,https://www.latelierpatisserie.online/,bakery,"Vancouver, Canada",google_maps
Gateau de Henry,"2255 Burrard St, Vancouver, BC V6J 3H9, Canada",,gateaudehenry@gmail.com,(778) 379-2250,http://gateaudehenry.com/,cafe,"Vancouver, Canada",google_maps
Bâtard Bakery,"3958 Fraser St, Vancouver, BC V5V 4E4, Canada",,batardbakery@gmail.com,(604) 506-3958,http://batardbakery.com/,bakery,"Vancouver, Canada",google_maps
Trafiq Cafe & Bakery,"4216 Main St, Vancouver, BC V5V 3P9, Canada",,,(604) 648-2244,http://trafiq.ca/,bakery,"Vancouver, Canada",google_maps
Davie Village Bakery,"1216 Davie St, Vancouver, BC V6E 1N3, Canada",,,(604) 683-2911,https://linktr.ee/dvbakery,bakery,"Vancouver, Canada",google_maps
The Bench Bakehouse,"1641 Commercial Dr, Vancouver, BC V5L 3Y4, Canada",,hello@thebenchbakehouse.com,(604) 251-0677,https://thebenchbakehouse.com/,bakery,"Vancouver, Canada",google_maps
Small Victory Bakery,"1089 Marinaside Crescent, Vancouver, BC V6Z 2Z4, Canada",,yukon@smallvictory.ca,(604) 336-6025,http://www.smallvictory.ca/,bakery,"Vancouver, Canada",google_maps
Thierry Alberni,"1059 Alberni St, Vancouver, BC V6E 1A1, Canada",,,(604) 608-6870,https://www.thierrychocolates.com/?utm_source=GoogleBusinessProfile&utm_medium=Website&utm_campaign=MapLabs,cafe,"Vancouver, Canada",google_maps
Cadeaux Bakery,"172 Powell St, Vancouver, BC V6A 1G1, Canada",,cadeauxbakery@gmail.com,(604) 608-8889,http://www.cadeauxbakery.com/,bakery,"Vancouver, Canada",google_maps
Purebread Bakery + Coffee,"5 E 5th Ave, Vancouver, BC V5T 1G7, Canada",,,(604) 336-9001,https://www.purebread.ca/,bakery,"Vancouver, Canada",google_maps
PARÉMI Boulangerie – Pâtisserie,"Bäckerstraße 10, 1010 Wien, Austria",,bonjour@paremi.at,01 9974148,http://paremi.at/,bakery,"Vienna, Austria",google_maps
Crème de la Crème,"Lange G. 76, 1080 Wien, Austria",,hallo@cremedelacreme.at,0660 2833769,https://cremedelacreme.at/,pastry shop,"Vienna, Austria",google_maps
L'Amour du Pain,"Otto-Bauer-Gasse 21, 1060 Wien, Austria",,,0678 1220689,https://www.lamourdupain.at/,cafe,"Vienna, Austria",google_maps
Joseph Brot • Wien Bio Bäckerei,"Führichgasse 6, 1010 Wien, Austria",,,01 7102881,http://www.joseph.co.at/,bakery,"Vienna, Austria",google_maps
Joseph Brot • Wien Bio Bäckerei,"Landstraßer Hauptstraße 4, 1030 Wien, Austria",,,01 7102881,http://www.joseph.co.at/,bakery,"Vienna, Austria",google_maps
Demel Vienna cafe,"Kohlmarkt 14, 1010 Wien, Austria",,wien@demel.com,01 5351717,https://www.demel.com/,pastry shop,"Vienna, Austria",google_maps
Bakery Cafe Felzl,"Helferstorferstraße 2, 1010 Wien, Austria",,,01 5321687,http://www.felzl.at/,bakery,"Vienna, Austria",google_maps
Dolce Pensiero,"Salzgries 9B, 1010 Wien, Austria",,,01 9927462,http://www.dolcepensiero.at/,pastry shop,"Vienna, Austria",google_maps
Öfferl - Wollzeile 31,"Wollzeile 31, 1010 Wien, Austria",,brot@oefferl.bio,02522 88337,https://www.oefferl.bio/,bakery,"Vienna, Austria",google_maps
Bakery Prindl NFG. Ltd.,"Jägerstraße 2, 1200 Wien, Austria",,,01 3300455,https://prindl.wien/,bakery,"Vienna, Austria",google_maps
"TOP 02 – Desserts, Gelato & Coffee","Universitätsstraße 2, 1090 Wien, Austria",,bonjour@top02.at,0676 7056292,https://top02.at/,coffee shop,"Vienna, Austria",google_maps
Kurkonditorei OBERLAA,"Neuer Markt 16, 1010 Wien, Austria",,,01 51329360,http://www.oberlaa-wien.at/,pastry shop,"Vienna, Austria",google_maps
Bäckerei & Konditorei Tschörek,"Wilhelminenstraße 18, 1160 Wien, Austria",,,0676 3923213,https://www.tschoerek.com/,bakery,"Vienna, Austria",google_maps
Gerstner K. u. K. Hofzuckerbäcker,"Kärntner Str. 51, 1010 Wien, Austria",,konditorei@gerstner.at,01 5261361,https://www.gerstner.at/palaistodesco/,cafe,"Vienna, Austria",google_maps
Ströck - Feierabend Landstraße,"Landstraßer Hauptstraße 82, 1030 Wien, Austria",,,01 204399993057,https://feierabend.stroeck.at/,restaurant,"Vienna, Austria",google_maps
Gregors Bakery,"Schönbrunner Str. 42, 1050 Wien, Austria",,,01 5441127,http://gregors-konditorei.at/,pastry shop,"Vienna, Austria",google_maps
Café Central,"Herrengasse 14, 1010 Wien, Austria",Küchenchef Café Central,cafe.central@palaisevents.at,01 5333763,https://www.cafecentral.wien/,cafe,"Vienna, Austria",google_maps
CupCakes Wien,"Josefstadt AT, Albertgasse 17, 1080 Wien, Austria",,,,http://www.cupcakes-wien.at/,bakery,"Vienna, Austria",google_maps
Tart'a Tata,"Lindengasse 35, 1070 Wien, Austria",,office@tarte.at,01 52656261,https://tarte.at/,pastry shop,"Vienna, Austria",google_maps
CRO,"Lugeck 3, 1010 Wien, Austria",,,,http://www.thecro.at/,coffee stand,"Vienna, Austria",google_maps
